Event  1791562 Xizang
   Date       Time        Err   RMS Latitude Longitude  Smaj  Smin  Az Depth   Err Ndef Nsta Gap  mdist  Mdist Qual   Author      OrigID
2000/03/26 15:58:34.13   0.78 0.840  30.4280   88.2470  22.5  16.3  54  33.0f         6    6 126  15.38  85.60     se NEIC       3056882
2000/03/26 15:58:44.54   9.07 0.120  30.1953   88.5712  34.6  24.8  35 124.2  83.4    6    6 126  15.02  85.77     uk IDC        3683350
2000/03/26 15:58:31.38   9.40 1.026  30.4250   88.1500 20.98 13.30   0  12.9  60.4    8    9 126   8.72  85.62 m i    ISC        3856183
 (#PRIME)

Magnitude  Err Nsta Author      OrigID
mb     3.8        1 NEIC       3056882
mb     3.2 0.1    5 IDC        3683350
MS     3.0 0.0    1 IDC        3683350
mb     3.7        6 ISC        3856183

Event  2430539 Northern India
   Date       Time        Err   RMS Latitude Longitude  Smaj  Smin  Az Depth   Err Ndef Nsta Gap  mdist  Mdist Qual   Author      OrigID
2000/03/30 07:14:20.20   0.30 0.000  27.1000   77.3570   1.8   2.7  -1  15.0   0.0         5 151                      NDI        3687137

Magnitude  Err Nsta Author      OrigID
MD     3.3          NDI        3687137

Event  2430541 Nepal-India border region
   Date       Time        Err   RMS Latitude Longitude  Smaj  Smin  Az Depth   Err Ndef Nsta Gap  mdist  Mdist Qual   Author      OrigID
2000/03/30 08:04:19.00   4.27 1.700  29.7310   80.3530  12.5  24.5  -1  15.0f              6 258                      NDI        3687138

Magnitude  Err Nsta Author      OrigID
MD     3.0          NDI        3687138

Event  2430549 Northern India
   Date       Time        Err   RMS Latitude Longitude  Smaj  Smin  Az Depth   Err Ndef Nsta Gap  mdist  Mdist Qual   Author      OrigID
2000/03/30 16:33:30.50   3.76 1.500  28.4810   78.3650  16.9  12.8  -1  15.0f              6 138                      NDI        3687144

Magnitude  Err Nsta Author      OrigID
MD     2.3          NDI        3687144

Event  2707926 Western Xizang-India border region
   Date       Time        Err   RMS Latitude Longitude  Smaj  Smin  Az Depth   Err Ndef Nsta Gap  mdist  Mdist Qual   Author      OrigID
2000/04/08 23:05:25.20   3.15 1.500  32.3020   78.4380  23.1  13.7  -1  33.0f              8 236                      NDI        3839126
2000/04/08 23:05:29.24   2.18 0.861  31.7000   78.2080 26.75 16.53   0  33.0f         7    7 210   1.06   2.76 m i    ISC        3957983
 (#PRIME)

Magnitude  Err Nsta Author      OrigID
MD     3.0          NDI        3839126

Event  1734364 Xizang
   Date       Time        Err   RMS Latitude Longitude  Smaj  Smin  Az Depth   Err Ndef Nsta Gap  mdist  Mdist Qual   Author      OrigID
2000/04/10 15:02:05.10   1.51 0.220  30.3466   88.1395  52.0  38.6 145   0.0f         4    4 126  15.38  85.69     uk IDC        3816821
2000/04/10 15:02:05.50        1.000  30.1100   88.4000                  23.0               6                          BJI        3018377
2000/04/10 15:02:08.52   0.79 0.540  30.2280   88.1760  32.0  13.5  48  33.0f         5    5 127  15.27  85.81     se NEIC       3058660
2000/04/10 15:02:06.82   3.37 1.322  30.1510   88.3360 15.32 7.775   0  25.4  30.4   12   12 119   2.48  85.86 m i    ISC        3958106
 (#PRIME)

Magnitude  Err Nsta Author      OrigID
mb     3.8 0.1    3 IDC        3816821
ML     3.9 0.0    1 IDC        3816821
MS     2.8 0.0    1 IDC        3816821
mb     4.5          BJI        3018377
ML     3.2          BJI        3018377
mb     3.7        1 NEIC       3058660
mb     3.7        3 ISC        3958106

Event  1794321 Kashmir-Xizang border region
   Date       Time        Err   RMS Latitude Longitude  Smaj  Smin  Az Depth   Err Ndef Nsta Gap  mdist  Mdist Qual   Author      OrigID
2000/04/11 18:12:40.34   0.93 0.990  32.0092   78.8910  32.7  20.3  38   0.0f         9    9 127   5.02  86.89     uk IDC        3816882
2000/04/11 18:12:44.70   4.78 1.700  32.1740   78.8280  22.6  18.2  -1  10.0f             11 225                      NDI        3839144
2000/04/11 18:12:45.02   0.70 1.280  32.3720   79.0710  17.8  14.0  58  33.0f         9    9 105   4.01  87.01     se NEIC       3058730
2000/04/11 18:12:46.48   1.25 0.921  32.0580   78.8430 15.21 10.44   0  56.7  15.5   23   23 103   1.69  86.95 m i    ISC        3958217
 (#PRIME)

Magnitude  Err Nsta Author      OrigID
mb     3.8 0.2    7 IDC        3816882
ML     3.9 0.0    1 IDC        3816882
mb     4.0          NDI        3839144
MD     3.4          NDI        3839144
mb     3.6          NEIC       3839144
mb     3.6        1 NEIC       3058730
mb     3.8        7 ISC        3958217

Event  2677042 Kashmir-Xizang border region
   Date       Time        Err   RMS Latitude Longitude  Smaj  Smin  Az Depth   Err Ndef Nsta Gap  mdist  Mdist Qual   Author      OrigID
2000/04/14 15:28:27.70   3.78 1.500  32.3940   79.3380  14.0  22.3  -1  33.0f             10 282                      NDI        3839160
2000/04/14 15:28:30.09   1.22 1.090  32.4018   78.5977  51.6  17.0  22   0.0f         7    4 158   4.66  76.84     uk IDC        3817038
2000/04/14 15:28:33.88   0.91 1.145  32.5130   78.7330 15.76 8.424   0  33.0f        13   13 104   1.81  76.77 m i    ISC        3958487
 (#PRIME)

Magnitude  Err Nsta Author      OrigID
MD     3.3          NDI        3839160
mb     3.3 0.1    3 IDC        3817038
mb     3.2        3 ISC        3958487

Event  2677227 India-Bangladesh border region
   Date       Time        Err   RMS Latitude Longitude  Smaj  Smin  Az Depth   Err Ndef Nsta Gap  mdist  Mdist Qual   Author      OrigID
2000/04/18 07:53:39.80   1.20 0.970  26.2876   89.8832 136.0  22.2  45   0.0f         5    5 165  11.44  65.41     uk IDC        3817180
2000/04/18 07:53:45.20   4.35 1.300  26.5500   90.2640  17.8  14.4  -1  33.0f              7 185                      NDI        3839177
2000/04/18 07:53:43.37   0.89 1.269  25.9410   89.7620 14.65 8.983   0  46.4  12.4   25   27 132   1.95  65.24 m i    ISC        3958785
 (#PRIME)

Magnitude  Err Nsta Author      OrigID
mb     3.8 0.1    3 IDC        3817180
ML     4.1 0.0    2 IDC        3817180
MD     3.3          NDI        3839177
mb     3.9        3 ISC        3958785

Event  1734636 Xizang
   Date       Time        Err   RMS Latitude Longitude  Smaj  Smin  Az Depth   Err Ndef Nsta Gap  mdist  Mdist Qual   Author      OrigID
2000/04/21 16:06:52.80        1.900  32.4500   89.0100                  26.0              14                          BJI        3018513
2000/04/21 16:06:53.56   0.54 1.020  32.2230   89.1540  13.9  10.0  66  33.0f        17   17 109  15.59 161.63     se NEIC       3059284
2000/04/21 16:06:57.99   6.00 0.570  32.2682   89.2702  37.8  27.8  77  57.1  56.2   10   10 134  16.28 161.74     uk IDC        3817346
2000/04/21 16:07:31                  36.0000   85.0000                                                                NAO        3607314
2000/04/21 16:06:54.28   2.83 1.200  32.4430   89.1450 6.745   7.8  90  28.4  24.7   30   33  58   3.23 161.74 m i    ISC        3959064
 (#PRIME)

Magnitude  Err Nsta Author      OrigID
Ms     4.2          BJI        3018513
Msz    4.3          BJI        3018513
mb     3.8        6 NEIC       3059284
mb     3.4 0.1    7 IDC        3817346
ML     3.2 0.0    1 IDC        3817346
MS     3.4 0.2    4 IDC        3817346
Mb     3.5          NAO        3607314
mb     3.7        7 ISC        3959064
MS     3.5        3 ISC        3959064

Event  2708029 Western Xizang-India border region
   Date       Time        Err   RMS Latitude Longitude  Smaj  Smin  Az Depth   Err Ndef Nsta Gap  mdist  Mdist Qual   Author      OrigID
2000/04/23 14:56:27.20   3.16 1.300  31.6110   78.0790  12.4   9.3  -1  10.0f             10 191                      NDI        3839226
2000/04/23 14:56:27.00   2.39 1.421  31.5770   78.1080 22.53 12.58   0  10.0f         8    9 197   0.92   8.33 m i    ISC        3959237
 (#PRIME)

Magnitude  Err Nsta Author      OrigID
MD     2.9          NDI        3839226

Event  2708038 Kashmir-Xizang border region
   Date       Time        Err   RMS Latitude Longitude  Smaj  Smin  Az Depth   Err Ndef Nsta Gap  mdist  Mdist Qual   Author      OrigID
2000/04/24 15:17:49.30   3.79 1.400  31.6050   78.2020  12.5  10.5  -1  10.0f             11 200                      NDI        3839231
2000/04/24 15:17:43.97   1.39 1.198  32.0450   78.4530  16.6 5.739   0  10.0f        22   22 190   1.38   8.01 m i    ISC        3959339
 (#PRIME)

Magnitude  Err Nsta Author      OrigID
MD     3.0          NDI        3839231

Event  2708209 Nepal-India border region
   Date       Time        Err   RMS Latitude Longitude  Smaj  Smin  Az Depth   Err Ndef Nsta Gap  mdist  Mdist Qual   Author      OrigID
2000/04/25 21:40:15.90   4.35 1.600  29.4560   80.3230   9.0  20.8  -1   5.0f              9 248                      NDI        3839248
2000/04/25 21:40:12.10   3.96 2.060  29.4010   80.4930 37.23 16.32  90   5.0f         7    7 259   0.28   6.72 m i    ISC        3959468
 (#PRIME)

Magnitude  Err Nsta Author      OrigID
MD     3.0          NDI        3839248

Event  1734844 Western Xizang-India border region
   Date       Time        Err   RMS Latitude Longitude  Smaj  Smin  Az Depth   Err Ndef Nsta Gap  mdist  Mdist Qual   Author      OrigID
2000/04/28 00:16:59                  29.0000   80.0000                                                                NAO        3607440
2000/04/28 00:17:17.98   0.34 0.980  31.6010   78.3050   8.8   6.6  44  33.0f        33   33  68   3.06 145.91     se NEIC       3059673
2000/04/28 00:17:18.80   4.93 1.500  31.5070   78.2460  13.5  11.2  -1  10.0f             16  96                      NDI        3839272
2000/04/28 00:17:20.69        0.890  31.5630   78.2840   6.5   3.9  27  41.0   5.1   93   73                       ke EHB       11207844
2000/04/28 00:17:21.10   1.37        31.8890   78.2670  27.7  18.6  35  33.0          9                               MOS        3024377
2000/04/28 00:17:21.62   2.71 0.580  31.4954   78.2548  17.9  12.9  18  52.2  24.4   20   19  95   4.74 145.90     uk IDC        3817748
2000/04/28 00:17:22.50        2.500  31.9500   79.2400                   6.0              20                          BJI        3018617
2000/04/28 00:17:19.06   0.45 1.124  31.5090   78.2870   5.1 3.502   0  46.6   6.4   75   81  27   0.04 145.93 m i    ISC        3959697
 (#PRIME)

Magnitude  Err Nsta Author      OrigID
Mb     4.5          NAO        3607440
mb     4.6        8 NEIC       3059673
mb     4.5          NDI        3839272
MD     3.6          NDI        3839272
ML     4.1          NDI        3839272
mb     4.6        5 MOS        3024377
mb     3.9 0.1   17 IDC        3817748
ML     4.1 0.0    1 IDC        3817748
MS     3.5 0.1    7 IDC        3817748
mb     4.5          BJI        3018617
ML     4.0          BJI        3018617
Ms     4.1          BJI        3018617
Msz    3.8          BJI        3018617
mb     4.2       22 ISC        3959697
MS     3.6        7 ISC        3959697

Event  2708363 Western Xizang-India border region
   Date       Time        Err   RMS Latitude Longitude  Smaj  Smin  Az Depth   Err Ndef Nsta Gap  mdist  Mdist Qual   Author      OrigID
2000/04/28 17:43:26.20   5.10 1.900  31.5120   78.1670  21.6  15.5  -1  10.0f             13 126                      NDI        3839278
2000/04/28 17:43:26.40   1.66 1.360  31.5000   78.1070 15.98 12.97   0  10.0f        11   11 133   0.13   3.19 m i    ISC        3959780
 (#PRIME)

Magnitude  Err Nsta Author      OrigID
MD     3.1          NDI        3839278

Event  2708365 Western Xizang-India border region
   Date       Time        Err   RMS Latitude Longitude  Smaj  Smin  Az Depth   Err Ndef Nsta Gap  mdist  Mdist Qual   Author      OrigID
2000/04/28 22:30:37.30   3.95 1.300  31.5610   78.2440  10.6  10.2  -1   5.0f             13 200                      NDI        3839279

Magnitude  Err Nsta Author      OrigID
MD     2.8          NDI        3839279

Event  2708369 Western Xizang-India border region
   Date       Time        Err   RMS Latitude Longitude  Smaj  Smin  Az Depth   Err Ndef Nsta Gap  mdist  Mdist Qual   Author      OrigID
2000/04/29 14:29:41.40   4.84 1.900  31.4780   78.1270  13.0  12.8  -1  10.0f             14 124                      NDI        3839284
2000/04/29 14:29:41.04   1.46 1.243  31.4700   78.0680 11.46 12.32  90  10.0f         9    9 199   0.84   2.87 m i    ISC        3959878
 (#PRIME)

Magnitude  Err Nsta Author      OrigID
MD     3.0          NDI        3839284

Event  2708371 Western Xizang-India border region
   Date       Time        Err   RMS Latitude Longitude  Smaj  Smin  Az Depth   Err Ndef Nsta Gap  mdist  Mdist Qual   Author      OrigID
2000/04/29 19:38:21.00   4.18 1.500  31.5440   78.1750  12.3  11.4  -1  10.0f             13 154                      NDI        3839285
2000/04/29 19:38:19.91   1.52 1.332  31.5240   78.2230  14.4 10.88   0  10.0f        10   11 129   0.03   8.28 m i    ISC        3959904
 (#PRIME)

Magnitude  Err Nsta Author      OrigID
MD     3.0          NDI        3839285
ML     3.1          NDI        3839285

Event  1735066 Northern India
   Date       Time        Err   RMS Latitude Longitude  Smaj  Smin  Az Depth   Err Ndef Nsta Gap  mdist  Mdist Qual   Author      OrigID
2000/05/04 02:00:34                  26.0000   81.0000                                                                NAO        3607524
2000/05/04 02:00:55.61   2.13 0.440  29.8497   80.1335  49.0  32.2 142   0.0f         8    8 241   6.98  87.22     uk IDC        3945427
2000/05/04 02:00:59.60        4.600  30.0000   80.0000                  33.0               7                          BJI        3018728
2000/05/04 02:00:59.69   0.83 0.780  29.9670   79.9880  18.7  10.1 116  33.0f        11   11 189   2.74  87.12     se NEIC       3063391
2000/05/04 02:01:01.90   6.22 1.800  29.7970   79.8120  13.4  12.5  -1  15.0  15.3        20 172                      NDI        3945034
2000/05/04 02:00:59.93   0.51 1.171  29.9150   79.9490 7.120   6.2  90  33.0f        33   34  74   0.43  87.17 m i    ISC        3976185
 (#PRIME)

Magnitude  Err Nsta Author      OrigID
Mb     3.9          NAO        3607524
mb     3.9 0.2    7 IDC        3945427
ML     4.2 0.0    1 IDC        3945427
mb     4.5          BJI        3018728
mb     3.5        1 NEIC       3063391
ML     3.7          NDI        3063391
MD     3.9          NDI        3945034
ML     3.7          NDI        3945034
mb     3.5          NEIC       3945034
mb     3.9        8 ISC        3976185

Event  2888191 Northern India
   Date       Time        Err   RMS Latitude Longitude  Smaj  Smin  Az Depth   Err Ndef Nsta Gap  mdist  Mdist Qual   Author      OrigID
2000/05/04 16:09:37.90   3.65 1.600  30.6200   78.4990   9.8   8.9  -1  15.0f             12 171                      NDI        3945039
2000/05/04 16:09:38.24   2.25 1.295  30.6730   78.4200 14.13 11.99  90  26.8  20.6    8   10 171   0.47   7.46 m i    ISC        3976276
 (#PRIME)

Magnitude  Err Nsta Author      OrigID
MD     2.8          NDI        3945039

Event  1801374 Nepal
   Date       Time        Err   RMS Latitude Longitude  Smaj  Smin  Az Depth   Err Ndef Nsta Gap  mdist  Mdist Qual   Author      OrigID
2000/05/05 22:48:13.01   1.55 0.180  29.6034   81.4346  41.5  32.3  46   0.0f         4    4 140  19.44  64.04     uk IDC        3945595
2000/05/05 22:48:18.10   4.03 1.400  29.6020   81.8380  12.7  13.9  -1  33.0f             15 172                      NDI        3945051
2000/05/05 22:48:19.83   2.37 1.150  29.3980   81.5730  22.5  14.9  46  81.3  25.8    7    7 116   3.88  64.13     se NEIC       3063531
2000/05/05 22:48:17.08   1.14 1.575  29.4680   81.6330 8.988   8.2  90  57.2  15.1   21   23 106   3.22  64.19 m i    ISC        3976419
 (#PRIME)

Magnitude  Err Nsta Author      OrigID
mb     3.7 0.1    3 IDC        3945595
ML     3.6 0.0    1 IDC        3945595
MS     2.8 0.0    1 IDC        3945595
MD     3.9          NDI        3945051
ML     4.0          NDI        3945051
mb     4.4          NEIC       3945051
mb     4.4        2 NEIC       3063531
mb     4.1        4 ISC        3976419

Event  2888258 Western Xizang-India border region
   Date       Time        Err   RMS Latitude Longitude  Smaj  Smin  Az Depth   Err Ndef Nsta Gap  mdist  Mdist Qual   Author      OrigID
2000/05/11 20:37:32.60   5.68 2.000  31.6910   78.2870  18.9  17.2  -1  33.0f             16 200                      NDI        3945094
2000/05/11 20:37:29.76   1.94 1.077  31.7320   78.5600 15.29 16.76  90  33.0f        12   13 207   0.33  14.90 m i    ISC        3977017
 (#PRIME)

Magnitude  Err Nsta Author      OrigID
MD     3.2          NDI        3945094

Event  1735614 Kashmir-Xizang border region
   Date       Time        Err   RMS Latitude Longitude  Smaj  Smin  Az Depth   Err Ndef Nsta Gap  mdist  Mdist Qual   Author      OrigID
2000/05/19 09:41:02.22   0.89 1.450  33.3638   78.6996  27.6  16.9   4   0.0f         9    7 128   4.56  83.88     uk IDC        3946381
2000/05/19 09:41:05.83   0.88 1.550  33.4060   78.5580  17.4  15.0  47  33.0f        11   11 128   4.44  83.85     se NEIC       3064404
2000/05/19 09:41:06.00   1.22        33.2830   78.5920  26.1  20.0 159  33.0          8                               MOS        3024669
2000/05/19 09:41:10.70   5.67 2.100  33.3350   78.7450  21.3  21.8  -1  33.0f             13 252                      NDI        3945141
2000/05/19 09:41:11.80        2.600  33.5200   79.4700                  29.0               7                          BJI        3019002
2000/05/19 09:41:06.70   0.75 1.243  33.5020   78.7650 6.109   6.0  90  36.5  12.1   35   39  77   2.51  83.74 m i    ISC        3977751
 (#PRIME)

Magnitude  Err Nsta Author      OrigID
mb     3.7 0.1    6 IDC        3946381
ML     3.8 0.0    1 IDC        3946381
MS     3.2 0.2    3 IDC        3946381
mb     3.6        3 NEIC       3064404
mb     4.2        4 MOS        3024669
MD     3.6          NDI        3945141
mb     4.3          BJI        3019002
ML     3.8          BJI        3019002
Msz    4.2          BJI        3019002
mb     3.7        7 ISC        3977751

Event  1735714 Xizang
   Date       Time        Err   RMS Latitude Longitude  Smaj  Smin  Az Depth   Err Ndef Nsta Gap  mdist  Mdist Qual   Author      OrigID
2000/05/23 18:29:15.20        1.400  30.8900   87.1500                  30.0              15                          BJI        3019052
2000/05/23 18:29:17.55   0.54 0.900  30.8460   87.3310  12.8  10.5  50  33.0f        12   12  78  14.75  70.22     se NEIC       3064681
2000/05/23 18:29:19.20   4.98 2.000  31.6560   87.5220  40.1  26.1  -1  33.0f              6 235                      NDI        3945164
2000/05/23 18:29:21.94   6.91 1.220  30.9675   87.2937  31.9  19.2  52  50.5  65.5   11   11 126  16.33 148.70     uk IDC        3946587
2000/05/23 18:29:47                  35.0000   86.0000                                                                NAO        3607736
2000/05/23 18:29:17.51   0.42 1.567  31.0020   87.1640   7.0 5.043   0  30.0f        30   32  70   3.68 148.58 m i    ISC        3978117
 (#PRIME)

Magnitude  Err Nsta Author      OrigID
mb     4.6          BJI        3019052
Ms     4.0          BJI        3019052
Msz    4.3          BJI        3019052
mb     3.9        4 NEIC       3064681
mb     3.9          NEIC       3945164
mb     3.6 0.1    9 IDC        3946587
ML     3.7 0.0    1 IDC        3946587
MS     3.3 0.2    3 IDC        3946587
Mb     3.8          NAO        3607736
mb     3.9       10 ISC        3978117
MS     3.1        1 ISC        3978117

