Event  1740656 Nepal
   Date       Time        Err   RMS Latitude Longitude  Smaj  Smin  Az Depth   Err Ndef Nsta Gap  mdist  Mdist Qual   Author      OrigID
2000/10/09 01:21:07.80        1.300  29.0800   81.2300                  39.0               5                          BJI        3021544
2000/10/09 01:21:08.94   1.48 0.480  29.5370   81.5724  38.2  28.7  36   0.0f         9    8 153  19.30  83.65     uk IDC        3888810
2000/10/09 01:21:10.85   0.57 1.090  29.3320   81.4790  17.2  10.4 104  33.0f        11       81  12.16  83.59     se NEIC       4035045
2000/10/09 01:21:14.30   6.84 2.300  29.3670   81.7160  17.6  23.2  -1  20.0f             18 166                      NDI        4172198
2000/10/09 01:21:11.35   0.51 1.410  29.3420   81.7900   7.3   6.8  90  33.0f        23   25  59   1.35  83.86 m i    ISC        4225152
 (#PRIME)

Magnitude  Err Nsta Author      OrigID
mb     4.4          BJI        3021544
ML     3.7          BJI        3021544
mb     4.1 0.1    7 IDC        3888810
ML     4.1 0.0    1 IDC        3888810
mb     4.1        1 NEIC       4035045
MD     3.7          NDI        4172198
ML     3.8          NDI        4172198
mb     4.1        8 ISC        4225152

Event  3207540 Nepal-India border region
   Date       Time        Err   RMS Latitude Longitude  Smaj  Smin  Az Depth   Err Ndef Nsta Gap  mdist  Mdist Qual   Author      OrigID
2000/10/09 20:59:10.00   4.51 1.500  28.6550   81.4380  12.3  21.0  -1   9.9  12.4        14 223                      NDI        4172211
2000/10/09 20:59:08.39   1.95 1.530  28.5360   81.4490 21.26 11.32  90   9.9f        12   13 220   1.39   7.28 m i    ISC        4225205
 (#PRIME)

Magnitude  Err Nsta Author      OrigID
MD     3.9          NDI        4172211

Event  1740686 Southern India
   Date       Time        Err   RMS Latitude Longitude  Smaj  Smin  Az Depth   Err Ndef Nsta Gap  mdist  Mdist Qual   Author      OrigID
2000/10/10 06:11:30.96   1.31 0.350  22.8945   83.0324  32.4  19.4 140  17.6   2.4   27   14 214  31.03 152.08     uk IDC        3888870
2000/10/10 06:11:32.60   5.41 1.500  23.0600   82.9170   9.5   9.4  -1   5.4  18.5        23 101                      NDI        4172215
2000/10/10 06:11:32.70   0.67 1.010  23.0800   82.7280  16.1  11.7 170  33.0f        16      139   9.46  85.08     se NEIC       4035102
2000/10/10 06:11:33.20   1.02        23.1880   82.7800  22.2  14.0  25  33.0         15                               MOS        3026660
2000/10/10 06:11:36.80        2.600  23.2100   82.9000                  19.0               5                          BJI        3021559
2000/10/10 06:11:30.57   0.59 1.026  23.0130   82.7790   6.4   4.9   0  17.6d        49   56  70   1.06 151.83 m i    ISC        4225229
 (#PRIME)
 (Depth fixed to depth phase depth)
 (#PARAM pP_DEPTH=18+1)

Magnitude  Err Nsta Author      OrigID
mb     4.0 0.1   12 IDC        3888870
MD     4.7          NDI        4172215
ML     3.5          NDI        4172215
mb     4.5        1 NEIC       4035102
mb     4.5        7 MOS        3026660
mb     4.2          BJI        3021559
mb     4.1       12 ISC        4225229

Event  1740732 Kashmir-Xizang border region
   Date       Time        Err   RMS Latitude Longitude  Smaj  Smin  Az Depth   Err Ndef Nsta Gap  mdist  Mdist Qual   Author      OrigID
2000/10/12 00:07:57.30        4.100  32.3900   77.9300                  22.0               7                          BJI        3021582
2000/10/12 00:07:57.97   1.44 0.520  32.6658   78.4395  45.0  24.4  37   0.0f         8    8 180  21.74  76.63     uk IDC        3888930
2000/10/12 00:08:00.62   1.07 1.370  32.5720   78.1700  29.1  17.7  22  33.0f        11      180  21.87  76.79     se NEIC       4035202
2000/10/12 00:08:02.00   4.91 1.800  32.8290   78.2290  14.7  13.2  -1  33.0f             15 232                      NDI        4172244
2000/10/12 00:08:01.66   0.50 1.531  32.6810   78.3440 6.260   5.2  90  33.0f        30   31  75   1.66  76.65 m i    ISC        4225369
 (#PRIME)

Magnitude  Err Nsta Author      OrigID
ML     3.5          BJI        3021582
mb     3.8 0.1    7 IDC        3888930
mb     4.7        3 NEIC       4035202
MD     3.6          NDI        4172244
ML     3.5          NDI        4172244
mb     4.0       10 ISC        4225369

Event  3207563 Northern India
   Date       Time        Err   RMS Latitude Longitude  Smaj  Smin  Az Depth   Err Ndef Nsta Gap  mdist  Mdist Qual   Author      OrigID
2000/10/12 07:59:12.20   0.51 0.200  28.6810   79.5470 282.6 298.5  -1  15.0   0.0         3 359                      NDI        4172249

Magnitude  Err Nsta Author      OrigID
MD     3.7          NDI        4172249

Event  1740838 Southern India
   Date       Time        Err   RMS Latitude Longitude  Smaj  Smin  Az Depth   Err Ndef Nsta Gap  mdist  Mdist Qual   Author      OrigID
2000/10/16 22:32:27                  16.0000   81.0000                                                                NAO        3610434
2000/10/16 22:33:09.53   0.30 0.840  23.2800   80.3000   7.8   6.3   4  33.0f        39       65   6.06 127.55     de NEIC       4035534
 (Some buildings slightly damaged at Jabalpur.)
2000/10/16 22:33:09.90   1.21        23.2480   80.2630  14.1   9.6 172  33.0         27                               MOS        3027440
2000/10/16 22:33:10.10        2.200  23.6400   80.4100                  13.0              30                          BJI        3021635
2000/10/16 22:33:11.02   0.56 0.680  23.2091   80.2857  15.3  12.5 120  27.9   2.0   40   21  98  18.06 149.53     uk IDC        3889078
2000/10/16 22:33:11.65        0.910  23.2780   80.3170   5.2   4.1 149  31.9   2.4  151  109                       ke EHB       11210284
2000/10/16 22:33:12.30        1.800  23.2240   80.3340                  33.0f             31                          NDI        4172306
2000/10/16 22:33:08.04   1.00 1.091  23.2710   80.2850 3.161   3.3  90  20.2   8.4  106  119  28   2.05 149.52 m i    ISC        4225725
 (#PRIME)

Year Volume Page1 Page2 Journal
2007     97  1475  1485 Bull. seism. Soc. Am.
 (#AUTHOR Singh,S.K. , Pimprikar,S.D. , Bansal,B.K. , Pacheco,J.F. , Dattatrayam,R.S. ,     )
 (+       Suresh,G.                                                                        )
 (#TITLE  An Analysis of the Mw 4.7 Jabalpur, India, Earthquake of 16 October 2000:        )
 (+       Toward Ground-Motion Estimation in the Region from Future Events                 )
 (#PARAM pP_DEPTH=29+2)

Magnitude  Err Nsta Author      OrigID
Mb     4.0          NAO        3610434
mb     4.7       15 NEIC       4035534
MSZ    3.9        6 NEIC       4035534
mb     4.7       13 MOS        3027440
mb     4.6          BJI        3021635
mB     5.0          BJI        3021635
Ms     4.5          BJI        3021635
Msz    4.3          BJI        3021635
mb     4.1 0.1   18 IDC        3889078
ML     4.1 0.0    1 IDC        3889078
MS     4.1 0.1    8 IDC        3889078
MD     5.1          NDI        4172306
ML     5.2          NDI        4172306
mb     4.7          NEIC       4172306
mb     4.4       26 ISC        4225725
MS     4.1       15 ISC        4225725

Event  1740882 Xizang
   Date       Time        Err   RMS Latitude Longitude  Smaj  Smin  Az Depth   Err Ndef Nsta Gap  mdist  Mdist Qual   Author      OrigID
2000/10/18 08:18:06.90   2.96 0.000  32.5550   90.1410 283.7 213.6  -1  33.0f              3 266                      NDI        4172315
2000/10/18 08:18:25.34   1.49 0.680  29.9849   88.1976  37.9  25.0 178   0.0f         9    9 127  15.08  76.32     uk IDC        3889126
2000/10/18 08:18:28.31   0.67 0.700  29.9470   88.1790  17.0  12.3  41  33.0f         9      127  15.06  76.36     se NEIC       4035639
2000/10/18 08:18:29.10        4.600  30.3300   88.2700                  37.0               7                          BJI        3021657
2000/10/18 08:18:26.15   4.18 0.749  29.9540   88.2020 14.54 8.559   0  15.6  35.2   15   15 121   2.57  76.35 m i    ISC        4225831
 (#PRIME)

Magnitude  Err Nsta Author      OrigID
mb     3.9 0.1    8 IDC        3889126
ML     4.0 0.0    1 IDC        3889126
MS     3.3 0.2    2 IDC        3889126
mb     4.3          BJI        3021657
mb     4.0        9 ISC        4225831
MS     3.3        1 ISC        4225831

Event  3207661 Northern India
   Date       Time        Err   RMS Latitude Longitude  Smaj  Smin  Az Depth   Err Ndef Nsta Gap  mdist  Mdist Qual   Author      OrigID
2000/10/22 03:25:11.00   3.26 1.300  30.3850   78.7060  13.8  12.6  -1  20.0f              6 174                      NDI        4172343

Magnitude  Err Nsta Author      OrigID
MD     2.7          NDI        4172343

Event  3207700 Western Xizang-India border region
   Date       Time        Err   RMS Latitude Longitude  Smaj  Smin  Az Depth   Err Ndef Nsta Gap  mdist  Mdist Qual   Author      OrigID
2000/10/25 19:22:51.50   4.39 1.500  31.0110   77.9650  12.3  17.7  -1  10.0f             14 187                      NDI        4172373
2000/10/25 19:22:46.85   0.72 1.465  31.1570   78.2040   9.4 4.939   0  10.0f        23   23 177   0.84  13.68 m i    ISC        4226400
 (#PRIME)

Magnitude  Err Nsta Author      OrigID
MD     3.2          NDI        4172373
ML     3.4          NDI        4172373

Event  1741080 Nepal
   Date       Time        Err   RMS Latitude Longitude  Smaj  Smin  Az Depth   Err Ndef Nsta Gap  mdist  Mdist Qual   Author      OrigID
2000/10/26 15:22:34.92   0.28 0.990  29.2110   81.8750   7.0   5.9  32  33.0f        59       63  12.13  87.66     se NEIC       4036139
2000/10/26 15:22:35.39        0.940  29.3320   81.9210   5.2   3.5  19  15.0f       128  112                       ke EHB       11210401
2000/10/26 15:22:35.60   1.15        29.2770   81.8860  18.7  11.9  26  33.0         19                               MOS        3026754
2000/10/26 15:22:36.10   5.28 1.700  29.2410   81.9730  12.0  11.4  -1  10.0f             27 166                      NDI        4172384
2000/10/26 15:22:37.20        2.100  29.7000   82.2100                  14.0              32                          BJI        3021756
2000/10/26 15:22:37.84   3.53 0.570  29.2233   81.9162  18.0  14.7  21  37.0  29.0   20   18  96  18.88 149.62     uk IDC        3889526
2000/10/26 15:22:38.00   0.95        29.6666   81.6361  47.6   8.8 159  33.0   0.0   11   11      19.66  87.24     ke LDG        3033128
2000/10/26 15:22:48                  31.0000   82.0000                                                                NAO        3610513
2000/10/26 15:22:36.59   0.39 1.116  29.2970   81.8700   4.2 2.807   0  42.8   4.9  118  120  27   0.61 149.56 m i    ISC        4226487
 (#PRIME)

Magnitude  Err Nsta Author      OrigID
mb     4.8       28 NEIC       4036139
mb     4.7       12 MOS        3026754
mb     4.8          NDI        4172384
MD     4.8          NDI        4172384
ML     4.6          NDI        4172384
mb     4.5          BJI        3021756
ML     4.1          BJI        3021756
Ms     3.9          BJI        3021756
Msz    3.8          BJI        3021756
mb     4.2 0.1   16 IDC        3889526
ML     4.3 0.0    1 IDC        3889526
MS     3.9 0.0    1 IDC        3889526
Mb     4.8 0.2   14 LDG        3033128
Mb     4.5          NAO        3610513
mb     4.6       41 ISC        4226487
MS     4.0        3 ISC        4226487

Event  2783785 Nepal
   Date       Time        Err   RMS Latitude Longitude  Smaj  Smin  Az Depth   Err Ndef Nsta Gap  mdist  Mdist Qual   Author      OrigID
2000/10/27 19:07:48.86   1.84 0.950  28.6882   80.2854  97.7  22.3  48   0.0f         6    6 197  19.88  79.89     uk IDC        3889589
2000/10/27 19:07:49.10   5.90 1.600  30.5750   81.0880  24.1  16.7  -1   6.4  28.7         9 186                      NDI        4172389
2000/10/27 19:07:59.38   1.21 1.204  29.9300   81.1830 13.76 6.926   0  58.7  16.1   27   28  93   0.46  78.47 m i    ISC        4226609
 (#PRIME)

Magnitude  Err Nsta Author      OrigID
mb     4.0 0.2    5 IDC        3889589
ML     3.4 0.0    1 IDC        3889589
ML     3.9          NDI        4172389
mb     4.0        5 ISC        4226609

Event  3207727 Northern India
   Date       Time        Err   RMS Latitude Longitude  Smaj  Smin  Az Depth   Err Ndef Nsta Gap  mdist  Mdist Qual   Author      OrigID
2000/10/28 15:14:39.40   7.02 2.600  31.7390   77.0680  73.2  82.0  -1  33.0f              6 309                      NDI        4172398

Event  3207737 Xizang
   Date       Time        Err   RMS Latitude Longitude  Smaj  Smin  Az Depth   Err Ndef Nsta Gap  mdist  Mdist Qual   Author      OrigID
2000/10/28 19:07:44.20   9.17 2.300  31.0730   80.8680  32.3  33.0  -1  15.0  53.9        18 194                      NDI        4172404

Magnitude  Err Nsta Author      OrigID
MD     3.8          NDI        4172404
ML     3.8          NDI        4172404

Event  1741196 Xizang
   Date       Time        Err   RMS Latitude Longitude  Smaj  Smin  Az Depth   Err Ndef Nsta Gap  mdist  Mdist Qual   Author      OrigID
2000/10/30 16:47:49.81   0.77 0.620  31.3621   85.4487  27.0  18.2  52   0.0f        12   12  96  17.72  82.70     uk IDC        3889759
2000/10/30 16:47:53.20   0.36 0.670  31.4250   85.5150  11.0   7.4  54  33.0f        15       71  15.31  82.78     se NEIC       4036442
2000/10/30 16:47:54.30        4.200  31.5900   85.7300                  23.0               6                          BJI        3021814
2000/10/30 16:47:55.00   5.76 1.800  31.6790   85.6380  54.6  36.5  -1  33.0f             16 223                      NDI        4172427
2000/10/30 16:47:55.42   0.99 1.291  31.3800   85.5510   7.8 5.496   0  57.1  11.9   38   38  47   3.85  82.77 m i    ISC        4226911
 (#PRIME)

Magnitude  Err Nsta Author      OrigID
mb     4.1 0.1   10 IDC        3889759
ML     4.3 0.0    1 IDC        3889759
mb     4.5          BJI        3021814
Ms     4.5          BJI        3021814
Msz    4.4          BJI        3021814
MD     4.5          NDI        4172427
ML     4.4          NDI        4172427
mb     4.0       10 ISC        4226911

Event  2784199 India-Bangladesh border region
   Date       Time        Err   RMS Latitude Longitude  Smaj  Smin  Az Depth   Err Ndef Nsta Gap  mdist  Mdist Qual   Author      OrigID
2000/11/03 00:33:34.06   1.25 0.200  25.7680   90.5720  65.2  29.2  50   0.0f         4    4 158  55.55  71.70     uk IDC        3889910
 (Low Confidence Location)
2000/11/03 00:33:37.90   1.62 0.700  26.3690   91.2540   2.3   9.4  -1   4.9   0.0         3 212                      NDI        4193355
2000/11/03 00:33:36.98   1.02 0.291  25.8630   90.6720  30.0 19.58   0  33.0f         7    7 127   1.13  71.79 m i    ISC        4370337
 (#PRIME)

Magnitude  Err Nsta Author      OrigID
mb     4.1 0.2    4 IDC        3889910
MD     3.1          NDI        4193355
mb     4.1        4 ISC        4370337

Event  2784363 Nepal-India border region
   Date       Time        Err   RMS Latitude Longitude  Smaj  Smin  Az Depth   Err Ndef Nsta Gap  mdist  Mdist Qual   Author      OrigID
2000/11/05 13:39:09.58   1.17 1.000  28.5348   81.9546  32.7  28.5  94   0.0f         5    5 131  25.47  72.09     uk IDC        3890024
2000/11/05 13:39:18.10   1.51 0.600  26.0840   80.8160  17.8  24.2  -1  15.0f              5 333                      NDI        4193380
2000/11/05 13:39:10.43   1.06 1.010  28.6480   81.8500 12.77 7.890   0  15.0f        10   10 130   3.71  72.23 m i    ISC        4370580
 (#PRIME)

Magnitude  Err Nsta Author      OrigID
mb     3.7 0.1    5 IDC        3890024
MD     3.7          NDI        4193380
mb     3.7        5 ISC        4370580

Event  1741432 Qinghai
   Date       Time        Err   RMS Latitude Longitude  Smaj  Smin  Az Depth   Err Ndef Nsta Gap  mdist  Mdist Qual   Author      OrigID
2000/11/08 22:46:51.90   7.30 2.200  34.4890   91.2120 105.2 143.9  -1  33.0f             10 276                      NDI        4193402
2000/11/08 22:46:53.23   0.72 0.670  33.8807   90.6963  24.8  15.4  38   0.0f        16   16 112  17.04  81.10     uk IDC        3890183
2000/11/08 22:46:54.80        1.700  33.7600   90.7500                  29.0              33                          BJI        3021932
2000/11/08 22:46:55.70   1.45        33.7450   90.5460  18.0  10.7  13  33.0         19                               MOS        3031310
2000/11/08 22:46:56.13   0.35 0.870  33.8850   90.7140   8.7   6.2  42  33.0f        31       66  14.88  72.51     se NEIC       4037068
2000/11/08 22:46:56.70        1.420  33.9470   90.7200   8.4   7.7 134  15.0         81   74                       ke EHB       11210546
2000/11/08 22:47:13                  36.0000   89.0000                                                                NAO        3610955
2000/11/08 22:46:56.05   1.60 1.128  33.9400   90.7730 3.591   4.1  90  29.7  13.7   76   76  32   4.24  81.10 m i    ISC        4370922
 (#PRIME)

Magnitude  Err Nsta Author      OrigID
mb     4.6          NDI        4193402
mb     4.2 0.1   15 IDC        3890183
ML     4.0 0.0    1 IDC        3890183
MS     4.3 0.1   11 IDC        3890183
mb     4.7          BJI        3021932
mB     5.5          BJI        3021932
Ms     5.1          BJI        3021932
Msz    4.8          BJI        3021932
mb     4.7        9 MOS        3031310
MS     4.3       12 MOS        3031310
mb     4.7       10 NEIC       4037068
MSZ    4.2        2 NEIC       4037068
Mb     3.9          NAO        3610955
mb     4.2       17 ISC        4370922
MS     4.5       13 ISC        4370922

Event  3229889 Northern India
   Date       Time        Err   RMS Latitude Longitude  Smaj  Smin  Az Depth   Err Ndef Nsta Gap  mdist  Mdist Qual   Author      OrigID
2000/11/11 17:26:35.80   2.65 0.800  29.9250   79.4250  13.0  29.5  -1  13.2  37.0         5 169                      NDI        4193423

Magnitude  Err Nsta Author      OrigID
MD     3.1          NDI        4193423

Event  1913409 Qinghai
   Date       Time        Err   RMS Latitude Longitude  Smaj  Smin  Az Depth   Err Ndef Nsta Gap  mdist  Mdist Qual   Author      OrigID
2000/11/15 15:27:57.62   1.07 0.510  33.8631   90.1761  30.6  26.4 117   0.0f         6    6 119  17.23  72.11     uk IDC        3890577
2000/11/15 15:28:00.71   0.81 0.590  33.8670   90.2070  21.3  15.1  86  33.0f         6      118  17.22  72.10     se NEIC       4037543
2000/11/15 15:28:06.20   2.83 1.044  33.8310   90.4020 17.33 17.65  90  81.7  31.7    9    9 118   6.86  72.17 m i    ISC        4371563
 (#PRIME)

Magnitude  Err Nsta Author      OrigID
mb     3.8 0.1    5 IDC        3890577
ML     3.1 0.0    1 IDC        3890577
mb     3.6        5 ISC        4371563

Event  3229995 Northern India
   Date       Time        Err   RMS Latitude Longitude  Smaj  Smin  Az Depth   Err Ndef Nsta Gap  mdist  Mdist Qual   Author      OrigID
2000/11/17 17:26:09.30   3.86 1.300  28.6180   77.2250   5.9  11.8  -1   5.0f              9 106                      NDI        4193508
2000/11/17 17:26:08.77   0.83 1.613  28.6910   77.2020   8.4   6.9  90   5.0f         8    9  99   0.02   5.43 m i    ISC        4372183
 (#PRIME)

Magnitude  Err Nsta Author      OrigID
MD     2.6          NDI        4193508
ML     2.9          NDI        4193508

