Event  6252825 Xizang
   Date       Time        Err   RMS Latitude Longitude  Smaj  Smin  Az Depth   Err Ndef Nsta Gap  mdist  Mdist Qual   Author      OrigID
2002/12/05 01:41:30.07   6.53 0.700  31.7628   85.5443 300.0  42.5  65   0.0f         3      217  15.22  69.50     uk IDC        4656423

Magnitude  Err Nsta Author      OrigID
mb     3.9 0.3    1 IDC        4656423
mb1    3.9 0.2    3 IDC        4656423
mb1mx  3.7 0.1   16 IDC        4656423
ML     3.4 0.2    2 IDC        4656423
MS     2.9 0.2    1 IDC        4656423
Ms1    3.1 0.2    1 IDC        4656423
ms1mx  2.8 0.1   14 IDC        4656423

Event  6253077 Xizang
   Date       Time        Err   RMS Latitude Longitude  Smaj  Smin  Az Depth   Err Ndef Nsta Gap  mdist  Mdist Qual   Author      OrigID
2002/12/05 12:58:36.75   3.07 0.870  29.7827   90.7375 146.0  27.2  69   0.0f         5      197  13.53  75.70     uk IDC        4656447
2002/12/05 12:58:40.07   1.19 0.625  29.8375   90.8295 60.53 12.70 142  33.0f         9    9 173   4.36  75.62 m i    ISC        6218268
 (#PRIME)

Magnitude  Err Nsta Author      OrigID
mb     3.6 0.1    3 IDC        4656447
mb1    3.7 0.2    5 IDC        4656447
mb1mx  3.6 0.1   16 IDC        4656447
ML     3.2 0.2    2 IDC        4656447
mb     3.5        3 ISC        6218268

Event  6255434 Kashmir-Xizang border region
   Date       Time        Err   RMS Latitude Longitude  Smaj  Smin  Az Depth   Err Ndef Nsta Gap  mdist  Mdist Qual   Author      OrigID
2002/12/09 13:53:43.60   1.73 0.700  32.4220   78.9200   8.8  15.9  -1  33.0f              5 289                      NDI        6071815

Magnitude  Err Nsta Author      OrigID
MD     2.6          NDI        6071815

Event  6258098 Northern India
   Date       Time        Err   RMS Latitude Longitude  Smaj  Smin  Az Depth   Err Ndef Nsta Gap  mdist  Mdist Qual   Author      OrigID
2002/12/14 12:41:06.40   4.07 1.700  31.6370   77.1620   9.4  12.8  -1  10.0f              9 198                      NDI        6071853
2002/12/14 12:41:21.92   4.67 0.000  33.2620   77.2270 404.2  46.9  63   0.0          2      136  11.16  11.16     uk NNC        5909788
 (#PARAM ENERGY_CLASS=8.52)
2002/12/14 12:41:04.03   1.55 1.318  31.6415   77.3075 12.57 8.422 107   6.2  10.4   16    8 177   0.32  12.65 m i    ISC        6218969
 (#PRIME)

Magnitude  Err Nsta Author      OrigID
MD     2.8          NDI        6071853

Event  6258999 Xizang
   Date       Time        Err   RMS Latitude Longitude  Smaj  Smin  Az Depth   Err Ndef Nsta Gap  mdist  Mdist Qual   Author      OrigID
2002/12/16 00:47:40.27   5.02 0.360  29.7890   90.5354 150.0  24.0  69  41.1  46.5    5      198  13.64  75.76     uk IDC        4657105
2002/12/16 00:47:35.02   1.69 0.847  29.8081   90.5204 16.04 10.63   9  15.1  15.7   14   13  83   0.56  75.75 m i    ISC        6219109
 (#PRIME)

Magnitude  Err Nsta Author      OrigID
mb     3.8 0.1    3 IDC        4657105
mb1    3.9 0.2    5 IDC        4657105
mb1mx  3.6 0.1   18 IDC        4657105
ML     3.0 0.3    1 IDC        4657105
mb     4.0        3 ISC        6219109

Event  6259000 Xizang
   Date       Time        Err   RMS Latitude Longitude  Smaj  Smin  Az Depth   Err Ndef Nsta Gap  mdist  Mdist Qual   Author      OrigID
2002/12/16 00:48:07.69   1.81 0.550  29.9452   90.8393 130.0  21.8  60   0.0f         6      181  13.61  85.64     uk IDC        4657106
2002/12/16 00:48:08.00        2.700  29.7000   90.4500                   7.0               8                          BJI        4683758
2002/12/16 00:48:09.83   0.74 0.380  29.6750   90.3610  30.9   9.0  63  33.0f         8      184  13.64  85.99     se NEIC       5336567
2002/12/16 00:48:06.42   0.80 0.548  29.7082   90.4408 15.17 7.688  42   7.0f        14   13 183   0.62  85.94 m i se ISC        6219110
 (#PRIME)

Magnitude  Err Nsta Author      OrigID
mb     4.1 0.2    4 IDC        4657106
mb1    4.2 0.2    6 IDC        4657106
mb1mx  4.0 0.1   19 IDC        4657106
ML     3.8 0.4    2 IDC        4657106
mb     4.4          BJI        4683758
mb     3.8        1 NEIC       5336567
mb     4.1        5 ISC        6219110

Event  6259218 Xizang
   Date       Time        Err   RMS Latitude Longitude  Smaj  Smin  Az Depth   Err Ndef Nsta Gap  mdist  Mdist Qual   Author      OrigID
2002/12/16 11:56:55.97   0.81 0.570  29.9015   88.0411  26.5  18.4  51   0.0f        13      128  15.11  86.15     uk IDC        4657133
2002/12/16 11:56:56.90        2.200  29.5700   88.0500                  21.0              12                          BJI        4683765
2002/12/16 11:56:58.50   0.96        29.8080   87.9870  26.3  11.1  19  33.0         16                               MOS        6047139
2002/12/16 11:56:58.57   0.63 1.150  29.7250   87.8220  17.2   9.4  45  33.0f        19      129   2.90  86.35     se NEIC       5336599
2002/12/16 11:57:00.59        0.660  29.9040   88.0280   6.6   4.4  26  26.5   5.5   59   52                       ke EHB       11225722
2002/12/16 11:57:01.70   4.56 1.700  29.6720   87.9910  31.6  20.3  -1  10.0f              6 211                      NDI        6071884
2002/12/16 11:56:59.27   0.37 1.179  29.8684   87.9934 7.871 5.199  55  33.0f        57   53  97   2.75  86.19 m i se ISC        6219144
 (#PRIME)

Magnitude  Err Nsta Author      OrigID
mb     4.0 0.1   11 IDC        4657133
mb1    4.2 0.1   13 IDC        4657133
mb1mx  4.1 0.1   21 IDC        4657133
ML     3.6 0.2    2 IDC        4657133
MS     3.1 0.1    3 IDC        4657133
Ms1    3.2 0.1    3 IDC        4657133
ms1mx  3.0 0.1   19 IDC        4657133
mb     4.1          BJI        4683765
ML     3.4          BJI        4683765
mb     4.6        4 MOS        6047139
mb     4.2        3 NEIC       5336599
mb     4.2          NEIC       6071884
mb     4.1       13 ISC        6219144
MS     3.2        2 ISC        6219144

Event  6262099 Xizang
   Date       Time        Err   RMS Latitude Longitude  Smaj  Smin  Az Depth   Err Ndef Nsta Gap  mdist  Mdist Qual   Author      OrigID
2002/12/21 22:26:45.72   6.23 0.270  29.6957   90.2755 445.0  37.4  63   0.0f         3      205  18.17  67.62     uk IDC        4657484
2002/12/21 22:26:49.32   1.25 0.198  29.8829   90.6588 85.96 14.74 141  33.0f         7    6 175   4.43  67.53 m i    ISC        6279871
 (#PRIME)

Magnitude  Err Nsta Author      OrigID
mb     3.7 0.1    2 IDC        4657484
mb1    3.8 0.3    3 IDC        4657484
mb1mx  3.5 0.1   17 IDC        4657484
ML     2.7 0.3    1 IDC        4657484
mb     3.7        2 ISC        6279871

Event  6262553 Xizang
   Date       Time        Err   RMS Latitude Longitude  Smaj  Smin  Az Depth   Err Ndef Nsta Gap  mdist  Mdist Qual   Author      OrigID
2002/12/22 19:12:55.98   4.82 0.740  29.7200   89.0662  33.7  17.2  54  48.8  46.9    9      126  14.38  86.16     uk IDC        4657532
2002/12/22 19:12:56.85   1.88 1.010  29.5840   88.9460  23.4  10.3  59  77.3  17.3   14      127   1.92  86.31     se NEIC       5337196
2002/12/22 19:12:58.30        3.000  29.5600   89.0700                  97.0               6                          BJI        4683834
2002/12/22 19:13:00.40   0.85 0.320  29.8510   88.4388  34.8  16.8 139  10.0   0.0   10    6 339   2.96   4.36     ke DMN        4893745
2002/12/22 19:13:03.80   5.29 2.000  29.3580   88.9020  31.9  23.5  -1  66.0f              8 220                      NDI        6071957
2002/12/22 19:12:59.69   0.54 0.980  29.7840   89.0390 10.92 5.530 151  97.2  7.96   46   37  59   1.84  86.10 m i ke ISC        6219641
 (#PRIME)

Magnitude  Err Nsta Author      OrigID
mb     3.5 0.1    7 IDC        4657532
mb1    3.7 0.1    9 IDC        4657532
mb1mx  3.6 0.1   18 IDC        4657532
ML     3.5 0.1    2 IDC        4657532
mb     3.5        1 NEIC       5337196
mb     4.2          BJI        4683834
Ml     4.6 0.1    4 DMN        4893745
ML     3.8          NDI        6071957
mb     3.5          NEIC       6071957
mb     3.6        8 ISC        6219641

Event  6262855 Xizang
   Date       Time        Err   RMS Latitude Longitude  Smaj  Smin  Az Depth   Err Ndef Nsta Gap  mdist  Mdist Qual   Author      OrigID
2002/12/23 08:59:12.40   2.55 1.100  28.2680   87.5100  55.3  10.3  -1  33.0f              3 240                      NDI        6071968

Magnitude  Err Nsta Author      OrigID
ML     3.9          NDI        6071968

Event  6263196 Xizang
   Date       Time        Err   RMS Latitude Longitude  Smaj  Smin  Az Depth   Err Ndef Nsta Gap  mdist  Mdist Qual   Author      OrigID
2002/12/23 20:36:18.10   2.89 0.150  30.8834   88.8687 138.0  41.2  55   0.0f         4      185  15.38  85.05     uk IDC        4657609
2002/12/23 20:36:39.60   9.80 0.300  29.2071   86.7678 311.2  26.7  52  50.0f         4    4 319   1.51   2.77     ke DMN        4893752
2002/12/23 20:36:18.77   0.75 1.022  30.3543   87.9921 13.17 10.53 117  33.0f        12   12  92   2.81  85.71 m i ke ISC        6219744
 (#PRIME)

Magnitude  Err Nsta Author      OrigID
mb     3.6 0.5    2 IDC        4657609
mb1    3.6 0.2    4 IDC        4657609
mb1mx  3.4 0.1   15 IDC        4657609
ML     3.2 0.1    2 IDC        4657609
MS     2.5 0.2    1 IDC        4657609
Ms1    2.7 0.2    1 IDC        4657609
ms1mx  2.4 0.1   20 IDC        4657609
mb     3.8        2 ISC        6219744

Event  6263198 Xizang
   Date       Time        Err   RMS Latitude Longitude  Smaj  Smin  Az Depth   Err Ndef Nsta Gap  mdist  Mdist Qual   Author      OrigID
2002/12/23 20:40:25.43   2.73 0.760  30.8189   88.9564 124.0  40.2  55   0.0f         4      185  15.28  85.10     uk IDC        4657610
2002/12/23 20:40:48.20   7.08 0.080  29.2002   86.6052 204.2  23.9  49  33.0   0.0    5    5 315   1.44   2.63     ke DMN        4893753
2002/12/23 20:40:26.17   0.70 0.647  30.2547   87.9914 11.83 9.492 124  33.0f        15   15  90   2.80  85.81 m i ke ISC        6219745
 (#PRIME)

Magnitude  Err Nsta Author      OrigID
mb     3.8 0.3    2 IDC        4657610
mb1    3.7 0.3    4 IDC        4657610
mb1mx  3.5 0.3   15 IDC        4657610
ML     3.2 0.2    2 IDC        4657610
mb     3.9        2 ISC        6219745

Event  6264895 Xizang
   Date       Time        Err   RMS Latitude Longitude  Smaj  Smin  Az Depth   Err Ndef Nsta Gap  mdist  Mdist Qual   Author      OrigID
2002/12/27 03:10:37.55   3.11 1.150  29.6828   88.1970  81.1  42.4 117   0.0f         5      254  17.69  86.34     uk IDC        4657865
2002/12/27 03:10:42.48   0.92 1.071  29.7484   87.8141 37.68 14.78 115  33.0f        10   10 127   5.51  86.33 m i    ISC        6220034
 (#PRIME)

Magnitude  Err Nsta Author      OrigID
mb     3.7 0.2    4 IDC        4657865
mb1    3.8 0.1    5 IDC        4657865
mb1mx  3.6 0.1   16 IDC        4657865
ML     2.9 0.3    1 IDC        4657865
mb     3.8        4 ISC        6220034

Event  6264900 Xizang
   Date       Time        Err   RMS Latitude Longitude  Smaj  Smin  Az Depth   Err Ndef Nsta Gap  mdist  Mdist Qual   Author      OrigID
2002/12/27 03:28:30.59   1.50 0.880  29.9706   88.0996  38.3  35.3  76   0.0f         8      127  15.13  86.07     uk IDC        4657866
2002/12/27 03:28:32.59   1.09 1.360  29.6620   87.7250  32.7  12.3  41  33.0f        12      190   2.98  86.43     se NEIC       5337641
2002/12/27 03:28:35.28   1.37 1.162  29.8930   88.0213 20.79 14.08  65  47.7  17.6   22   22 123   2.73  86.16 m i se ISC        6220035
 (#PRIME)

Magnitude  Err Nsta Author      OrigID
mb     4.0 0.1    6 IDC        4657866
mb1    4.0 0.1    8 IDC        4657866
mb1mx  3.8 0.1   20 IDC        4657866
ML     3.7 0.1    2 IDC        4657866
mb     4.2        1 NEIC       5337641
mb     4.0        6 ISC        6220035

Event  6264956 Xizang
   Date       Time        Err   RMS Latitude Longitude  Smaj  Smin  Az Depth   Err Ndef Nsta Gap  mdist  Mdist Qual   Author      OrigID
2002/12/27 06:35:22.34   1.76 0.770  29.8743   88.0703  52.5  37.3  67   0.0f         7      128  15.07  86.17     uk IDC        4657874
2002/12/27 06:35:25.38   0.76 1.010  29.7570   87.8720  19.6  11.3  38  33.0f         9      129   2.85  86.31     se NEIC       5337670
2002/12/27 06:35:27.60   1.37 0.839  29.7851   88.0001 18.70 11.18  86  54.2  17.5   18   17 124   2.74  86.27 m i se ISC        6220043
 (#PRIME)

Magnitude  Err Nsta Author      OrigID
mb     3.8 0.1    5 IDC        4657874
mb1    3.8 0.1    7 IDC        4657874
mb1mx  3.7 0.1   18 IDC        4657874
ML     3.4 0.2    2 IDC        4657874
mb     3.8        6 ISC        6220043

Event  6266143 India-Bangladesh border region
   Date       Time        Err   RMS Latitude Longitude  Smaj  Smin  Az Depth   Err Ndef Nsta Gap  mdist  Mdist Qual   Author      OrigID
2002/12/29 07:05:05.20   3.94 1.500  26.4290   88.9100  54.3  20.6  -1   7.4  63.8         5 154                      NDI        6072017
2002/12/29 07:05:03.19   2.99 2.275  26.3327   88.9185 26.47 16.25  28   1.3  26.3    6    4 157   0.58   6.49 m i    ISC        6220216
 (#PRIME)

Magnitude  Err Nsta Author      OrigID
MD     2.8          NDI        6072017

Event  6266981 Xizang
   Date       Time        Err   RMS Latitude Longitude  Smaj  Smin  Az Depth   Err Ndef Nsta Gap  mdist  Mdist Qual   Author      OrigID
2002/12/30 16:46:25.10   4.22 1.400  31.0350   86.4150  29.2  15.6  -1  33.0f             18 216                      NDI        6072027
2002/12/30 16:46:26.93        0.810  30.7280   86.2820   5.2   4.2  24  27.1  11.5   94   87                       ke EHB       11225954
2002/12/30 16:46:27.57   1.30 1.060  30.7170   86.2720   9.2   7.5  51  51.3  13.8   29       75   4.34 135.69     se NEIC       5338095
2002/12/30 16:46:27.70        2.000  30.6500   86.4100                  54.0              29                          BJI        4683940
2002/12/30 16:46:28.00   1.27        30.6660   86.2280  11.8   7.5   7  59.0         29                               MOS        6047310
2002/12/30 16:46:29.19   4.81 0.460  30.7822   86.4523  28.0  14.0  54  45.3  46.1   16      111  16.31 135.83     uk IDC        4658132
2002/12/30 16:46:25.56   1.67 1.348  30.6802   86.1217 6.655 4.417 176  32.5  14.0   99   92  56   4.46  85.67 m i se ISC        6220341
 (#PRIME)

Magnitude  Err Nsta Author      OrigID
ML     4.0          NDI        6072027
MW     4.3          NDI        6072027
mb     4.2          NEIC       6072027
mb     4.2        9 NEIC       5338095
mb     4.1          BJI        4683940
ML     3.7          BJI        4683940
Ms     3.9          BJI        4683940
Msz    3.6          BJI        4683940
mb     4.5        6 MOS        6047310
mb     4.2 0.1   12 IDC        4658132
mb1    4.3 0.1   14 IDC        4658132
mb1mx  4.1 0.1   17 IDC        4658132
ML     3.8 0.0    2 IDC        4658132
MS     3.7 0.2    4 IDC        4658132
Ms1    3.8 0.2    4 IDC        4658132
ms1mx  3.4 0.1   20 IDC        4658132
mb     4.4       17 ISC        6220341
MS     3.7        4 ISC        6220341

Event  7196418 Kashmir-Xizang border region
   Date       Time        Err   RMS Latitude Longitude  Smaj  Smin  Az Depth   Err Ndef Nsta Gap  mdist  Mdist Qual   Author      OrigID
2003/12/01 16:35:34.80   2.37 1.100  32.0040   78.2790  10.9  20.0  -1  10.0f              3 302                      NDI        6593748
2003/12/01 16:35:32.01   3.16 0.674  32.0471   78.4077 18.99 12.83 145  10.0f         6    3 305   1.34   2.12 m i    ISC        6872453
 (#PRIME)

Magnitude  Err Nsta Author      OrigID
ML     3.6          NDI        6593748

Event  7196882 Western Xizang-India border region
   Date       Time        Err   RMS Latitude Longitude  Smaj  Smin  Az Depth   Err Ndef Nsta Gap  mdist  Mdist Qual   Author      OrigID
2003/12/02 11:38:40.66   0.75 0.650  31.5710   78.2190  25.3  10.0  60  33.0f        11      196  15.50  77.73     se NEIC       6862230
2003/12/02 11:38:40.80   4.38 1.400  31.5860   78.2040  12.2  11.2  -1  10.0f             18 193                      NDI        6593756
2003/12/02 11:38:44.28   6.58 0.640  31.6985   78.4508  60.7  16.7  53  46.1  59.8   10      196  15.36  77.56     uk IDC        6108360
2003/12/02 11:38:45.00   1.22        31.9620   77.4450  66.3  16.6  97  33.0          8                               MOS        6836038
2003/12/02 11:38:50.78   4.60 1.590  32.7487   77.4397  58.4  26.3  21   0.0          3      202  11.70  21.49     uk NNC        6231634
 (#PARAM ENERGY_CLASS=9.42)
2003/12/02 11:38:40.41   1.50 1.354  31.6572   78.2421   7.5 5.880  49  25.9  13.0   46   36 102   1.06  77.64 m i se ISC        6872510
 (#PRIME)

Magnitude  Err Nsta Author      OrigID
ML     3.4          NDI        6593756
mb     3.5 0.1   10 IDC        6108360
mb1    3.7 0.1   10 IDC        6108360
mb1mx  3.6 0.1   17 IDC        6108360
ML     3.8 0.3    1 IDC        6108360
MS     3.3 0.2    1 IDC        6108360
Ms1    3.3 0.2    1 IDC        6108360
ms1mx  2.3 0.3   24 IDC        6108360
mb     3.9        1 MOS        6836038
mb     3.7       10 ISC        6872510
MS     3.3        1 ISC        6872510

Event  7197162 India-Bangladesh border region
   Date       Time        Err   RMS Latitude Longitude  Smaj  Smin  Az Depth   Err Ndef Nsta Gap  mdist  Mdist Qual   Author      OrigID
2003/12/02 21:14:52.49   0.53 1.090  25.7870   90.3920  16.3  10.6  54  23.1         19      104  10.77  64.74     se NEIC       6862262
 (#PARAM pP_DEPTH=23.10000)
2003/12/02 21:14:53.30   1.42        25.7000   90.3690  24.8  15.7 113  33.0         10                               MOS        6836042
2003/12/02 21:14:54.59   0.79 0.490  25.6718   90.0925  69.4  13.2  54  21.8   4.1   15      178  21.98  64.84     uk IDC        6108380
2003/12/02 21:14:51.72   1.33 0.866  25.8043   90.2635 12.53 6.859  58  17.0  11.4   25   21  72   0.26  64.83 m i se ISC        6872539
 (#PRIME)
 (#PARAM pP_DEPTH=22+1)

Magnitude  Err Nsta Author      OrigID
mb     3.8        1 NEIC       6862262
mb     4.0        1 MOS        6836042
mb     3.7 0.1    7 IDC        6108380
mb1    3.8 0.1    8 IDC        6108380
mb1mx  3.7 0.1   15 IDC        6108380
ML     3.6 0.3    1 IDC        6108380
mb     4.0        9 ISC        6872539

Event  7197753 Xizang
   Date       Time        Err   RMS Latitude Longitude  Smaj  Smin  Az Depth   Err Ndef Nsta Gap  mdist  Mdist Qual   Author      OrigID
2003/12/03 17:07:19.95   0.91 0.490  32.8955   88.9483  67.3  18.2  55   0.0f         9      141  14.78 150.05     uk IDC        6108427
2003/12/03 17:07:24.93   0.98 1.240  33.0490   88.7570  25.5  11.6  52  33.0f         8      177   3.92  55.78     se NEIC       6862326
2003/12/03 17:07:30.80        1.900  32.8700   89.1800                  33.0              10                          BJI        5634519
2003/12/03 17:07:23.70   0.50 1.216  32.8583   88.5568 10.73 7.578  29  33.0f        22   21  86   3.85  70.92 m i se ISC        6872609
 (#PRIME)

Magnitude  Err Nsta Author      OrigID
mb     3.6 0.1    7 IDC        6108427
mb1    3.8 0.1    8 IDC        6108427
mb1mx  3.7 0.1   17 IDC        6108427
ML     3.0 0.3    1 IDC        6108427
mb     3.9        2 NEIC       6862326
mb     4.1          BJI        5634519
Ms     3.6          BJI        5634519
mb     3.6        7 ISC        6872609

Event  7200148 India-Bangladesh border region
   Date       Time        Err   RMS Latitude Longitude  Smaj  Smin  Az Depth   Err Ndef Nsta Gap  mdist  Mdist Qual   Author      OrigID
2003/12/06 09:53:03.96   1.45 1.890  25.5960   90.2500  54.1  19.5  69  26.7         11      201   4.17  64.69     se NEIC       6862593
 (#PARAM pP_DEPTH=26.70000)
2003/12/06 09:53:08.61   3.91 0.650  26.4469   91.8253 265.0  17.9  63  24.7   6.8    7      205  21.67  64.32     uk IDC        6108614
2003/12/06 09:53:03.72   1.00 1.460  25.5704   90.3886 18.74 9.556  58  26.7f        12   11 200   1.35  64.58 m i se ISC        6872906
 (#PRIME)

Magnitude  Err Nsta Author      OrigID
mb     4.4        1 NEIC       6862593
mb     3.5 0.2    4 IDC        6108614
mb1    3.8 0.2    4 IDC        6108614
mb1mx  3.5 0.1   16 IDC        6108614
mb     3.8        5 ISC        6872906

