DATA_TYPE EVENT IMS1.0
Reviewed ISC Bulletin
Event  3254347 Northern India
   Date       Time        Err   RMS Latitude Longitude  Smaj  Smin  Az Depth   Err Ndef Nsta Gap  mdist  Mdist Qual   Author      OrigID
2000/12/05 21:47:50.20   3.01 0.900  28.9540   77.4030   9.3   7.7  -1  14.2   8.7        10 188                      NDI        4214847
2000/12/05 21:47:53.92   1.44 1.703  28.7640   77.2960 14.65 11.19   0  14.2f         6    6 177   0.11   5.50 m i    ISC        4412029
 (#PRIME)

Magnitude  Err Nsta Author      OrigID
MD     2.3          NDI        4214847
ML     2.5          NDI        4214847
MW     2.5          NDI        4214847

Event  3264199 Qinghai
   Date       Time        Err   RMS Latitude Longitude  Smaj  Smin  Az Depth   Err Ndef Nsta Gap  mdist  Mdist Qual   Author      OrigID
2000/12/07 23:53:36.94   3.66 0.130  34.6313   92.7415 237.0  28.0  72   0.0f         4      187  17.03  80.74     uk IDC        4221686
2000/12/07 23:53:35.14   1.60 0.723  33.8960   90.0600 74.08 21.42  90  33.0f         5    5 182   8.45  81.91 m i    ISC        4412219
 (#PRIME)

Magnitude  Err Nsta Author      OrigID
mb     3.6 0.3    3 IDC        4221686
ML     3.5 0.0    1 IDC        4221686
mb     3.7        2 ISC        4412219

Event  3254520 Nepal-India border region
   Date       Time        Err   RMS Latitude Longitude  Smaj  Smin  Az Depth   Err Ndef Nsta Gap  mdist  Mdist Qual   Author      OrigID
2000/12/18 16:45:35.90   3.92 1.700  29.8210   80.1970  12.7  32.5  -1   5.0f              6 234                      NDI        4214956

Magnitude  Err Nsta Author      OrigID
MD     3.1          NDI        4214956

Event  3265672 Xizang
   Date       Time        Err   RMS Latitude Longitude  Smaj  Smin  Az Depth   Err Ndef Nsta Gap  mdist  Mdist Qual   Author      OrigID
2000/12/28 19:44:09.24   4.78 0.620  30.9443   84.4666 188.0  31.4  69   0.0f         3      228  18.07  72.06     uk IDC        4222892
2000/12/28 19:44:25.89   2.74 0.753  31.7240   86.7930 26.06 21.53  90 100.4  38.0   10   10 156   3.88  71.16 m i    ISC        4414178
 (#PRIME)

Magnitude  Err Nsta Author      OrigID
mb     3.4 0.2    2 IDC        4222892
ML     3.2 0.0    1 IDC        4222892
mb     3.2        2 ISC        4414178

Event  3254630 Northern India
   Date       Time        Err   RMS Latitude Longitude  Smaj  Smin  Az Depth   Err Ndef Nsta Gap  mdist  Mdist Qual   Author      OrigID
2000/12/29 08:40:32.30   5.75 1.900  24.2800   83.1610  11.5  10.4  -1  10.0f             11 125                      NDI        4215043

Magnitude  Err Nsta Author      OrigID
ML     3.3          NDI        4215043

Event  2413940 Xizang
   Date       Time        Err   RMS Latitude Longitude  Smaj  Smin  Az Depth   Err Ndef Nsta Gap  mdist  Mdist Qual   Author      OrigID
2001/12/02 11:00:36.30   3.20 0.900  32.0280   86.7520  32.3  19.9  -1  33.0f              6 228                      NDI        4907953
2001/12/02 11:00:36.74   0.45 0.770  31.4270   86.4010  18.9   8.8  49  33.0f        12      111  17.19  83.37     se NEIC       4576567
2001/12/02 11:00:36.90   0.93        31.3800   86.2600  28.4  15.2  33  33.0         11                               MOS        4829738
2001/12/02 11:00:39.35   5.03 0.480  31.3633   86.3529  26.8  16.7  44  36.7  42.5   13      111  11.29 147.89     uk IDC        4273771
2001/12/02 11:00:43.90        2.800  32.0600   87.0100                  33.0               5                          BJI        4012247
2001/12/02 11:00:35.81   2.21 0.917  31.3770   86.3040   7.9 4.644   0  24.3  17.9   34   32  85   4.50 147.85 m i    ISC        5281020
 (#PRIME)

Magnitude  Err Nsta Author      OrigID
mb     4.4          NEIC       4907953
mb     4.4        2 NEIC       4576567
mb     4.2        1 MOS        4829738
mb     3.7 0.1    9 IDC        4273771
mb1    4.0 0.1   11 IDC        4273771
mb1mx  3.8 0.1   19 IDC        4273771
ML     3.9 0.0    2 IDC        4273771
MS     3.0 0.2    2 IDC        4273771
Ms1    3.2 0.2    2 IDC        4273771
ms1mx  3.1 0.1   12 IDC        4273771
Ms     4.0          BJI        4012247
Msz    4.2          BJI        4012247
mb     4.0        8 ISC        5281020

Event  3338269 Xizang
   Date       Time        Err   RMS Latitude Longitude  Smaj  Smin  Az Depth   Err Ndef Nsta Gap  mdist  Mdist Qual   Author      OrigID
2001/12/02 15:56:05.59   0.95 0.470  31.3183   86.0813  64.7  20.2  44   0.0f         7      166  17.30  71.31     uk IDC        4273780
2001/12/02 15:56:08.61   0.81 0.517  31.3630   86.1140 31.94 32.63  90  33.0f         7    7 164  17.31  71.32 m i    ISC        5281036
 (#PRIME)

Magnitude  Err Nsta Author      OrigID
mb     3.6 0.1    6 IDC        4273780
mb1    3.8 0.0    7 IDC        4273780
mb1mx  3.7 0.0   17 IDC        4273780
ML     3.7 0.3    1 IDC        4273780
mb     3.7        6 ISC        5281036

Event  2397590 Sikkim
   Date       Time        Err   RMS Latitude Longitude  Smaj  Smin  Az Depth   Err Ndef Nsta Gap  mdist  Mdist Qual   Author      OrigID
2001/12/02 22:41:11.10        1.300  27.3500   88.4000                   6.0              53                          BJI        4012254
2001/12/02 22:41:11.40   0.45 0.580  27.2698   88.2225  17.9  10.9  38   0.0f        27       95  13.20 149.29     uk IDC        4273800
2001/12/02 22:41:13.79   0.20 0.950  27.1500   88.1710   7.0   4.0  26  33.0f       147       71  13.15 122.70     se NEIC       4576608
2001/12/02 22:41:14.00   0.98        27.1870   88.2360   9.0   5.1  37  33.0         83                               MOS        4829746
2001/12/02 22:41:14.56        0.960  27.2830   88.2390   4.4   3.0   9  19.9   3.7  263  226                       ke EHB       11219101
2001/12/02 22:41:14.80   4.81 1.600  27.1840   88.3280   9.6  10.6  -1  15.0f             33 119                      NDI        4907957
2001/12/02 22:41:22.40   0.45 0.480  28.5559   87.3745  21.3   7.3 127  33.0                 192   1.38 154.50     ke LDG        4684956
2001/12/02 22:41:13.06   0.52 1.088  27.2180   88.1790   3.3 2.172   0  24.5   4.1  268  234  28   0.41 149.83 m i    ISC        5281060
 (#PRIME)
 (#PARAM pP_DEPTH=27+2)

Magnitude  Err Nsta Author      OrigID
mb     5.2          BJI        4012254
mB     5.2          BJI        4012254
Ms     4.9          BJI        4012254
Msz    4.7          BJI        4012254
mb     4.9 0.1   21 IDC        4273800
mb1    4.9 0.1   23 IDC        4273800
mb1mx  4.9 0.1   25 IDC        4273800
ML     4.5 0.1    2 IDC        4273800
MS     4.3 0.1    7 IDC        4273800
Ms1    4.3 0.1    7 IDC        4273800
ms1mx  4.2 0.1   13 IDC        4273800
mb     5.1       63 NEIC       4576608
MS     4.2        4 NEIC       4576608
mb     5.1       32 MOS        4829746
mb     4.9          NDI        4907957
ML     4.8          NDI        4907957
Mb     5.1 0.2   26 LDG        4684956
Ms     4.1 0.1    8 LDG        4684956
mb     5.0       79 ISC        5281060
MS     4.6       20 ISC        5281060

Event  2484005 Xizang
   Date       Time        Err   RMS Latitude Longitude  Smaj  Smin  Az Depth   Err Ndef Nsta Gap  mdist  Mdist Qual   Author      OrigID
2001/12/03 06:38:23.70        2.600  30.9400   85.6400                  33.0               5                          BJI        4012255
2001/12/03 06:38:26.12   0.52 1.010  31.4220   86.2880  21.4  11.6  55  33.0f        12      111  17.25  83.29     se NEIC       4576632
2001/12/03 06:38:32.01   7.22 0.300  31.4298   86.4179  28.1  16.4  50  72.1  67.1   11      111  17.18  83.38     uk IDC        4273813
2001/12/03 06:38:36.30   3.16 1.300  31.3160   86.4270  21.6  13.9  -1  33.0f              5 218                      NDI        4907960
2001/12/03 06:38:29.79   1.28 1.107  31.3370   86.2580   7.4 5.309   0  67.1  13.7   23   19  89   4.53  83.21 m i    ISC        5281092
 (#PRIME)

Magnitude  Err Nsta Author      OrigID
Ms     3.9          BJI        4012255
mb     4.0        2 NEIC       4576632
mb     3.6 0.1   10 IDC        4273813
mb1    3.8 0.1   11 IDC        4273813
mb1mx  3.8 0.1   19 IDC        4273813
MS     3.5 0.5    2 IDC        4273813
Ms1    3.5 0.5    2 IDC        4273813
ms1mx  3.1 0.2   12 IDC        4273813
mb     4.0          NEIC       4907960
mb     3.8       10 ISC        5281092

Event  3338685 Nepal-India border region
   Date       Time        Err   RMS Latitude Longitude  Smaj  Smin  Az Depth   Err Ndef Nsta Gap  mdist  Mdist Qual   Author      OrigID
2001/12/07 04:50:40.68   0.92 0.730  29.5861   80.6690  36.0  17.0  39   0.0f        10      133   7.51 121.26     uk IDC        4274029
2001/12/07 04:50:43.49   0.63 0.620  29.5470   80.6220  23.1  11.2  39  33.0f         8      134   7.50 121.31     se NEIC       4576921
2001/12/07 04:50:45.70   4.00 1.400  29.6300   80.9270  11.5  12.0  -1  33.0f             20 160                      NDI        4907982
2001/12/07 04:50:44.22   0.95 1.088  29.5050   80.8950 6.279   7.0  90  42.6  12.1   36   28 103   0.57 121.33 m i    ISC        5281424
 (#PRIME)

Magnitude  Err Nsta Author      OrigID
mb     3.8 0.2    6 IDC        4274029
mb1    4.1 0.1    7 IDC        4274029
mb1mx  3.8 0.1   18 IDC        4274029
ML     3.8 0.3    1 IDC        4274029
MD     3.8          NDI        4907982
ML     3.8          NDI        4907982
mb     4.0        5 ISC        5281424

Event  3338694 Xizang
   Date       Time        Err   RMS Latitude Longitude  Smaj  Smin  Az Depth   Err Ndef Nsta Gap  mdist  Mdist Qual   Author      OrigID
2001/12/07 06:06:58.10   0.89 0.780  31.8057   83.2284  41.1  18.6  50   0.0f         9      128  19.44  84.01     uk IDC        4274043
2001/12/07 06:07:00.28   0.72 1.120  31.7690   83.3370  30.2  14.2  51  33.0f         9      131  19.34  70.94     se NEIC       4576925
2001/12/07 06:07:00.79   0.75 1.293  31.8160   83.2940 20.66 17.98  90  33.0f        10   10 127  19.40  83.98 m i    ISC        5281432
 (#PRIME)

Magnitude  Err Nsta Author      OrigID
mb     4.0 0.1    8 IDC        4274043
mb1    4.1 0.1    9 IDC        4274043
mb1mx  3.9 0.1   17 IDC        4274043
mb     4.0        8 ISC        5281432

Event  3338919 Xizang
   Date       Time        Err   RMS Latitude Longitude  Smaj  Smin  Az Depth   Err Ndef Nsta Gap  mdist  Mdist Qual   Author      OrigID
2001/12/10 01:10:37.37   2.19 1.200  30.0425   88.2716  58.0  43.8 131   0.0f         6      254  13.27 149.52     uk IDC        4274187
2001/12/10 01:10:41.20   0.95 1.580  30.0540   87.9820 20.66 22.31  90  33.0f         6    7 131   5.65 149.27 m i    ISC        5281745
 (#PRIME)

Magnitude  Err Nsta Author      OrigID
mb     3.9 0.1    4 IDC        4274187
mb1    4.1 0.0    5 IDC        4274187
mb1mx  3.8 0.1   16 IDC        4274187
ML     3.6 0.3    1 IDC        4274187
mb     4.0        4 ISC        5281745

Event  3339428 Xizang
   Date       Time        Err   RMS Latitude Longitude  Smaj  Smin  Az Depth   Err Ndef Nsta Gap  mdist  Mdist Qual   Author      OrigID
2001/12/15 10:21:23.70   6.73 0.220  33.6780   90.6699 227.0  23.9  73  51.3  79.1    5      198  16.87  72.12     uk IDC        4274496
2001/12/15 10:21:18.11   0.80 1.139  33.4640   89.8950 12.41   9.5  90  33.0f        14   14 123   6.38  72.57 m i    ISC        5282193
 (#PRIME)

Magnitude  Err Nsta Author      OrigID
mb     3.2 0.0    4 IDC        4274496
mb1    3.6 0.1    5 IDC        4274496
mb1mx  3.3 0.1   17 IDC        4274496
ML     3.5 0.3    1 IDC        4274496
mb     3.3        3 ISC        5282193

Event  2428963 Nepal
   Date       Time        Err   RMS Latitude Longitude  Smaj  Smin  Az Depth   Err Ndef Nsta Gap  mdist  Mdist Qual   Author      OrigID
2001/12/18 02:21:56.20   0.59 0.360  29.6130   81.8103  28.6   6.4 155  10.0f                139   0.55 149.52     ke LDG        4685018
2001/12/18 02:21:58.80   0.22 0.660  29.5839   81.7784   5.4   2.4 178  25.0f        37   20 211   0.51   5.68     ke DMN        4609108
2001/12/18 02:21:59.40        1.600  29.5800   81.6600                  26.0              25                          BJI        4012457
2001/12/18 02:21:59.70   0.80        29.4530   81.7080  11.5   6.2  32  33.0         56                               MOS        4018792
2001/12/18 02:22:00.07   0.28 0.860  29.6120   81.7800   9.5   5.7  33  33.0f        64       98   8.31 144.83     se NEIC       4577662
2001/12/18 02:22:00.20   3.86 1.500  29.4350   81.8920   8.3   9.3  -1  15.0f             29 166                      NDI        4908069
2001/12/18 02:22:02.72        0.850  29.5580   81.7290   4.1   3.0  34  35.0f       166  135                       ke EHB       11219472
2001/12/18 02:22:03.09   2.32 0.920  29.5361   81.8762  19.3   8.2  37  41.2  22.5   21       98   8.42 149.49     uk IDC        4274618
2001/12/18 02:22:00.84   0.16 1.130  29.6410   81.7110   2.3 1.929   0  33.0f       168  144  23   0.48 152.76 m i    ISC        5282373
 (#PRIME)

Magnitude  Err Nsta Author      OrigID
Mb     4.9 0.2   29 LDG        4685018
Ms     3.4        1 LDG        4685018
Ml     4.8 0.1   10 DMN        4609108
mb     4.4          BJI        4012457
mB     5.0          BJI        4012457
Ms     4.6          BJI        4012457
Msz    4.1          BJI        4012457
mb     5.0       30 MOS        4018792
mb     4.9       34 NEIC       4577662
MD     4.4          NDI        4908069
ML     4.6          NDI        4908069
mb     4.9          NEIC       4908069
mb     4.1 0.1   16 IDC        4274618
mb1    4.3 0.1   18 IDC        4274618
mb1mx  4.2 0.1   23 IDC        4274618
ML     4.2 0.0    2 IDC        4274618
MS     3.8 0.2    1 IDC        4274618
Ms1    3.9 0.2    1 IDC        4274618
ms1mx  3.4 0.1   10 IDC        4274618
mb     4.7       46 ISC        5282373
MS     3.8        1 ISC        5282373

Event  3339796 Xizang
   Date       Time        Err   RMS Latitude Longitude  Smaj  Smin  Az Depth   Err Ndef Nsta Gap  mdist  Mdist Qual   Author      OrigID
2001/12/18 23:05:20.04   1.27 0.530  29.9907   88.2360  96.3  23.0  51   0.0f         6      174  15.06  86.03     uk IDC        4274711
2001/12/18 23:05:22.60   0.71 0.540  29.6470   87.7680  25.0  11.3  37  33.0f         7      177   2.94  86.44     se NEIC       4577784
2001/12/18 23:05:22.17   0.68 1.321  29.6370   87.5960 17.65 11.67   0  33.0f        10   10 155   3.09  86.48 m i    ISC        5282678
 (#PRIME)

Magnitude  Err Nsta Author      OrigID
mb     3.8 0.2    5 IDC        4274711
mb1    4.0 0.1    7 IDC        4274711
mb1mx  3.8 0.1   21 IDC        4274711
ML     3.3 0.3    1 IDC        4274711
MS     3.0 0.2    1 IDC        4274711
Ms1    3.2 0.2    1 IDC        4274711
ms1mx  2.7 0.1   14 IDC        4274711
mb     3.9        5 ISC        5282678

Event  2431052 Bangladesh
   Date       Time        Err   RMS Latitude Longitude  Smaj  Smin  Az Depth   Err Ndef Nsta Gap  mdist  Mdist Qual   Author      OrigID
2001/12/19 07:54:07.96   0.44 0.750  23.6320   90.3760  11.8   7.4  36  10.0f        13      108   9.51  64.40     de NEIC       4577807
 (At least 100 people injured and some older buildings damaged [VI] at Dhaka. Felt [IV] at Narayanganj and [III] at Chittagong, Comilla,)
 ( Gazipur, Laksmipur, Munshiganj, Rajshahi and Rangpur.)
2001/12/19 07:54:12.00   1.38        23.7440   90.4260  28.6  16.1  28  33.0         10                               MOS        4018818
2001/12/19 07:54:12.90        1.700  23.6900   90.6300                  21.0              15                          BJI        4012488
2001/12/19 07:54:15.10   0.60 0.280  23.8147   89.9051  22.3  11.2  48  10.0   0.0   20   11 333   3.79   7.13     ke DMN        4609144
2001/12/19 07:54:16.19   0.94 0.580  23.7164   90.5588  72.2  14.2  52  49.9   7.2   12      179   9.41  64.41     uk IDC        4274735
2001/12/19 07:54:13.96   0.77 1.456  23.6400   90.2830   4.8 3.966   0  60.2   9.3   66   51  94   0.92  64.34 m i    ISC        5282745
 (#PRIME)
 (#PARAM pP_DEPTH=49+1)

Magnitude  Err Nsta Author      OrigID
mb     4.5        2 NEIC       4577807
mb     5.2        2 MOS        4018818
mb     4.4          BJI        4012488
ML     4.2          BJI        4012488
Ml     4.8 0.2    8 DMN        4609144
mb     3.6 0.1    5 IDC        4274735
mb1    3.9 0.1    6 IDC        4274735
mb1mx  3.7 0.1   16 IDC        4274735
MS     3.3 0.2    4 IDC        4274735
Ms1    3.4 0.2    4 IDC        4274735
ms1mx  3.2 0.1   14 IDC        4274735
mb     4.2        7 ISC        5282745

Event  2982671 Xizang
   Date       Time        Err   RMS Latitude Longitude  Smaj  Smin  Az Depth   Err Ndef Nsta Gap  mdist  Mdist Qual   Author      OrigID
2001/12/21 09:26:02.70   1.88        32.4290   87.9460  32.4  14.8  29  33.0         11                               MOS        4829841
2001/12/21 09:26:03.37   1.44 1.220  32.3810   87.9600  18.8   8.9 220  50.8  15.3   16      104   3.83  83.73     se NEIC       4577956
2001/12/21 09:26:04.62   5.05 0.350  32.2112   88.0286  41.2  20.0  56  50.4  45.3   11      136  12.50 153.19     uk IDC        4274846
2001/12/21 09:26:02.97   1.46 1.276  32.2780   87.9350 10.79 11.43  90  49.0  16.1   18   20  93   3.77 153.09 m i    ISC        5282985
 (#PRIME)

Magnitude  Err Nsta Author      OrigID
mb     4.5        5 MOS        4829841
mb     4.8        1 NEIC       4577956
mb     3.8 0.1    8 IDC        4274846
mb1    4.0 0.1   10 IDC        4274846
mb1mx  3.8 0.1   20 IDC        4274846
ML     3.9 0.1    2 IDC        4274846
mb     4.2        8 ISC        5282985

Event  3340093 Xizang
   Date       Time        Err   RMS Latitude Longitude  Smaj  Smin  Az Depth   Err Ndef Nsta Gap  mdist  Mdist Qual   Author      OrigID
2001/12/22 14:46:18.63   9.19 0.320  29.9436   88.1556  47.0  29.7  61  56.9  83.4    5      122  15.07  86.09     uk IDC        4274903

Magnitude  Err Nsta Author      OrigID
mb     3.6 0.2    4 IDC        4274903
mb1    3.7 0.1    5 IDC        4274903
mb1mx  3.4 0.1   19 IDC        4274903

Event  4176700 Nepal
   Date       Time        Err   RMS Latitude Longitude  Smaj  Smin  Az Depth   Err Ndef Nsta Gap  mdist  Mdist Qual   Author      OrigID
2001/12/25 09:59:12.90   3.53 1.100  29.4180   81.6420  16.2  15.5  -1  13.6  11.5         8 266                      NDI        4908132
2001/12/25 09:59:09.24   1.65 1.475  29.1380   81.7270 8.338   8.8  90  13.6f        16   10 265   1.33   7.03 m i    ISC        5283432
 (#PRIME)

Magnitude  Err Nsta Author      OrigID
MD     3.6          NDI        4908132
ML     3.3          NDI        4908132

Event  3340561 Xizang
   Date       Time        Err   RMS Latitude Longitude  Smaj  Smin  Az Depth   Err Ndef Nsta Gap  mdist  Mdist Qual   Author      OrigID
2001/12/28 15:05:40.30  12.50 0.470  34.8875   87.1107 290.1  23.5  10  33.0   0.0   11   11 333   7.03   8.00     ke DMN        4608439
2001/12/28 15:05:53.38   1.41 1.190  33.7817   86.6339  48.5  26.5  57   0.0f         5      132  11.15  82.55     uk IDC        4275197
2001/12/28 15:05:56.26   0.80 1.149  33.7980   86.5800 12.08   7.2  90  33.0f        16   16 122   5.90  82.54 m i    ISC        5283704
 (#PRIME)

Magnitude  Err Nsta Author      OrigID
Mb     5.0 0.2   11 DMN        4608439
mb     3.3 0.1    3 IDC        4275197
mb1    3.7 0.0    5 IDC        4275197
mb1mx  3.6 0.1   19 IDC        4275197
ML     3.4 0.1    2 IDC        4275197
mb     3.2        2 ISC        5283704

Event  6252557 Xizang
   Date       Time        Err   RMS Latitude Longitude  Smaj  Smin  Az Depth   Err Ndef Nsta Gap  mdist  Mdist Qual   Author      OrigID
2002/12/04 15:59:25.32   2.04 0.030  29.3186   89.9632 190.0  25.3  57   0.0f         4      190  18.45  67.54     uk IDC        4656399
2002/12/04 15:59:28.23   1.68 0.071  29.3724   90.0122 130.1 18.54 120  33.0f         7    7 190  18.38  67.54 m i    ISC        6218195
 (#PRIME)

Magnitude  Err Nsta Author      OrigID
mb     3.9 0.1    3 IDC        4656399
mb1    4.0 0.2    4 IDC        4656399
mb1mx  3.8 0.1   15 IDC        4656399
ML     3.4 0.3    1 IDC        4656399
mb     4.0        3 ISC        6218195

