Event  1836071 Nepal
   Date       Time        Err   RMS Latitude Longitude  Smaj  Smin  Az Depth   Err Ndef Nsta Gap  mdist  Mdist Qual   Author      OrigID
2001/04/15 08:36:32.80        2.600  29.2700   81.0700                  30.0               9                          BJI        4011049
2001/04/15 08:36:33.90   0.14 0.430  29.7409   81.1307   9.1   4.6  71  10.0f        12   12       0.28 148.92     ke LDG        3089949
2001/04/15 08:36:34.31   0.36 0.990  29.2480   81.3210  11.1   6.8  41  33.0f        33       68   8.17  87.69     se NEIC       4054953
2001/04/15 08:36:36.60   6.77 2.000  29.4320   81.4270  15.1  15.6  -1  20.0f             28 165                      NDI        4532478
2001/04/15 08:36:36.87   6.51 0.510  29.3530   81.5074  32.5  16.3  41  34.8  52.4   12      130   8.25  87.56     uk IDC        4232673
2001/04/15 08:36:37.31        0.830  29.3380   81.4400   8.8   5.9  43  37.5   7.1   68   54                       ke EHB       11212890
2001/04/15 08:36:33.94   0.33 1.416  29.2520   81.4600 3.680   3.4  90  33.0f        76   63  44   1.08  87.67 m i    ISC        4611932
 (#PRIME)

Magnitude  Err Nsta Author      OrigID
mb     4.5          BJI        4011049
Mb     4.6 0.5    9 LDG        3089949
mb     4.3       12 NEIC       4054953
ML     4.0          NDI        4532478
mb     3.7 0.1   10 IDC        4232673
ML     4.0 0.8    2 IDC        4232673
MS     3.4 0.0    1 IDC        4232673
mb     4.2       21 ISC        4611932
MS     3.4        1 ISC        4611932

Event  1883175 India-Bangladesh border region
   Date       Time        Err   RMS Latitude Longitude  Smaj  Smin  Az Depth   Err Ndef Nsta Gap  mdist  Mdist Qual   Author      OrigID
2001/04/20 18:35:00.42   0.60 0.790  25.9359   90.5568  24.0  14.4  44   0.0f        17      126  10.75 151.20     uk IDC        4233372
2001/04/20 18:35:02.59   0.38 1.270  25.8780   90.5950   9.4   5.9  18  33.0f        43       99   2.97  92.00     se NEIC       4055414
2001/04/20 18:35:02.60   1.74        25.8910   90.5500  17.7  10.1  29  33.0         22                               MOS        3113725
2001/04/20 18:35:03.10        1.800  26.2600   90.5500                  12.0              26                          BJI        4011161
2001/04/20 18:35:04.15        1.100  25.9710   90.5180   8.1   5.6  14  24.6   9.7   83   72                       ke EHB       11213127
2001/04/20 18:35:03.71   0.50 1.239  25.9800   90.5190   4.6 2.794   0  36.6   5.9   86   77  73   1.30 151.18 m i    ISC        4612478
 (#PRIME)

Magnitude  Err Nsta Author      OrigID
mb     4.2 0.1   15 IDC        4233372
ML     4.1 0.0    1 IDC        4233372
MS     3.3 0.2    2 IDC        4233372
mb     4.5       17 NEIC       4055414
ML     4.9          DMN        4055414
mb     4.8        9 MOS        3113725
mb     4.4          BJI        4011161
mB     4.9          BJI        4011161
ML     4.0          BJI        4011161
Ms     3.9          BJI        4011161
Msz    3.8          BJI        4011161
mb     4.3       21 ISC        4612478
MS     3.8        1 ISC        4612478

Event  1885081 Northern India
   Date       Time        Err   RMS Latitude Longitude  Smaj  Smin  Az Depth   Err Ndef Nsta Gap  mdist  Mdist Qual   Author      OrigID
2001/04/28 03:06:25.77   0.68 0.900  28.5880   76.8410  24.6  13.1  56  10.0f        12      131   5.91  88.77     de NEIC       4055893
 (Minor damage to some houses at New Delhi. Felt in parts of northern India.)
2001/04/28 03:06:27.30   3.13 0.500  28.6160   77.0440   4.5   7.0  -1  10.4   5.2        17  82                      NDI        4532632
2001/04/28 03:06:28.12   1.14 0.710  28.6253   76.8885  35.2  19.8  55  12.0   5.2   15      131   5.90  88.73     uk IDC        4234072
2001/04/28 03:06:28.90   0.77        28.5930   76.8800  30.8  14.8  12  33.0         11                               MOS        3114838
2001/04/28 03:06:27.00   0.49 1.373  28.5910   77.0440   4.2   3.0  90  15.4   4.1   44   35  57   0.13  88.75 m i    ISC        4613107
 (#PRIME)

Year Volume Page1 Page2 Journal
2009     13    89   105 J. Seismol.
 (#AUTHOR Bansal,B.K. , Singh,S.K. , Dharmaraju,R. , Pacheco,J.F. , Ordaz,M. ,              )
 (+       Dattatrayam,R.S. , Suresh,G.                                                     )
 (#TITLE  Source study of two small earthquakes of Delhi, India, and estimation of ground  )
 (+       motion from future moderate, local events                                        )

Magnitude  Err Nsta Author      OrigID
mb     3.7        1 NEIC       4055893
MD     3.5          NDI        4532632
ML     3.8          NDI        4532632
mb     3.8 0.1   10 IDC        4234072
ML     3.5 0.0    1 IDC        4234072
mb     4.7        4 MOS        3114838
mb     4.3        6 ISC        4613107

Event  1836168 Xizang
   Date       Time        Err   RMS Latitude Longitude  Smaj  Smin  Az Depth   Err Ndef Nsta Gap  mdist  Mdist Qual   Author      OrigID
2001/04/28 10:37:53.53   0.52 0.610  28.8642   87.1893  19.6  13.0  32   0.0f        26      130  12.84 148.52     uk IDC        4234090
2001/04/28 10:37:53.90   0.00 0.000  29.2500   87.8000   0.0   0.0   1         1.0   25   25      41.17  51.62     ke STR        4486237
2001/04/28 10:37:54.81        0.890  28.8150   87.1360   4.3   2.8   7   8.4   1.9  408  365                       ke EHB       11213319
2001/04/28 10:37:56.10        1.300  28.9500   87.2400                  25.0              59                          BJI        4011263
2001/04/28 10:37:56.57   0.16 0.860  28.8720   87.1620   5.8   3.3  22  33.0f       260       44  12.82 148.50     se NEIC       4055917
2001/04/28 10:37:57.00   0.99        28.8310   87.2720  10.3   6.1  23  33.0         55                               MOS        3114842
2001/04/28 10:37:59.10   6.91 2.000  28.5470   87.1350  20.5  21.1  -1  33.0f             29 183                      NDI        4532634
2001/04/28 10:37:59.30   0.38 0.300  29.1894   86.7572  18.3   5.2 150  33.0   0.0   36   36      18.93 153.85     ke LDG        3090004
2001/04/28 10:38:01.10   1.50 0.500  29.0610   86.0400 999.9 999.9  -1  16.2  1000         5 348                      BER        3654768
2001/04/28 10:37:55.29   0.15 0.939  28.7660   87.1310   3.0 2.238   0  25.0f       401  381  23   3.63 148.47 m i    ISC        4613132
 (#PRIME)
 (#PARAM pP_DEPTH=21+2)

Magnitude  Err Nsta Author      OrigID
mb     5.0 0.1   17 IDC        4234090
ML     4.7 0.0    1 IDC        4234090
MS     4.3 0.1   11 IDC        4234090
Mb     5.1 0.0      STR        4486237
mb     4.9          BJI        4011263
mB     5.4          BJI        4011263
Ms     5.0          BJI        4011263
Msz    4.8          BJI        4011263
mb     5.2      135 NEIC       4055917
MS     4.5        8 NEIC       4055917
mb     5.5       34 MOS        3114842
MS     4.4       20 MOS        3114842
mb     5.3          NDI        4532634
ML     5.0          NDI        4532634
mb     5.2          NEIC       4532634
Mb     5.4 0.2   37 LDG        3090004
Ms     4.1 0.2    7 LDG        3090004
mb     5.4          BER        3654768
mb     5.2      155 ISC        4613132
MS     4.6       26 ISC        4613132

Event  1885110 Xizang
   Date       Time        Err   RMS Latitude Longitude  Smaj  Smin  Az Depth   Err Ndef Nsta Gap  mdist  Mdist Qual   Author      OrigID
2001/04/29 10:39:01.99   0.60 0.880  28.7546   87.1095  22.6  13.5  39   0.0f        20      130  12.82 121.33     uk IDC        4234159
2001/04/29 10:39:03.80        2.300  28.7300   87.1700                  25.0              30                          BJI        4011276
2001/04/29 10:39:05.17   0.24 1.000  28.9120   87.2220   5.4   5.3 171  33.0f        73       41   1.54 121.16     se NEIC       4055994
2001/04/29 10:39:05.30   1.02        28.7650   87.2280  13.6   7.7  23  33.0         35                               MOS        3114863
2001/04/29 10:39:08.27        0.950  28.7660   87.1390   6.1   4.5  13  44.6   5.4  142  131                       ke EHB       11213349
2001/04/29 10:39:09.10   4.31 1.300  28.7020   87.1400  18.6  15.6  -1  33.0f             19 190                      NDI        4532640
2001/04/29 10:39:18.30   3.67 0.340  30.9422   85.9403 190.0   9.2 161  33.0   0.0   23   23      23.01 152.78     ke LDG        3090008
2001/04/29 10:39:06.92   0.47 1.107  28.7640   87.1830   4.2 2.822   0  51.7   5.4  143  134  26   1.41 121.31 m i    ISC        4613242
 (#PRIME)

Magnitude  Err Nsta Author      OrigID
mb     4.3 0.1   16 IDC        4234159
ML     4.2 0.0    1 IDC        4234159
MS     3.6 0.1    4 IDC        4234159
mb     4.3          BJI        4011276
mB     4.6          BJI        4011276
Ms     4.4          BJI        4011276
Msz    4.2          BJI        4011276
mb     4.7       33 NEIC       4055994
mb     4.7       18 MOS        3114863
mb     4.9          NDI        4532640
ML     4.5          NDI        4532640
mb     4.7          NEIC       4532640
Mb     4.8 0.2   18 LDG        3090008
Ms     3.5        1 LDG        3090008
mb     4.5       39 ISC        4613242
MS     4.0        6 ISC        4613242

Event  2973175 Xizang
   Date       Time        Err   RMS Latitude Longitude  Smaj  Smin  Az Depth   Err Ndef Nsta Gap  mdist  Mdist Qual   Author      OrigID
2001/05/02 03:07:11.88   0.93 0.760  32.6233   85.4014  40.6  21.4  56   0.0f         8      128  21.31  83.86     uk IDC        4259543
2001/05/02 03:07:15.73   0.50 0.910  32.7860   85.5150  19.4   7.2  81  33.0f        13      122   4.67  83.68     se NEIC       4132169
2001/05/02 03:07:18.20        4.800  33.0700   85.7500                  33.0               5                          BJI        4011301
2001/05/02 03:07:15.68   0.55 1.162  32.8140   85.5880 12.03   6.4  90  33.0f        18   18  94   4.72  83.64 m i    ISC        4658293
 (#PRIME)

Magnitude  Err Nsta Author      OrigID
mb     3.7 0.1    8 IDC        4259543
MS     3.4 0.0    1 IDC        4259543
mb     3.7        8 ISC        4658293
MS     3.5        1 ISC        4658293

Event  2046494 Bhutan
   Date       Time        Err   RMS Latitude Longitude  Smaj  Smin  Az Depth   Err Ndef Nsta Gap  mdist  Mdist Qual   Author      OrigID
2001/05/03 16:02:56.41   0.72 0.480  27.6913   90.5467  27.1  16.6  41   0.0f        12      128  12.00  87.89     uk IDC        4259660
2001/05/03 16:02:57.20        3.200  27.4500   90.5200                  32.0               8                          BJI        4011318
2001/05/03 16:02:59.64   0.58 1.220  27.6300   90.4700  17.7  10.0  54  33.0f        19      129  12.00  95.58     se NEIC       4132322
2001/05/03 16:02:59.86        1.160  27.6850   90.6120  10.0   6.9   1  15.0f        48   38                       ke EHB       11213450
2001/05/03 16:03:02.61   0.76 1.374  27.6450   90.5520   7.1 4.326   0  59.8   9.2   49   39 102   2.11  95.59 m i    ISC        4658439
 (#PRIME)

Magnitude  Err Nsta Author      OrigID
mb     3.9 0.1   11 IDC        4259660
ML     3.3 0.0    1 IDC        4259660
ML     3.4          BJI        4011318
mb     4.1        4 NEIC       4132322
mb     3.9       15 ISC        4658439

Event  3317415 Xizang
   Date       Time        Err   RMS Latitude Longitude  Smaj  Smin  Az Depth   Err Ndef Nsta Gap  mdist  Mdist Qual   Author      OrigID
2001/05/05 03:01:07.59   0.84 0.930  30.0715   87.9929  38.4  20.7  46   0.0f         9      127  15.26  85.99     uk IDC        4259765
2001/05/05 03:01:10.76   0.63 1.163  30.2880   88.3450 6.614   7.1  90  33.0f        28   25 111   2.98  85.72 m i    ISC        4658556
 (#PRIME)

Magnitude  Err Nsta Author      OrigID
mb     3.6 0.1    8 IDC        4259765
ML     3.7 0.0    1 IDC        4259765
MS     2.7 0.0    1 IDC        4259765
mb     3.6        8 ISC        4658556

Event  3150719 Xizang
   Date       Time        Err   RMS Latitude Longitude  Smaj  Smin  Az Depth   Err Ndef Nsta Gap  mdist  Mdist Qual   Author      OrigID
2001/05/08 17:46:44.91   1.03 0.800  33.3252   81.6900  53.3  23.3  43   0.0f         6      128  21.40  83.62     uk IDC        4259994
2001/05/08 17:46:48.20   0.74 1.110  33.3780   81.6500  27.5   9.6  57  33.0f        14      121   5.33  83.57     se NEIC       4132713
2001/05/08 17:46:48.33   0.81 1.113  33.4220   81.6890 20.29 13.99  90  33.0f        15   15 121   4.37  83.52 m i    ISC        4658825
 (#PRIME)

Magnitude  Err Nsta Author      OrigID
mb     3.6 0.1    6 IDC        4259994
mb     3.5        6 ISC        4658825

Event  3716015 Nepal
   Date       Time        Err   RMS Latitude Longitude  Smaj  Smin  Az Depth   Err Ndef Nsta Gap  mdist  Mdist Qual   Author      OrigID
2001/05/15 03:15:21.80   4.36 1.500  29.4170   81.4820  14.8  22.0  -1  15.0f             10 271                      NDI        4580068
2001/05/15 03:15:23.88   1.56 1.505  29.1870   81.0520 9.594   6.5  90  15.0f        19   11 265   0.75  12.71 m i    ISC        4659460
 (#PRIME)

Magnitude  Err Nsta Author      OrigID
MD     3.6          NDI        4580068
ML     3.5          NDI        4580068

Event  3716072 Xizang
   Date       Time        Err   RMS Latitude Longitude  Smaj  Smin  Az Depth   Err Ndef Nsta Gap  mdist  Mdist Qual   Author      OrigID
2001/05/21 21:55:07.80   3.76 1.500  28.5420   86.7230  18.2  13.3  -1  33.0f              5 200                      NDI        4580117
2001/05/21 21:55:05.75   0.84 1.308  28.7270   86.8500   5.7 4.380   0  33.0f        33   18 187   1.18  13.75 m i    ISC        4660036
 (#PRIME)

Magnitude  Err Nsta Author      OrigID
ML     3.8          NDI        4580117

Event  3716103 Nepal-India border region
   Date       Time        Err   RMS Latitude Longitude  Smaj  Smin  Az Depth   Err Ndef Nsta Gap  mdist  Mdist Qual   Author      OrigID
2001/05/25 15:06:01.50   5.19 1.900  29.9580   80.3540  24.6  65.7  -1   2.1  24.3         4 264                      NDI        4580150
2001/05/25 15:06:06.06   2.62 1.200  29.8620   80.2120 20.12 13.99  90   2.1f         6    4 234   0.41   3.23 m i    ISC        4660401
 (#PRIME)

Magnitude  Err Nsta Author      OrigID
MD     3.6          NDI        4580150

Event  3319782 Bangladesh
   Date       Time        Err   RMS Latitude Longitude  Smaj  Smin  Az Depth   Err Ndef Nsta Gap  mdist  Mdist Qual   Author      OrigID
2001/05/26 01:22:50.75  17.28 0.450  24.0979   90.3872 434.0  95.9   8   0.0f         4      328  17.75  64.01     uk IDC        4261642
 (Low Confidence Location)

Magnitude  Err Nsta Author      OrigID
mb     3.9 0.1    3 IDC        4261642
mb1    4.0 0.1    4 IDC        4261642
mb1mx  3.7 0.1   21 IDC        4261642
ML     4.1 0.3    1 IDC        4261642
MS     2.4 0.2    1 IDC        4261642
Ms1    2.6 0.2    1 IDC        4261642
ms1mx  2.4 0.1   20 IDC        4261642

Event  3152659 Xizang
   Date       Time        Err   RMS Latitude Longitude  Smaj  Smin  Az Depth   Err Ndef Nsta Gap  mdist  Mdist Qual   Author      OrigID
2001/05/28 21:09:45.55   0.59 0.900  29.7250   85.7180  18.5  10.2  34  33.0f        11      130   4.73  77.33     se NEIC       4134305
2001/05/28 21:09:51.36   8.48 0.270  29.7644   85.9453  40.7  17.7  47  69.8  79.1    9      129  16.34  77.22     uk IDC        4261998
2001/05/28 21:09:48.74   3.18 0.629  29.7420   85.8370 18.41 15.43  90  63.6  30.4   13   13 129   4.62  77.28 m i    ISC        4660655
 (#PRIME)

Magnitude  Err Nsta Author      OrigID
mb     3.5        1 NEIC       4134305
mb     3.4 0.1    8 IDC        4261998
mb1    3.6 0.1    9 IDC        4261998
mb1mx  3.5 0.1   20 IDC        4261998
ML     3.4 0.3    1 IDC        4261998
mb     3.7        9 ISC        4660655

Event  2970707 Northern India
   Date       Time        Err   RMS Latitude Longitude  Smaj  Smin  Az Depth   Err Ndef Nsta Gap  mdist  Mdist Qual   Author      OrigID
2001/06/01 19:11:36.80   0.57 0.350  32.1994   78.0945  45.6  10.4  32  10.0   0.0   20   11 348   6.23   9.69     ke DMN        4573645
2001/06/01 19:11:37.00        4.900  31.6000   77.4000                  33.0               5                          BJI        4009295
2001/06/01 19:11:37.02   1.07 1.450  31.5592   77.3740  44.2  14.1  39   0.0f        11      174   4.06  77.07     uk IDC        4262639
2001/06/01 19:11:37.50   4.72 1.800  31.7380   77.5650  13.1  12.5  -1  10.0f             10 173                      NDI        4602633
2001/06/01 19:11:40.48   0.93 1.410  31.6330   77.4070  36.8  13.9  41  33.0f         8      173   4.04  77.09     se NEIC       4206444
2001/06/01 19:11:36.65   0.31 1.452  31.7470   77.6170   3.7 2.265   0  10.0f        58   38 100   0.58  77.02 m i    ISC        4733522
 (#PRIME)

Magnitude  Err Nsta Author      OrigID
ML     3.9          BJI        4009295
mb     3.7 0.1    7 IDC        4262639
mb1    3.9 0.1    8 IDC        4262639
mb1mx  3.7 0.1   22 IDC        4262639
ML     3.7 0.3    1 IDC        4262639
ML     3.4          NDI        4602633
mb     3.7        7 ISC        4733522

Event  2970833 Xizang
   Date       Time        Err   RMS Latitude Longitude  Smaj  Smin  Az Depth   Err Ndef Nsta Gap  mdist  Mdist Qual   Author      OrigID
2001/06/07 02:36:24.15   1.53 0.590  25.5748   95.8178  45.2  29.5  34   0.0f         5      157   7.65  66.16     uk IDC        4262976
2001/06/07 02:36:38.50  18.75 0.190  30.6258   92.3679 460.0  31.0  62 200.0f        11   11 337   5.22   8.17     ke DMN        4573726
2001/06/07 02:37:13.60        0.600  30.1100   90.4300                   4.0               5                          BJI        4009378
2001/06/07 02:37:06.48   0.51 1.148  29.6560   89.9680   6.4 4.051   0   4.0f        20   18  93   1.03  59.60 m i    ISC        4733956
 (#PRIME)

Magnitude  Err Nsta Author      OrigID
mb     3.9 0.1    4 IDC        4262976
mb1    4.2 0.1    5 IDC        4262976
mb1mx  3.8 0.1   15 IDC        4262976
ML     4.6 0.3    1 IDC        4262976
ML     3.1          BJI        4009378
mb     3.9        4 ISC        4733956

Event  3736384 Northern India
   Date       Time        Err   RMS Latitude Longitude  Smaj  Smin  Az Depth   Err Ndef Nsta Gap  mdist  Mdist Qual   Author      OrigID
2001/06/08 07:34:43.50   5.90 1.800  24.2360   82.6540  11.5  15.7  -1   5.0f             13 121                      NDI        4602688
2001/06/08 07:34:41.49   0.67 1.248  24.2710   82.6040 4.857   4.9  90   5.0f        14    9 120   1.26  10.49 m i    ISC        4734038
 (#PRIME)

Magnitude  Err Nsta Author      OrigID
ML     3.1          NDI        4602688

Event  3321850 Southern India
   Date       Time        Err   RMS Latitude Longitude  Smaj  Smin  Az Depth   Err Ndef Nsta Gap  mdist  Mdist Qual   Author      OrigID
2001/06/10 01:12:16.83   1.55 0.260  22.9859   82.8981 150.0  20.6  49   0.0f         6      184  54.35  67.87     uk IDC        4263147
2001/06/10 01:12:18.80   5.46 1.600  23.0300   83.1540  11.9  16.8  -1  16.5  28.0        15 156                      NDI        4602695
2001/06/10 01:12:18.02   0.76 1.310  23.1980   82.9210 6.938   4.9  90  16.5f        23   19 146   1.29  67.99 m i    ISC        4734163
 (#PRIME)

Magnitude  Err Nsta Author      OrigID
mb     3.6 0.1    6 IDC        4263147
mb1    3.8 0.0    6 IDC        4263147
mb1mx  3.7 0.0   17 IDC        4263147
ML     3.6          NDI        4602695
mb     3.6        6 ISC        4734163

Event  3736416 Xizang
   Date       Time        Err   RMS Latitude Longitude  Smaj  Smin  Az Depth   Err Ndef Nsta Gap  mdist  Mdist Qual   Author      OrigID
2001/06/12 10:47:46.60   3.48 1.000  28.4600   86.5720  13.6  11.6  -1  20.5  26.7        11 187                      NDI        4602712
2001/06/12 10:47:42.40   1.00 1.357  28.4610   86.5360 8.490   8.3  90  20.5f        26   15 183   4.68  14.51 m i    ISC        4734377
 (#PRIME)

Magnitude  Err Nsta Author      OrigID
ML     3.9          NDI        4602712

