Event  1737354 Kashmir-Xizang border region
   Date       Time        Err   RMS Latitude Longitude  Smaj  Smin  Az Depth   Err Ndef Nsta Gap  mdist  Mdist Qual   Author      OrigID
2000/07/05 18:50:17                  34.0000   80.0000                                                                NAO        3608390
2000/07/05 18:50:20.49   0.18 0.840  33.9740   79.7580   7.7   3.2  44  33.0f        68   68  43   5.43  87.63     se NEIC       3665170
2000/07/05 18:50:21.00   1.35        34.0860   79.8540  20.9  13.4  43  33.0         14                               MOS        3025205
2000/07/05 18:50:21.50        1.200  34.2000   79.7600                  44.0              21                          BJI        3019883
2000/07/05 18:50:21.88        1.080  34.1400   79.8850   6.9   5.1  27  25.0f        93   92                       ke EHB       11208815
2000/07/05 18:50:22.80   5.53 2.100  34.1470   79.9990  29.0  15.6  -1  10.0f             11 229                      NDI        4002005
2000/07/05 18:50:24.36   3.21 0.770  34.0010   79.8735  20.4  14.1  30  52.8  30.0   15   14  95   5.52  87.57     uk IDC        3882305
2000/07/05 18:50:22.62   0.80 1.102  33.9860   79.8530   7.0 3.866   0  54.5   9.2   95   98  28   3.47  87.58 m i    ISC        4127026
 (#PRIME)

Magnitude  Err Nsta Author      OrigID
Mb     4.0          NAO        3608390
mb     4.7       40 NEIC       3665170
mb     4.7        8 MOS        3025205
mb     4.5          BJI        3019883
ML     4.3          BJI        3019883
Ms     4.1          BJI        3019883
Msz    4.1          BJI        3019883
mb     5.0          NDI        4002005
mb     4.7          NEIC       4002005
mb     4.1 0.1   13 IDC        3882305
ML     3.7 0.0    1 IDC        3882305
MS     3.4 0.1    6 IDC        3882305
mb     4.6       47 ISC        4127026
MS     3.5        7 ISC        4127026

Event  1737730 Xizang
   Date       Time        Err   RMS Latitude Longitude  Smaj  Smin  Az Depth   Err Ndef Nsta Gap  mdist  Mdist Qual   Author      OrigID
2000/07/12 22:23:58.08   0.57 0.530  31.6398   83.5135  21.1  14.2  50   8.3   3.0   23   15  97  19.14 145.47     uk IDC        3882952
2000/07/12 22:23:59.00   2.07 0.900  32.4050   83.9230  20.5   8.9  -1  33.0f              7 225                      NDI        4002055
2000/07/12 22:23:59.60   0.45 1.200  31.5080   83.5060  13.0  11.2  79  33.0f        23   23  67   6.13 145.46     se NEIC       3665823
2000/07/12 22:24:02.23        1.310  31.5910   83.5760  13.5   9.8  16  35.0f        40   37                       ke EHB       11208993
2000/07/12 22:24:02.80        2.600  31.7800   83.7500                  32.0              12                          BJI        3020071
2000/07/12 22:24:10                  33.0000   83.0000                                                                NAO        3608572
2000/07/12 22:24:00.21   0.95 1.243  31.5380   83.5120   8.1 5.393   0  36.8  10.4   39   43  65   3.50 145.47 m i    ISC        4128180
 (#PRIME)
 (#PARAM pP_DEPTH=0+1)

Magnitude  Err Nsta Author      OrigID
mb     4.2 0.1   13 IDC        3882952
ML     4.3 0.0    1 IDC        3882952
MS     4.0 1.0    2 IDC        3882952
MD     4.2          NDI        4002055
mb     4.8          NEIC       4002055
mb     4.8        3 NEIC       3665823
mb     4.3          BJI        3020071
Ms     4.1          BJI        3020071
Mb     4.7          NAO        3608572
mb     4.2       14 ISC        4128180
MS     4.8        1 ISC        4128180

Event  2776142 Eastern Kashmir
   Date       Time        Err   RMS Latitude Longitude  Smaj  Smin  Az Depth   Err Ndef Nsta Gap  mdist  Mdist Qual   Author      OrigID
2000/07/14 20:19:20.67   1.87 0.950  32.9516   77.9526  47.0  27.7  40   0.0f         4    4 159   4.00  46.61     uk IDC        3883073
2000/07/14 20:19:19.15   1.43 1.634  33.0310   77.9180 24.53 17.31   0   0.0f         4    4 157   3.95  46.52 m i    ISC        4128411
 (#PRIME)
 (Poorly determined)

Magnitude  Err Nsta Author      OrigID
mb     3.5 0.2    3 IDC        3883073
ML     3.1 0.0    1 IDC        3883073
mb     3.5        3 ISC        4128411

Event  2958335 Western Xizang-India border region
   Date       Time        Err   RMS Latitude Longitude  Smaj  Smin  Az Depth   Err Ndef Nsta Gap  mdist  Mdist Qual   Author      OrigID
2000/07/18 10:05:24.70   3.67 1.500  30.3790   79.6080  17.1  21.9  -1  15.0f              5 207                      NDI        4002096

Magnitude  Err Nsta Author      OrigID
MD     3.1          NDI        4002096

Event  2958341 Western Xizang-India border region
   Date       Time        Err   RMS Latitude Longitude  Smaj  Smin  Az Depth   Err Ndef Nsta Gap  mdist  Mdist Qual   Author      OrigID
2000/07/18 23:55:22.20   3.38 1.100  30.5020   79.5860  10.1  16.4  -1   5.0f             10 209                      NDI        4002100
2000/07/18 23:55:23.80   1.82 1.329  30.5310   79.7010 19.03 14.87  90   5.0f        11   11 213   1.18   7.54 m i    ISC        4128826
 (#PRIME)

Magnitude  Err Nsta Author      OrigID
MD     3.4          NDI        4002100
ML     3.4          NDI        4002100

Event  3209196 Northern India
   Date       Time        Err   RMS Latitude Longitude  Smaj  Smin  Az Depth   Err Ndef Nsta Gap  mdist  Mdist Qual   Author      OrigID
2000/08/26 09:41:53.93   6.14 0.669  24.0410   82.6330 53.50 14.80   0  33.0f        12   12 273   1.47   5.67 m i    ISC        4175997

Event  3209197 Northern India
   Date       Time        Err   RMS Latitude Longitude  Smaj  Smin  Az Depth   Err Ndef Nsta Gap  mdist  Mdist Qual   Author      OrigID
2000/08/27 06:41:23.45   6.43 0.336  24.2820   82.6980 61.49 15.28   0  33.0f         6    6 264   1.30   4.95 m i    ISC        4176072

Event  3023092 Nepal
   Date       Time        Err   RMS Latitude Longitude  Smaj  Smin  Az Depth   Err Ndef Nsta Gap  mdist  Mdist Qual   Author      OrigID
2000/08/30 11:31:16.90   1.49 0.700  29.2050   82.0940  21.3  18.5  -1  33.0f              4 339                      NDI        4057543

Magnitude  Err Nsta Author      OrigID
MD     3.2          NDI        4057543

Event  1739526 Kashmir-Xizang border region
   Date       Time        Err   RMS Latitude Longitude  Smaj  Smin  Az Depth   Err Ndef Nsta Gap  mdist  Mdist Qual   Author      OrigID
2000/08/31 02:08:36                  31.0000   81.0000                                                                NAO        3610219
2000/08/31 02:08:40.70   0.61        31.3373   78.7659  31.9   9.0 156  33.0   0.0   12   12      19.09  85.88     ke LDG        3032372
2000/08/31 02:08:45.00   4.21 1.500  32.0320   78.2990  15.0  12.7  -1  15.0f             11 198                      NDI        4057546
2000/08/31 02:08:45.40        2.200  32.1000   78.5600                  21.0              22                          BJI        3020969
2000/08/31 02:08:45.95   1.02 1.120  32.0010   78.4070   9.2   6.6 210  36.5  10.9   69       50   3.22 145.86     se NEIC       4032574
2000/08/31 02:08:46.00   1.42        31.9610   78.4010  19.1  10.8  21  33.0         20                               MOS        3025900
2000/08/31 02:08:48.23        1.090  32.0350   78.4230   7.5   4.7  20  37.0   7.5  111   97                       ke EHB       11209774
2000/08/31 02:08:49.43   5.59 0.830  31.9842   78.4228  18.7  13.4  30  49.4  54.0   20   19  95  22.88 145.88     uk IDC        3886311
2000/08/31 02:08:46.40   0.53 1.073  32.0870   78.4600   4.7 3.292   0  37.9   6.3  101  102  18   1.40 145.88 m i    ISC        4176373
 (#PRIME)

Magnitude  Err Nsta Author      OrigID
Mb     4.3          NAO        3610219
Mb     4.6 0.2   13 LDG        3032372
mb     4.7          NDI        4057546
MD     4.5          NDI        4057546
mb     4.7          NEIC       4057546
mb     4.5          BJI        3020969
mB     5.0          BJI        3020969
ML     4.5          BJI        3020969
Ms     4.2          BJI        3020969
Msz    4.1          BJI        3020969
mb     4.7       29 NEIC       4032574
mb     4.7       11 MOS        3025900
mb     4.1 0.1   18 IDC        3886311
MS     3.9 0.2    5 IDC        3886311
mb     4.6       45 ISC        4176373
MS     3.9        5 ISC        4176373

Event  2779951 Western Xizang-India border region
   Date       Time        Err   RMS Latitude Longitude  Smaj  Smin  Az Depth   Err Ndef Nsta Gap  mdist  Mdist Qual   Author      OrigID
2000/08/31 02:16:59.70   4.33 2.000  31.5510   78.6130  12.7  24.0  -1  15.0f              8 262                      NDI        4057548
2000/08/31 02:17:00.82   1.96 0.990  31.8900   78.4604  55.1  32.1  51   0.0f         4    4 198  31.40  76.55     uk IDC        3886312
2000/08/31 02:17:01.63   0.86 1.602  31.8050   78.6480   9.3 10.10  90  15.0f        12   12  69   1.43  76.37 m i    ISC        4176376
 (#PRIME)

Magnitude  Err Nsta Author      OrigID
MD     3.5          NDI        4057548
mb     4.0 0.3    4 IDC        3886312
mb     4.0        4 ISC        4176376

Event  3023097 Western Xizang-India border region
   Date       Time        Err   RMS Latitude Longitude  Smaj  Smin  Az Depth   Err Ndef Nsta Gap  mdist  Mdist Qual   Author      OrigID
2000/08/31 02:56:10.40   4.09 1.400  31.8590   78.6080  31.9  45.0  -1   5.5  17.4         7 303                      NDI        4057549
2000/08/31 02:56:15.05   7.59 1.075  31.9410   78.4150 57.84 21.31  90   5.5f         6    6 296   1.31   2.97 m i    ISC        4176378
 (#PRIME)

Magnitude  Err Nsta Author      OrigID
MD     3.4          NDI        4057549

Event  1910839 Nepal
   Date       Time        Err   RMS Latitude Longitude  Smaj  Smin  Az Depth   Err Ndef Nsta Gap  mdist  Mdist Qual   Author      OrigID
2000/09/02 04:21:47.40   3.91 0.900  28.0970   85.2860  26.1  11.6  -1  15.0  17.2         7 187                      NDI        4145078
2000/09/02 04:21:48.94   0.62 1.060  28.0690   85.2910  22.1   6.0 205  44.0  10.2   15      139   0.28  69.58     fe NEIC       4032784
 (Less reliable solution.)
 (Felt at Kathmandu.)
2000/09/02 04:22:01.02   8.53 0.300  29.0756   86.7436  47.5  19.2  52 132.3  81.7    6    6 153  15.36  69.34     uk IDC        3886852
2000/09/02 04:21:49.24   0.51 1.310  27.9520   85.2160   9.8 5.981   0  55.5   7.6   22   29 115   0.17  69.55 m i    ISC        4198036
 (#PRIME)

Magnitude  Err Nsta Author      OrigID
ML     3.4          NDI        4145078
mb     3.5 0.2    5 IDC        3886852
mb     3.9        5 ISC        4198036

Event  1910975 Xizang
   Date       Time        Err   RMS Latitude Longitude  Smaj  Smin  Az Depth   Err Ndef Nsta Gap  mdist  Mdist Qual   Author      OrigID
2000/09/06 07:18:31                  24.0000   90.0000                                                                NAO        4141951
2000/09/06 07:19:08.90   3.30 1.500  28.5250   86.8620  13.4  10.2  -1  33.0f             10 189                      NDI        4145118
2000/09/06 07:19:13.50   1.00 0.870  28.5570   86.3450  21.9  11.0 221 105.4  11.9   15      151   0.76  68.16     se NEIC       4033045
 (Less reliable solution.)
2000/09/06 07:19:13.88   4.61 0.510  28.6105   86.3722  39.3  29.4  50  89.5  40.9   10    9 151  12.31  68.19     uk IDC        3887032
2000/09/06 07:19:13.82   1.10 0.877  28.5340   86.3130 12.38  12.2  90 110.5  11.5   29   34 141   0.73  68.13 m i    ISC        4198378
 (#PRIME)

Magnitude  Err Nsta Author      OrigID
Mb     4.1          NAO        4141951
MD     4.2          NDI        4145118
mb     3.7          NEIC       4145118
mb     3.7        2 NEIC       4033045
mb     3.8 0.2    7 IDC        3887032
mb     4.2        7 ISC        4198378

Event  1911230 Northern India
   Date       Time        Err   RMS Latitude Longitude  Smaj  Smin  Az Depth   Err Ndef Nsta Gap  mdist  Mdist Qual   Author      OrigID
2000/09/13 14:43:26.61   2.16 0.990  31.6561   77.4680  88.3  18.2  30   0.0f         7    4 181   4.07  47.65     uk IDC        3887428
2000/09/13 14:43:27.20   3.51 1.200  31.6530   77.5600   7.3   8.6  -1   5.0f             14 188                      NDI        4145198
2000/09/13 14:43:28.38   0.77 1.320  31.9040   77.9300  38.0   8.3  38  33.0f        16      156   3.42  47.57     se NEIC       4033535
 (Less reliable solution.)
2000/09/13 14:43:25.31   0.50 1.439  31.6570   77.6510   7.1 4.913   0   5.0f        28   30 137   0.60  47.70 m i    ISC        4199015
 (#PRIME)

Magnitude  Err Nsta Author      OrigID
mb     3.8 0.2    3 IDC        3887428
ML     3.7 0.0    1 IDC        3887428
MD     3.3          NDI        4145198
ML     3.7          NDI        4145198
mb     3.9        3 ISC        4199015

Event  1911246 Nepal-India border region
   Date       Time        Err   RMS Latitude Longitude  Smaj  Smin  Az Depth   Err Ndef Nsta Gap  mdist  Mdist Qual   Author      OrigID
2000/09/14 03:24:25.54   1.02 1.320  28.8460   81.8980  18.9  11.2  38  33.0f         5      154   0.41   1.19     se NEIC       4033562
 (Single network solution.)
2000/09/14 03:24:25.85   1.16 1.319  28.8380   81.8910 14.87 12.64   0  33.0f         5    5 151   0.41   1.19 m i    ISC        4199058
 (#PRIME)

Event  1740279 Northern India
   Date       Time        Err   RMS Latitude Longitude  Smaj  Smin  Az Depth   Err Ndef Nsta Gap  mdist  Mdist Qual   Author      OrigID
2000/09/26 07:22:37.90        2.800  30.5600   77.7300                  29.0              11                          BJI        3021356
2000/09/26 07:22:44.06   0.41 0.730  30.9980   78.1300  12.6   8.8  81  33.0f        17       90   2.44 145.96     se NEIC       4034244
2000/09/26 07:22:46                  32.0000   80.0000                                                                NAO        4142174
2000/09/26 07:22:46.50        1.900  30.9220   78.2870                  33.0f             22                          NDI        4145349
2000/09/26 07:22:49.90   6.68 0.620  31.0105   78.2563  23.6  17.9  46  72.3  61.5   13   13 111  22.52 153.05     uk IDC        3888028
2000/09/26 07:22:45.13   0.42 1.154  30.8620   78.2330   5.4 4.097   0  53.1   6.8   55   59  50   0.56 152.95 m i    ISC        4200001
 (#PRIME)

Magnitude  Err Nsta Author      OrigID
mb     4.3          BJI        3021356
ML     4.0          BJI        3021356
Msz    4.4          BJI        3021356
mb     4.5        4 NEIC       4034244
Mb     4.4          NAO        4142174
MD     3.5          NDI        4145349
ML     4.0          NDI        4145349
mb     4.5          NEIC       4145349
mb     3.9 0.1   11 IDC        3888028
mb     4.2       14 ISC        4200001
MS     4.3        1 ISC        4200001

Event  3167258 Northern India
   Date       Time        Err   RMS Latitude Longitude  Smaj  Smin  Az Depth   Err Ndef Nsta Gap  mdist  Mdist Qual   Author      OrigID
2000/09/27 14:59:53.60   5.81 2.100  31.3050   77.0030  14.5  23.5  -1  10.0f             11 129                      NDI        4145364
2000/09/27 14:59:47.81   0.81 1.166  31.4230   77.3940   9.8 7.009   0  10.0f        13   13 171   0.35   8.15 m i    ISC        4200142
 (#PRIME)

Magnitude  Err Nsta Author      OrigID
MD     2.7          NDI        4145364
ML     2.9          NDI        4145364

Event  3167267 Southern India
   Date       Time        Err   RMS Latitude Longitude  Smaj  Smin  Az Depth   Err Ndef Nsta Gap  mdist  Mdist Qual   Author      OrigID
2000/09/29 05:03:38.80   3.64 1.200  23.5500   81.5220  33.2   8.4  -1  33.0f              3 180                      NDI        4145369
2000/09/29 05:03:35.56   1.59 0.757  23.2700   81.5110  14.4 11.32   0  33.0f         8    8 188   2.05   6.22 m i    ISC        4200285
 (#PRIME)

Magnitude  Err Nsta Author      OrigID
ML     3.1          NDI        4145369

Event  3207437 Western Xizang-India border region
   Date       Time        Err   RMS Latitude Longitude  Smaj  Smin  Az Depth   Err Ndef Nsta Gap  mdist  Mdist Qual   Author      OrigID
2000/10/01 06:14:22.40   3.34 1.400  30.4710   79.0540  14.9  14.2  -1  33.0f              6 199                      NDI        4172120

Magnitude  Err Nsta Author      OrigID
MD     2.6          NDI        4172120

Event  3207460 India-Bangladesh border region
   Date       Time        Err   RMS Latitude Longitude  Smaj  Smin  Az Depth   Err Ndef Nsta Gap  mdist  Mdist Qual   Author      OrigID
2000/10/03 17:08:22.40   3.60 1.500  26.8830   89.8020  30.5  11.5  -1  33.0f              5 223                      NDI        4172141
2000/10/03 17:08:22.73   1.15 1.160  26.7260   89.8280 17.32 11.30   0  33.0f        18   19 189   1.26   8.49 m i    ISC        4224647
 (#PRIME)

Magnitude  Err Nsta Author      OrigID
MD     2.8          NDI        4172141

Event  3207507 Northern India
   Date       Time        Err   RMS Latitude Longitude  Smaj  Smin  Az Depth   Err Ndef Nsta Gap  mdist  Mdist Qual   Author      OrigID
2000/10/07 15:32:38.60   4.13 1.300  25.6940   79.0180   8.6  19.3  -1  33.0f              6 126                      NDI        4172179

Magnitude  Err Nsta Author      OrigID
ML     3.4          NDI        4172179

Event  1740634 Xizang
   Date       Time        Err   RMS Latitude Longitude  Smaj  Smin  Az Depth   Err Ndef Nsta Gap  mdist  Mdist Qual   Author      OrigID
2000/10/08 06:14:35                  27.0000   90.0000                                                                NAO        3610365
2000/10/08 06:14:56.40   0.74 0.800  30.2004   88.1593  18.4  13.1   3  13.1   3.4   27   20  94  24.83 119.73     uk IDC        3888752
2000/10/08 06:14:56.90   1.47        29.9800   88.1900  12.0   8.0   7  33.0         35                               MOS        3026642
2000/10/08 06:14:57.42   0.38 1.310  30.1930   88.1150   9.5   7.7 171  33.0f        53       79  13.91 119.75     se NEIC       4034983
2000/10/08 06:14:58.70        2.100  30.1600   88.3500                  33.0              43                          BJI        3021533
2000/10/08 06:15:01.10   9.27 2.900  30.2960   88.3170  45.5  38.6  -1  33.0f             22 218                      NDI        4172188
2000/10/08 06:15:02.21        1.470  30.2440   88.1360   9.9   6.6 177  59.9   8.9  130  112                       ke EHB       11210191
2000/10/08 06:15:08.90   1.85        31.6135   85.4905  87.4  12.6 132  10.0f        11   14      16.76  87.22     ke LDG        3032980
2000/10/08 06:14:58.53   0.22 1.495  30.4220   88.1450   3.6 2.872   0  33.0f       122  123  27   2.70 119.52 m i    ISC        4225071
 (#PRIME)
 (#PARAM pP_DEPTH=15+3)

Magnitude  Err Nsta Author      OrigID
Mb     4.1          NAO        3610365
mb     4.4 0.1   19 IDC        3888752
MS     4.3 0.0   14 IDC        3888752
mb     4.8       21 MOS        3026642
mb     4.7       33 NEIC       4034983
MSZ    4.5        3 NEIC       4034983
mb     4.7          BJI        3021533
mB     4.6          BJI        3021533
Ms     4.9          BJI        3021533
Msz    4.8          BJI        3021533
mb     4.9          NDI        4172188
ML     4.4          NDI        4172188
mb     4.7          NEIC       4172188
Mb     4.7 0.3   14 LDG        3032980
Ms     4.2 0.1    5 LDG        3032980
mb     4.6       42 ISC        4225071
MS     4.5       19 ISC        4225071

Event  3207524 Nepal
   Date       Time        Err   RMS Latitude Longitude  Smaj  Smin  Az Depth   Err Ndef Nsta Gap  mdist  Mdist Qual   Author      OrigID
2000/10/09 00:20:08.30   7.92 2.500  29.3000   81.5440  23.6  31.9  -1  20.0f             14 235                      NDI        4172197
2000/10/09 00:20:04.10   1.11 1.472  29.1760   81.8890 9.789 10.88  90  20.0f        13   13 169   1.46  13.77 m i    ISC        4225144
 (#PRIME)

Magnitude  Err Nsta Author      OrigID
MD     3.7          NDI        4172197
ML     3.7          NDI        4172197

