Event  7204150 Xizang
   Date       Time        Err   RMS Latitude Longitude  Smaj  Smin  Az Depth   Err Ndef Nsta Gap  mdist  Mdist Qual   Author      OrigID
2003/12/10 17:17:29.60        1.400  30.0200   82.5900                  33.0              22                          BJI        5634657
2003/12/10 17:17:34.02   0.77 0.540  30.4740   83.4072  25.7  17.8  64   0.0f        14      111  16.32 145.34     uk IDC        6108902
2003/12/10 17:17:36.40   0.74 0.340  30.3177   83.4273  16.1  14.3 104  10.0   0.0   12    7 321   1.98   3.59     ke DMN        5577350
2003/12/10 17:17:37.33   0.39 0.890  30.4690   83.2780  10.1   6.8 216  33.0f        30       63   6.86 145.22     se NEIC       6862971
2003/12/10 17:17:37.70   1.20        30.5790   83.2530  14.5   8.6  96  33.0         27                               MOS        6836210
2003/12/10 17:17:40.69        1.020  30.4380   83.3110   7.2   5.5  26  49.5   8.2   96   82                       ke EHB       11231281
2003/12/10 17:17:40.90   6.38 1.800  30.0870   83.0870  27.9  17.9  -1  10.0f             23 198                      NDI        6593816
2003/12/10 17:17:37.76   0.24 1.136  30.5872   83.2961 4.403 3.331 123  33.0f        96   88  25   2.27  86.14 m i ke ISC        6873355
 (#PRIME)

Magnitude  Err Nsta Author      OrigID
mb     4.1          BJI        5634657
mB     4.6          BJI        5634657
Ms     3.8          BJI        5634657
Msz    3.8          BJI        5634657
mb     4.2 0.1   12 IDC        6108902
mb1    4.4 0.1   13 IDC        6108902
mb1mx  4.3 0.1   19 IDC        6108902
ML     3.9 0.3    1 IDC        6108902
MS     3.6 0.1    2 IDC        6108902
Ms1    3.7 0.1    2 IDC        6108902
ms1mx  3.0 0.1   28 IDC        6108902
Ml     4.5 0.2    4 DMN        5577350
mb     4.5        7 NEIC       6862971
mb     4.6       10 MOS        6836210
MD     4.4          NDI        6593816
ML     4.1          NDI        6593816
mb     4.5          NEIC       6593816
mb     4.3       25 ISC        6873355
MS     3.5        5 ISC        6873355

Event  7205381 Western Xizang-India border region
   Date       Time        Err   RMS Latitude Longitude  Smaj  Smin  Az Depth   Err Ndef Nsta Gap  mdist  Mdist Qual   Author      OrigID
2003/12/11 14:44:09.00   3.59 1.100  30.6350   80.4650  12.3  14.5  -1  10.0f             17 231                      NDI        6593822
2003/12/11 14:44:11.88  17.23 0.300  30.6713   78.8264 334.0  88.2 129   0.0f         4      319  16.32  48.99     uk IDC        6108959
2003/12/11 14:44:06.87   1.59 1.442  30.4414   80.5079 10.17 8.185 130   3.9  9.04   26   18 162   0.83  49.75 m i    ISC        6873451
 (#PRIME)

Magnitude  Err Nsta Author      OrigID
ML     3.2          NDI        6593822
mb     3.9 0.4    3 IDC        6108959
mb1    3.9 0.3    4 IDC        6108959
mb1mx  3.6 0.2   18 IDC        6108959
ML     3.7 0.3    1 IDC        6108959
mb     3.9        3 ISC        6873451

Event  7205888 Western Xizang-India border region
   Date       Time        Err   RMS Latitude Longitude  Smaj  Smin  Az Depth   Err Ndef Nsta Gap  mdist  Mdist Qual   Author      OrigID
2003/12/12 01:02:40.00   5.72 1.500  31.2970   80.0860  24.7  36.0  -1  14.5  15.7        17 235                      NDI        6593824
2003/12/12 01:02:48.90   1.88 0.530  30.6546   79.4668  93.1  26.8  58   0.0f         5      201  16.26  72.87     uk IDC        6108993
2003/12/12 01:03:02.57   7.84 0.560  31.5141   78.8726  79.8  38.3  18  16.8  86.5    6      323  13.35  22.94     uk NNC        6231926
 (#PARAM ENERGY_CLASS=9.66)
2003/12/12 01:02:49.67   0.50 1.778  30.7840   79.3492 7.708 4.701 125  14.5f        32   24 119   0.29  73.03 m i    ISC        6873501
 (#PRIME)

Magnitude  Err Nsta Author      OrigID
MD     3.3          NDI        6593824
ML     3.7          NDI        6593824
mb     4.1 0.3    4 IDC        6108993
mb1    4.2 0.2    5 IDC        6108993
mb1mx  3.8 0.2   15 IDC        6108993
ML     4.0 0.3    1 IDC        6108993
mb     4.1        5 ISC        6873501

Event  7208741 Western Xizang-India border region
   Date       Time        Err   RMS Latitude Longitude  Smaj  Smin  Az Depth   Err Ndef Nsta Gap  mdist  Mdist Qual   Author      OrigID
2003/12/14 17:11:59.82   1.21 0.880  30.5748   80.5167  61.7  17.9  59   0.0f         9      195  16.25  86.49     uk IDC        6109137
2003/12/14 17:12:02.40   1.31        30.6540   80.4050  72.9  17.9  93  33.0          7                               MOS        6835667
2003/12/14 17:12:02.70   6.67 1.900  30.5610   80.5600  18.6  36.3  -1  33.0f             19 259                      NDI        6593845
2003/12/14 17:12:02.87   0.60 1.100  30.6290   80.4990  26.8  10.3  80  33.0f        12      138  13.27  86.41     se NEIC       6863342
2003/12/14 17:12:03.91   0.51 1.325  30.7750   80.7132 8.949 6.330  77  33.0f        36   29 107   1.02  86.25 m i se ISC        6873733
 (#PRIME)

Magnitude  Err Nsta Author      OrigID
mb     3.8 0.2    7 IDC        6109137
mb1    4.0 0.1    8 IDC        6109137
mb1mx  3.9 0.1   15 IDC        6109137
ML     3.9 0.3    1 IDC        6109137
mb     4.0        5 MOS        6835667
MD     3.4          NDI        6593845
ML     3.4          NDI        6593845
mb     3.8        7 ISC        6873733

Event  7209898 Western Xizang-India border region
   Date       Time        Err   RMS Latitude Longitude  Smaj  Smin  Az Depth   Err Ndef Nsta Gap  mdist  Mdist Qual   Author      OrigID
2003/12/15 22:54:18.10   0.96 0.610  31.7205   78.3481  51.0  17.5  51   0.0f        10      175  15.36  85.56     uk IDC        6109211
2003/12/15 22:54:19.40   1.35        31.5160   78.3480  26.5   8.7 104  33.0         19                               MOS        6835682
2003/12/15 22:54:19.51        0.940  31.6670   78.1220   7.3   4.5  46   7.2  11.7   75   63                       ke EHB       11231343
2003/12/15 22:54:20.32   0.61 1.350  31.6220   78.2030  21.4  11.3  71  33.0f        20      126  14.15  85.65     se NEIC       6863428
2003/12/15 22:54:20.90   7.01 1.900  31.6570   78.1910  28.3  29.2  -1  33.0f             20 198                      NDI        6593851
2003/12/15 22:54:24.60        1.900  32.0400   78.5000                  23.0              16                          BJI        5634735
2003/12/15 22:54:30.72  10.76 0.510  32.5305   77.8263  96.3  59.3 173  19.6   118    7       95  12.04  21.76     uk NNC        6232053
 (#PARAM ENERGY_CLASS=10.01)
2003/12/15 22:54:21.00   0.49 1.335  31.5948   78.1420 7.900 3.772  64  37.3  7.54   85   68  51   1.00  85.68 m i se ISC        6873830
 (#PRIME)

Magnitude  Err Nsta Author      OrigID
mb     4.1 0.1    8 IDC        6109211
mb1    4.4 0.1    9 IDC        6109211
mb1mx  4.2 0.1   15 IDC        6109211
ML     3.7 0.3    1 IDC        6109211
mb     4.7        2 MOS        6835682
mb     4.5        2 NEIC       6863428
MD     4.4          NDI        6593851
ML     4.0          NDI        6593851
mb     4.5          NEIC       6593851
mb     4.3          BJI        5634735
ML     4.1          BJI        5634735
mb     4.2       12 ISC        6873830

Event  7209938 Western Xizang-India border region
   Date       Time        Err   RMS Latitude Longitude  Smaj  Smin  Az Depth   Err Ndef Nsta Gap  mdist  Mdist Qual   Author      OrigID
2003/12/15 23:51:12.55   2.06 0.750  31.6407   78.5334  98.3  27.7  60   0.0f         4      201  15.41  74.10     uk IDC        6109213
2003/12/15 23:51:29.00   3.04 0.900  30.3070   78.0110  11.8  11.2  -1  19.9   9.8        10 105                      NDI        6593854
2003/12/15 23:51:10.77   0.81 1.401  31.4864   78.4323 10.34 8.800  54  10.0f        16   14 115   1.14  74.08 m i    ISC        6900463
 (#PRIME)

Magnitude  Err Nsta Author      OrigID
mb     3.7 0.3    2 IDC        6109213
mb1    3.7 0.3    3 IDC        6109213
mb1mx  3.4 0.2   12 IDC        6109213
ML     2.7 0.3    1 IDC        6109213
MD     3.1          NDI        6593854
mb     3.6        2 ISC        6900463

Event  7209940 Western Xizang-India border region
   Date       Time        Err   RMS Latitude Longitude  Smaj  Smin  Az Depth   Err Ndef Nsta Gap  mdist  Mdist Qual   Author      OrigID
2003/12/15 23:51:51.75   1.88 0.370  31.5052   78.1860  82.3  25.7  58   0.0f         6      202  15.59  77.82     uk IDC        6109214
2003/12/15 23:51:52.72   0.69 0.767  31.6485   78.2854 10.38 9.541 146  10.0f        10   10 107   1.13  77.64 m i    ISC        6873833
 (#PRIME)

Magnitude  Err Nsta Author      OrigID
mb     3.9 0.1    4 IDC        6109214
mb1    4.0 0.1    5 IDC        6109214
mb1mx  3.8 0.1   13 IDC        6109214
ML     3.4 0.3    1 IDC        6109214
mb     3.9        4 ISC        6873833

Event  7209942 Western Xizang-India border region
   Date       Time        Err   RMS Latitude Longitude  Smaj  Smin  Az Depth   Err Ndef Nsta Gap  mdist  Mdist Qual   Author      OrigID
2003/12/15 23:56:05.67   1.30 0.550  31.7189   78.4187  75.3  18.8  56   0.0f         8      196  15.35  85.56     uk IDC        6109215
2003/12/15 23:56:07.70   1.03        31.5010   78.1240  25.9  12.1 103  33.0         13                               MOS        6835684
2003/12/15 23:56:07.98   0.56 1.080  31.5270   78.1510  17.9   9.5  63  33.0f        15      147  11.35  85.75     se NEIC       6863433
2003/12/15 23:56:08.30   7.10 2.200  31.3090   78.1840  21.8  20.2  -1  10.0f             14 219                      NDI        6593855
2003/12/15 23:56:07.16   1.27 1.152  31.5558   78.1212 9.240 3.765  57  24.3  11.0   59   44  77   0.92  85.72 m i se ISC        6873834
 (#PRIME)

Magnitude  Err Nsta Author      OrigID
mb     4.1 0.1    6 IDC        6109215
mb1    4.3 0.1    7 IDC        6109215
mb1mx  4.1 0.1   14 IDC        6109215
ML     3.4 0.3    1 IDC        6109215
mb     5.2        2 MOS        6835684
mb     4.4        1 NEIC       6863433
ML     3.6          NDI        6593855
mb     4.4          NEIC       6593855
mb     4.3        7 ISC        6873834

Event  7213917 Western Xizang-India border region
   Date       Time        Err   RMS Latitude Longitude  Smaj  Smin  Az Depth   Err Ndef Nsta Gap  mdist  Mdist Qual   Author      OrigID
2003/12/21 04:16:31.90   4.51 1.300  31.8200   78.0630  25.2  16.6  -1  38.7  21.4         8 202                      NDI        6593886
2003/12/21 04:16:33.84   1.08 1.560  31.5495   78.0280 13.65 5.922  45  33.0f        13    9 186   0.85   3.15 m i    ISC        6914221
 (#PRIME)

Magnitude  Err Nsta Author      OrigID
MD     3.1          NDI        6593886
ML     3.5          NDI        6593886

Event  7215758 Xizang
   Date       Time        Err   RMS Latitude Longitude  Smaj  Smin  Az Depth   Err Ndef Nsta Gap  mdist  Mdist Qual   Author      OrigID
2003/12/23 15:43:02.44   0.95 0.790  31.2112   89.4068  49.6  19.7  56   0.0f        10      134  16.50 150.51     uk IDC        6109678
2003/12/23 15:43:05.90        2.800  31.3800   89.6900                  20.0              12                          BJI        5634848
2003/12/23 15:43:06.00   1.14        31.2500   89.1020  28.2  14.1 104  33.0         11                               MOS        6853573
2003/12/23 15:43:06.50   0.68 0.930  31.3970   89.4780  20.6   9.3  53  33.0f        13      172   2.22 108.47     se NEIC       6864056
2003/12/23 15:43:00.40   1.52 1.274  31.1638   89.2096 11.50 7.184  99   1.7  10.6   26   25  70   2.22  84.72 m i se ISC        6874494
 (#PRIME)

Magnitude  Err Nsta Author      OrigID
mb     3.7 0.1    8 IDC        6109678
mb1    3.9 0.1    9 IDC        6109678
mb1mx  3.9 0.1   15 IDC        6109678
mb     4.0          BJI        5634848
ML     4.4          BJI        5634848
mb     4.4        1 MOS        6853573
mb     4.0        2 NEIC       6864056
mb     3.7        9 ISC        6874494

Event  7218889 Sikkim
   Date       Time        Err   RMS Latitude Longitude  Smaj  Smin  Az Depth   Err Ndef Nsta Gap  mdist  Mdist Qual   Author      OrigID
2003/12/27 14:12:06.07   1.10 0.610  27.4036   88.3798  92.1  17.9  54   0.0f         8      178  19.94  67.15     uk IDC        6110073
2003/12/27 14:12:08.90        4.800  27.3000   88.1000                  33.0               5                          BJI        5634932
2003/12/27 14:12:08.91   0.63 0.990  27.2680   88.1030  15.2  12.1 108  33.0f        10       89   3.61  67.23     se NEIC       6864516
2003/12/27 14:12:09.20   2.70 0.900  27.1260   88.3390  14.3  10.4  -1  10.0f              5 179                      NDI        6593925
2003/12/27 14:12:12.16   0.86 1.029  27.2828   88.1136 10.94   7.3  99  66.5  10.9   24   19  68   2.10  67.23 m i se ISC        6875039
 (#PRIME)

Magnitude  Err Nsta Author      OrigID
mb     3.8 0.1    7 IDC        6110073
mb1    4.0 0.1    8 IDC        6110073
mb1mx  3.9 0.1   14 IDC        6110073
ML     4.1 0.3    1 IDC        6110073
ML     3.6          BJI        5634932
MD     3.1          NDI        6593925
mb     3.8        7 ISC        6875039

Event  7444333 Xizang
   Date       Time        Err   RMS Latitude Longitude  Smaj  Smin  Az Depth   Err Ndef Nsta Gap  mdist  Mdist Qual   Author      OrigID
2004/12/01 07:23:55.52   3.92 0.040  32.9974   90.5300 142.0  35.0  89   0.0f         3      244  19.06  72.81     uk IDC        6528595

Magnitude  Err Nsta Author      OrigID
mb     3.8 0.0    2 IDC        6528595
mb1    3.9 0.2    3 IDC        6528595
mb1mx  3.5 0.2   16 IDC        6528595
ML     4.4 0.3    1 IDC        6528595

Event  7445145 Xizang
   Date       Time        Err   RMS Latitude Longitude  Smaj  Smin  Az Depth   Err Ndef Nsta Gap  mdist  Mdist Qual   Author      OrigID
2004/12/02 23:45:50.03   0.89 0.900  30.6095   83.5085  32.4  16.3  48   0.0f        11      165  18.51  77.18     uk IDC        6528836
2004/12/02 23:45:55.20   1.33 1.280  30.6070   83.3730  20.8   9.4  70  40.7  15.0   19       97  13.60  77.65     se NEIC       7254322
2004/12/02 23:45:55.90   2.84 1.200  30.0580   83.4700  48.3   9.9  -1  10.0f              5 204                      NDI        7322490
2004/12/02 23:45:49.44   0.44 1.374  30.5614   83.4839 7.372   6.0 140  10.0f        31   29  82   3.01  77.67 m i se ISC        7896970
 (#PRIME)

Magnitude  Err Nsta Author      OrigID
mb     3.7 0.1   10 IDC        6528836
mb1    3.9 0.1   11 IDC        6528836
mb1mx  3.8 0.1   20 IDC        6528836
ML     3.5 0.3    1 IDC        6528836
MS     3.4 0.1    2 IDC        6528836
Ms1    3.4 0.2    2 IDC        6528836
ms1mx  3.0 0.1   22 IDC        6528836
mb     4.2        4 NEIC       7254322
mb     4.2          NEIC       7322490
mb     3.8       13 ISC        7896970
MS     3.3        2 ISC        7896970

Event  7445970 Xizang
   Date       Time        Err   RMS Latitude Longitude  Smaj  Smin  Az Depth   Err Ndef Nsta Gap  mdist  Mdist Qual   Author      OrigID
2004/12/05 13:04:33.60   0.72 0.400  30.7157   81.2987  31.1  13.8  41  10.0   0.0   12    6 339   3.56   4.88     ke DMN        6333960
2004/12/05 13:04:36.70        2.300  30.6500   81.2300                  10.0               7                          BJI        6621287
2004/12/05 13:04:38.08   0.46 1.030  30.4810   81.2400  14.4   7.3  63  10.0f        26      106  12.91  86.48     se NEIC       7254756
2004/12/05 13:04:39.50   0.80        30.4300   81.3660  28.9  14.4 115  33.0         13                               MOS        7155445
2004/12/05 13:04:39.60        1.500  30.5800   81.4550                  10.0f             23                          NDI        7322502
2004/12/05 13:04:40.67        0.760  30.5830   81.3670   6.1   4.2  41  20.7  11.8   70   63                       ke EHB       11237094
2004/12/05 13:04:44.97   6.34 0.650  30.5235   81.3944  30.0  13.4  45  61.6  58.4   15      165  19.95  86.45     uk IDC        6529354
2004/12/05 13:04:38.00   0.26 1.368  30.7338   81.3871 4.356 3.022  79  10.0f        92   77  52   1.56  86.21 m i ke ISC        7897290
 (#PRIME)

Magnitude  Err Nsta Author      OrigID
Ml     4.6 0.1    6 DMN        6333960
mb     3.9          BJI        6621287
mb     4.2        6 NEIC       7254756
mb     4.3       10 MOS        7155445
MD     3.7          NDI        7322502
ML     3.8          NDI        7322502
mb     4.2          NEIC       7322502
mb     3.8 0.1   14 IDC        6529354
mb1    4.0 0.0   15 IDC        6529354
mb1mx  3.8 0.1   22 IDC        6529354
ML     4.1 0.3    1 IDC        6529354
mb     4.0       20 ISC        7897290

Event  7446822 Xizang
   Date       Time        Err   RMS Latitude Longitude  Smaj  Smin  Az Depth   Err Ndef Nsta Gap  mdist  Mdist Qual   Author      OrigID
2004/12/08 21:55:05.42   1.13 0.720  32.4000   90.6947  36.9  22.4  54   0.0f         8      146  15.75  83.29     uk IDC        6530060
2004/12/08 21:55:06.40        2.100  32.7100   90.6000                  15.0              11                          BJI        6621332
2004/12/08 21:55:07.93   4.18 0.880  32.4750   90.6340  13.7   7.4 217  14.6  28.9   17      146  15.80  83.21     se NEIC       7255144
2004/12/08 21:55:08.79   0.41 1.017  32.5551   90.7054 7.563 5.493  64  33.0f        29   27  61   2.87  83.12 m i se ISC        7897587
 (#PRIME)

Magnitude  Err Nsta Author      OrigID
mb     3.6 0.1    6 IDC        6530060
mb1    3.8 0.1    8 IDC        6530060
mb1mx  3.7 0.1   20 IDC        6530060
ML     3.9 0.0    2 IDC        6530060
MS     3.4 0.1    3 IDC        6530060
Ms1    3.4 0.0    3 IDC        6530060
ms1mx  3.1 0.2   22 IDC        6530060
mb     3.4          BJI        6621332
ML     3.9          BJI        6621332
Ms     4.0          BJI        6621332
Msz    3.4          BJI        6621332
mb     3.6        9 NEIC       7255144
mb     3.7        8 ISC        7897587
MS     3.4        2 ISC        7897587

Event  8328509 Xizang
   Date       Time        Err   RMS Latitude Longitude  Smaj  Smin  Az Depth   Err Ndef Nsta Gap  mdist  Mdist Qual   Author      OrigID
2004/12/14 22:15:55.50   1.55 0.600  31.4520   84.2860  14.3   8.5  -1  10.0f              5 230                      NDI        7322562

Magnitude  Err Nsta Author      OrigID
mb     4.3          NDI        7322562

Event  8328601 Xizang
   Date       Time        Err   RMS Latitude Longitude  Smaj  Smin  Az Depth   Err Ndef Nsta Gap  mdist  Mdist Qual   Author      OrigID
2004/12/18 20:50:58.10   3.23 1.300  32.5320   84.4780  50.8  20.2  -1  10.0f              5 245                      NDI        7322589
2004/12/18 20:51:06.55   1.93 0.240  30.6144   83.6157  57.9  25.7  62   0.0f         5      198  18.44  70.02     uk IDC        6531133
2004/12/18 20:51:07.18   0.70 1.459  30.6319   83.8500 15.75 9.310  18  10.0f        11   10 120   3.33  69.88 m i    ISC        8018705
 (#PRIME)

Magnitude  Err Nsta Author      OrigID
MD     3.7          NDI        7322589
mb     3.6 0.1    4 IDC        6531133
mb1    3.7 0.1    5 IDC        6531133
mb1mx  3.5 0.1   19 IDC        6531133
ML     3.3 0.3    1 IDC        6531133
mb     3.5        4 ISC        8018705

Event  8328777 Nepal-India border region
   Date       Time        Err   RMS Latitude Longitude  Smaj  Smin  Az Depth   Err Ndef Nsta Gap  mdist  Mdist Qual   Author      OrigID
2004/12/26 05:11:43.80   3.24 1.200  29.6840   80.7210  39.3  36.7  -1  10.0f              4 318                      NDI        7322696

Magnitude  Err Nsta Author      OrigID
ML     4.4          NDI        7322696

Event  8329174 Nepal-India border region
   Date       Time        Err   RMS Latitude Longitude  Smaj  Smin  Az Depth   Err Ndef Nsta Gap  mdist  Mdist Qual   Author      OrigID
2004/12/30 12:49:00.50   2.42 0.600  29.5620   80.6600  19.0  19.5  -1   6.3   8.8        11 297                      NDI        7323049

Magnitude  Err Nsta Author      OrigID
ML     3.5          NDI        7323049

