Event  3625191 Northern India
   Date       Time        Err   RMS Latitude Longitude  Smaj  Smin  Az Depth   Err Ndef Nsta Gap  mdist  Mdist Qual   Author      OrigID
2001/03/01 03:16:18.90   6.88 2.300  30.1040   78.2250  23.4  39.0  -1  33.0f              6 150                      NDI        4494909

Magnitude  Err Nsta Author      OrigID
MD     3.5          NDI        4494909

Event  3625267 Western Xizang-India border region
   Date       Time        Err   RMS Latitude Longitude  Smaj  Smin  Az Depth   Err Ndef Nsta Gap  mdist  Mdist Qual   Author      OrigID
2001/03/05 19:28:07.20   4.48 1.600  30.1460   79.1130  18.2  13.8  -1   4.5  15.9         7 171                      NDI        4494982
2001/03/05 19:28:06.71   0.65 1.296  30.0870   79.1210   8.2 4.994   0   4.5f        13    7 169   0.95   3.74 m i    ISC        4581612
 (#PRIME)

Magnitude  Err Nsta Author      OrigID
MD     3.1          NDI        4494982

Event  3625278 Southern India
   Date       Time        Err   RMS Latitude Longitude  Smaj  Smin  Az Depth   Err Ndef Nsta Gap  mdist  Mdist Qual   Author      OrigID
2001/03/06 08:34:57.60   2.04 0.800  23.3710   80.3180   9.4  23.0  -1   0.0  45.4         5 112                      NDI        4494993

Event  3271583 Xizang
   Date       Time        Err   RMS Latitude Longitude  Smaj  Smin  Az Depth   Err Ndef Nsta Gap  mdist  Mdist Qual   Author      OrigID
2001/03/07 03:45:49.14   0.87 1.150  31.2972   84.5898  51.4  19.0  46   0.0f         7      153  18.22  72.22     uk IDC        4229784
2001/03/07 03:45:52.28   0.77 1.166  31.3050   84.5630 25.32 23.64  90  33.0f         9    9 128  12.74  85.27 m i    ISC        4581771
 (#PRIME)

Magnitude  Err Nsta Author      OrigID
mb     3.9 0.2    6 IDC        4229784
ML     4.3 0.0    1 IDC        4229784
MS     3.2 0.0    1 IDC        4229784
mb     3.9        7 ISC        4581771

Event  3625319 Northern India
   Date       Time        Err   RMS Latitude Longitude  Smaj  Smin  Az Depth   Err Ndef Nsta Gap  mdist  Mdist Qual   Author      OrigID
2001/03/08 02:59:59.60   4.94 1.700  25.5640   80.0080  41.4  90.7  -1   8.0  80.6         4 178                      NDI        4495018

Event  2043381 Western Xizang-India border region
   Date       Time        Err   RMS Latitude Longitude  Smaj  Smin  Az Depth   Err Ndef Nsta Gap  mdist  Mdist Qual   Author      OrigID
2001/03/12 11:34:15.16   0.70 0.730  30.4390   79.0872  25.6  16.4  51   0.0f        13      108  21.62 153.38     uk IDC        4230109
2001/03/12 11:34:16.80        2.600  30.5200   79.0300                  28.0              15                          BJI        4010546
2001/03/12 11:34:17.72   0.18        30.5712   79.1226 3.609 2.131  29  12.5f        61   50                       ke IASPEI     9092671
 (Chamoli, India)
 (GT5 produced by HDC-RCA methodology)
 (Bondr, I., E. Bergman, E.R. Engdahl, B. Kohl, Y-L. Kung, and K. McLaughlin,  A hybrid multiple event location technique to obtain ground)
 ( truth event locations,  Geophys. J. Int., 175, 185-201, doi: 10.1111/j.1365-246X.2008.03867.x, 2008.)
2001/03/12 11:34:18.01   0.43 1.120  30.4060   79.0220  11.7   9.1  37  33.0f        25       77  12.94  86.78     se NEIC       4052619
2001/03/12 11:34:22.09        0.800  30.5380   79.1600   6.4   4.1  21  45.5   5.7   79   65                       ke EHB       11212279
2001/03/12 11:34:22.50   5.10 1.700  30.4500   79.1080   9.1  10.8  -1  33.0f             29 159                      NDI        4495083
2001/03/12 11:34:19.27   0.24 1.421  30.5170   79.2310   3.1 2.104   0  33.0f        87   70  29   1.03 153.52 m i    ISC        4582313
 (#PRIME)

Year Volume Page1 Page2 Journal
2008    175   185   201 Geophys. J. Int.
 (#AUTHOR Bondr,I. , Bergman,E. , Engdahl,E.R. , Kohl,B. , Kung,Y.-L. , McLaughlin,K.    )
 (#TITLE  A hybrid multiple event location technique to obtain ground truth event          )
 (+       locations                                                                        )

Magnitude  Err Nsta Author      OrigID
mb     3.8 0.1   12 IDC        4230109
MS     3.4 0.1    3 IDC        4230109
mb     4.4          BJI        4010546
mB     4.9          BJI        4010546
ML     4.2          BJI        4010546
Ms     4.0          BJI        4010546
Msz    3.7          BJI        4010546
mb     3.5          IASPEI     9092671
ms     4.1          IASPEI     9092671
mb     4.5       11 NEIC       4052619
MD     4.1          NDI        4495083
ML     4.1          NDI        4495083
mb     4.5          NEIC       4495083
mb     4.1       20 ISC        4582313
MS     3.5        2 ISC        4582313

Event  3625410 Nepal-India border region
   Date       Time        Err   RMS Latitude Longitude  Smaj  Smin  Az Depth   Err Ndef Nsta Gap  mdist  Mdist Qual   Author      OrigID
2001/03/12 22:53:36.90   4.56 1.900  29.6580   80.4660  45.1  82.5  -1  33.0f              3 305                      NDI        4495087

Magnitude  Err Nsta Author      OrigID
MD     3.2          NDI        4495087

Event  3272146 Nepal
   Date       Time        Err   RMS Latitude Longitude  Smaj  Smin  Az Depth   Err Ndef Nsta Gap  mdist  Mdist Qual   Author      OrigID
2001/03/13 16:11:09.64   0.99 0.070  28.5576   83.1959  56.0  23.4  44   0.0f         5      150  49.72  71.28     uk IDC        4230190
2001/03/13 16:11:13.32   0.96 1.433  28.8870   83.6470 25.09 10.98   0  33.0f         9    7 150   3.03  71.20 m i    ISC        4582451
 (#PRIME)

Magnitude  Err Nsta Author      OrigID
mb     3.7 0.3    5 IDC        4230190
mb     3.7        5 ISC        4582451

Event  3625464 Western Xizang-India border region
   Date       Time        Err   RMS Latitude Longitude  Smaj  Smin  Az Depth   Err Ndef Nsta Gap  mdist  Mdist Qual   Author      OrigID
2001/03/16 04:38:54.90   2.00 1.400  30.6580   80.8560   9.3  26.2  -1  33.0f              5 275                      NDI        4495137

Magnitude  Err Nsta Author      OrigID
MD     3.1          NDI        4495137

Event  3272591 Xizang
   Date       Time        Err   RMS Latitude Longitude  Smaj  Smin  Az Depth   Err Ndef Nsta Gap  mdist  Mdist Qual   Author      OrigID
2001/03/18 02:28:57.46   2.39 0.110  33.5419   86.9860 125.0  34.6  56   0.0f         3      184  18.45  82.73     uk IDC        4230536
2001/03/18 02:28:58.29   1.09 1.507  32.6950   85.6930 17.66 10.43  90  33.0f         8    9 127   4.64  83.75 m i    ISC        4583011
 (#PRIME)

Magnitude  Err Nsta Author      OrigID
mb     3.6 0.4    2 IDC        4230536
ML     4.2 0.0    1 IDC        4230536
MS     3.0 0.0    1 IDC        4230536
mb     3.7        2 ISC        4583011

Event  2044112 Xizang
   Date       Time        Err   RMS Latitude Longitude  Smaj  Smin  Az Depth   Err Ndef Nsta Gap  mdist  Mdist Qual   Author      OrigID
2001/03/23 22:16:02.49   0.84 0.770  32.5549   89.1210  29.5  18.9  46   0.0f        12      118  16.59 150.21     uk IDC        4230885
2001/03/23 22:16:07.10        1.800  32.6500   89.1000                  63.0              30                          BJI        4010708
2001/03/23 22:16:08.47   2.06 1.220  32.4650   89.1630  16.7  10.2  46  63.0  21.2   21      119  13.96  90.63     se NEIC       4053354
2001/03/23 22:16:05.94   2.07 1.032  32.5950   89.1060 4.769   5.7  90  32.8  17.8   47   48  34   3.38 150.20 m i    ISC        4583641
 (#PRIME)

Magnitude  Err Nsta Author      OrigID
mb     3.8 0.0    9 IDC        4230885
ML     3.4 0.0    1 IDC        4230885
mb     4.3          BJI        4010708
ML     4.2          BJI        4010708
Ms     4.5          BJI        4010708
Msz    4.1          BJI        4010708
mb     4.1        7 NEIC       4053354
mb     4.0       15 ISC        4583641
MS     4.1        1 ISC        4583641

Event  2939199 Xizang
   Date       Time        Err   RMS Latitude Longitude  Smaj  Smin  Az Depth   Err Ndef Nsta Gap  mdist  Mdist Qual   Author      OrigID
2001/03/25 07:56:08.94   0.73 1.390  31.4490   85.5650  24.3  10.7  47  33.0f        16      129  13.92  84.99     se NEIC       4053439
2001/03/25 07:56:09.80        2.700  30.9900   85.5900                  33.0               5                          BJI        4010722
2001/03/25 07:56:10.20   5.91 1.600  31.7100   85.7190  37.9  23.9  -1  33.0f             10 223                      NDI        4495247
2001/03/25 07:56:12.20   5.83 0.410  31.6464   85.8493  33.2  18.1  56  44.3  56.2    9      127  17.67  84.75     uk IDC        4230955
2001/03/25 07:56:09.09   1.35 1.305  31.4080   85.5710   8.1 6.347   0  35.0  16.0   27   25  74   4.99  85.03 m i    ISC        4583828
 (#PRIME)

Magnitude  Err Nsta Author      OrigID
mb     3.9        5 NEIC       4053439
mb     4.4          BJI        4010722
Ms     4.1          BJI        4010722
MD     3.9          NDI        4495247
ML     3.9          NDI        4495247
mb     3.9          NEIC       4495247
mb     3.4 0.1    7 IDC        4230955
ML     3.9 0.0    1 IDC        4230955
MS     3.0 0.2    2 IDC        4230955
mb     3.7       10 ISC        4583828
MS     2.9        1 ISC        4583828

Event  3273266 Xizang
   Date       Time        Err   RMS Latitude Longitude  Smaj  Smin  Az Depth   Err Ndef Nsta Gap  mdist  Mdist Qual   Author      OrigID
2001/03/26 12:37:57.54   5.08 0.380  30.6487   84.3036 356.0 103.3  37   0.0f         3      356  17.99  71.96     uk IDC        4231016

Magnitude  Err Nsta Author      OrigID
mb     3.4 0.0    2 IDC        4231016
ML     3.9 0.0    1 IDC        4231016

Event  1839454 Xizang
   Date       Time        Err   RMS Latitude Longitude  Smaj  Smin  Az Depth   Err Ndef Nsta Gap  mdist  Mdist Qual   Author      OrigID
2001/03/26 13:00:31.80        2.400  31.3300   85.4600                  22.0              22                          BJI        4010736
2001/03/26 13:00:34.67   0.44 1.120  31.3760   85.5260  10.9   8.5  44  33.0f        26       72  13.97  85.07     se NEIC       4053523
2001/03/26 13:00:34.80        0.960  31.4020   85.5650   7.3   6.1 171  15.6         62   53                       ke EHB       11212452
2001/03/26 13:00:35.00   1.60        31.3400   85.5600  13.8   9.8 170  33.0         23                               MOS        3093034
2001/03/26 13:00:37.70   4.06 1.200  31.4280   85.5730  21.1  19.5  -1  33.0f             13 215                      NDI        4495257
2001/03/26 13:00:40.79   7.98 1.030  31.3760   85.5880  21.8  14.6  38  67.8  73.4   15      129  17.65  85.06     uk IDC        4231017
2001/03/26 13:00:34.91   0.27 1.072  31.3760   85.5290 3.412   4.0  90  33.0f        61   55  42   5.13  85.07 m i    ISC        4583973
 (#PRIME)

Magnitude  Err Nsta Author      OrigID
mb     4.5          BJI        4010736
Ms     4.4          BJI        4010736
Msz    4.1          BJI        4010736
mb     4.3        8 NEIC       4053523
mb     4.2        6 MOS        3093034
ML     4.2          NDI        4495257
mb     4.3          NEIC       4495257
mb     3.8 0.1   14 IDC        4231017
ML     4.4 0.0    1 IDC        4231017
MS     3.6 0.1    6 IDC        4231017
mb     4.1       21 ISC        4583973
MS     3.9        7 ISC        4583973

Event  2939370 Xizang
   Date       Time        Err   RMS Latitude Longitude  Smaj  Smin  Az Depth   Err Ndef Nsta Gap  mdist  Mdist Qual   Author      OrigID
2001/03/28 05:20:39.34   0.83 0.540  32.0336   89.0834  33.9  18.8  56   0.0f        11      127  22.11  83.89     uk IDC        4231089
2001/03/28 05:20:42.90        2.500  32.4500   89.4000                  24.0              19                          BJI        4010749
2001/03/28 05:20:42.96   0.54 1.180  32.2730   89.2440  16.7  11.4  75  33.0f        14       98  16.30  83.63     se NEIC       4053597
2001/03/28 05:20:38.51   2.50 1.329  32.2730   89.2140 6.757   7.0  90   2.1  16.8   25   25  55   3.06 108.02 m i    ISC        4584132
 (#PRIME)

Magnitude  Err Nsta Author      OrigID
mb     4.0 0.1   11 IDC        4231089
MS     3.0 0.3    2 IDC        4231089
mb     4.4          BJI        4010749
ML     3.7          BJI        4010749
Ms     4.3          BJI        4010749
Msz    4.2          BJI        4010749
mb     4.2        2 NEIC       4053597
mb     4.1       11 ISC        4584132
MS     3.3        1 ISC        4584132

Event  3625675 Western Xizang-India border region
   Date       Time        Err   RMS Latitude Longitude  Smaj  Smin  Az Depth   Err Ndef Nsta Gap  mdist  Mdist Qual   Author      OrigID
2001/03/28 13:16:28.70   1.63 0.700  31.6600   79.9950  14.6  17.7  -1  33.0f              4 270                      NDI        4495281
2001/03/28 13:16:34.17   2.38 2.041  31.7440   79.5520 16.21 11.04   0  33.0f         8    4 260   1.91   2.36 m i    ISC        4584170
 (#PRIME)

Magnitude  Err Nsta Author      OrigID
MD     3.0          NDI        4495281

Event  1835955 Nepal
   Date       Time        Err   RMS Latitude Longitude  Smaj  Smin  Az Depth   Err Ndef Nsta Gap  mdist  Mdist Qual   Author      OrigID
2001/04/03 23:08:33.00        2.000  27.6700   85.9700                  24.0              19                          BJI        4010852
2001/04/03 23:08:35.60   0.90        27.6960   86.1810  15.7   9.5  26  33.0         26                               MOS        3101659
2001/04/03 23:08:35.92   0.24 0.990  27.8010   86.1270   6.9   4.6  25  33.0f        68       62   0.68  88.50     se NEIC       4054043
2001/04/03 23:08:36.22        0.760  27.7610   86.0660   5.1   3.8  17  20.8   2.7  125  106                       ke EHB       11212557
2001/04/03 23:08:36.58   0.55 0.420  27.7287   86.0704  19.4  13.4  37  23.7   3.3   20      131  33.60  88.58     uk IDC        4231650
2001/04/03 23:08:38.00   7.18 2.200  27.7390   86.1300  16.8  17.2  -1  33.0f             30 169                      NDI        4532346
2001/04/03 23:08:34.60   1.06 1.160  27.7840   85.9710   4.1 2.946   0  21.8   8.5  125  113  32   0.54  88.54 m i    ISC        4610678
 (#PRIME)
 (#PARAM pP_DEPTH=27+2)

Magnitude  Err Nsta Author      OrigID
mb     4.2          BJI        4010852
ML     3.7          BJI        4010852
Ms     4.3          BJI        4010852
Msz    3.8          BJI        4010852
mb     4.7       15 MOS        3101659
mb     4.6       21 NEIC       4054043
mb     4.2 0.1   14 IDC        4231650
MS     3.3 0.4    2 IDC        4231650
ML     4.6          NDI        4532346
mb     4.6          NEIC       4532346
mb     4.5       33 ISC        4610678

Event  3274656 Northern India
   Date       Time        Err   RMS Latitude Longitude  Smaj  Smin  Az Depth   Err Ndef Nsta Gap  mdist  Mdist Qual   Author      OrigID
2001/04/08 05:28:57.13  23.85 0.520  31.2703   77.7993 423.0  74.4 153   0.0f         4      317  23.21  48.11     uk IDC        4231990

Magnitude  Err Nsta Author      OrigID
mb     4.1 0.3    4 IDC        4231990

Event  3018532 Sikkim
   Date       Time        Err   RMS Latitude Longitude  Smaj  Smin  Az Depth   Err Ndef Nsta Gap  mdist  Mdist Qual   Author      OrigID
2001/04/08 18:35:49.16   0.52 1.210  27.3410   88.0870  13.3  10.6  10  33.0f        17       89  13.23  88.65     se NEIC       4054414
2001/04/08 18:35:49.30   5.49 2.100  28.1570   88.5740  31.0  16.2  -1  20.0f              6 207                      NDI        4532410
2001/04/08 18:35:52.67   5.24 0.580  27.3642   88.1274  26.6  16.6  38  41.2  49.6   13      131  13.33  88.62     uk IDC        4232038
2001/04/08 18:35:48.45   0.44 1.508  27.6020   88.1190   6.7 4.623   0  20.0f        24   21  73   3.93  88.39 m i    ISC        4611165
 (#PRIME)

Magnitude  Err Nsta Author      OrigID
mb     3.8        3 NEIC       4054414
MD     3.9          NDI        4532410
mb     3.8          NEIC       4532410
mb     3.6 0.1   12 IDC        4232038
ML     3.3 0.0    1 IDC        4232038
mb     3.8       12 ISC        4611165

Event  1836045 Xizang
   Date       Time        Err   RMS Latitude Longitude  Smaj  Smin  Az Depth   Err Ndef Nsta Gap  mdist  Mdist Qual   Author      OrigID
2001/04/12 22:08:48.61   0.86 0.810  29.8863   88.0859  23.7  15.9   9   0.0f        19      128  13.17  89.26     uk IDC        4232355
2001/04/12 22:08:50.10        2.600  29.9200   88.1700                  12.0              21                          BJI        4011012
2001/04/12 22:08:51.40   1.47        29.8220   88.0320  16.6   9.5  21  33.0         23                               MOS        3110982
2001/04/12 22:08:51.54   0.37 1.100  29.9400   88.1140  10.6   6.4  26  33.0f        47       98  13.83  91.62     se NEIC       4054766
2001/04/12 22:08:52.50   0.55 0.390  29.9280   87.8708  26.9   7.6 147  33.0   0.0   12   12      18.05 154.64     ke LDG        3089935
2001/04/12 22:08:55.03        1.060  29.9310   88.0850  10.2   6.2   3  42.7   8.4   80   73                       ke EHB       11212787
2001/04/12 22:08:55.40   2.41 0.800  30.0300   88.1510  16.3  14.9  -1  33.0f              8 217                      NDI        4532460
2001/04/12 22:08:51.67   1.57 1.218  29.9380   88.1040   5.8 3.751   0  30.5  12.6   78   75  75   2.66  91.62 m i    ISC        4611683
 (#PRIME)

Magnitude  Err Nsta Author      OrigID
mb     4.3 0.1   16 IDC        4232355
ML     3.9 0.4    2 IDC        4232355
MS     3.2 0.1    5 IDC        4232355
mb     4.5          BJI        4011012
mB     4.9          BJI        4011012
ML     3.5          BJI        4011012
Ms     4.3          BJI        4011012
Msz    4.1          BJI        4011012
mb     4.6       16 MOS        3110982
mb     4.6       24 NEIC       4054766
Mb     4.6 0.4   12 LDG        3089935
Ms     2.8        1 LDG        3089935
mb     4.9          NDI        4532460
mb     4.6          NEIC       4532460
mb     4.4       35 ISC        4611683
MS     2.9        1 ISC        4611683

Event  3275419 Northern India
   Date       Time        Err   RMS Latitude Longitude  Smaj  Smin  Az Depth   Err Ndef Nsta Gap  mdist  Mdist Qual   Author      OrigID
2001/04/14 10:55:53.66  14.93 0.210  30.5099   78.5536 443.0  92.7  25   0.0f         3      322  45.92  86.72     uk IDC        4232563
2001/04/14 10:55:58.40   4.86 1.700  30.8850   78.5250  11.2  24.2  -1  10.0f             12 193                      NDI        4532471
2001/04/14 10:55:57.04   0.79 1.373  30.9190   78.5610 8.094   4.7  90  10.0f        20   14 128   0.74  86.31 m i    ISC        4611860
 (#PRIME)

Magnitude  Err Nsta Author      OrigID
mb     3.8 0.4    3 IDC        4232563
MD     3.0          NDI        4532471
ML     3.3          NDI        4532471
mb     4.0        3 ISC        4611860

