DATA_TYPE EVENT IMS1.0
Reviewed ISC Bulletin
Event  1725972 Xizang
   Date       Time        Err   RMS Latitude Longitude  Smaj  Smin  Az Depth   Err Ndef Nsta Gap  mdist  Mdist Qual   Author      OrigID
2000/01/11 09:40:08.90   5.34 1.600  31.6600   86.9920 110.3  56.2  -1  15.0  61.2         6 232                      NDI        3468491
2000/01/11 09:40:09.96   0.53 1.030  31.3360   86.5730  15.0  10.5  33  33.0f        15   15  95  11.48  87.79     se NEIC       3050951
2000/01/11 09:40:13.37   3.54 0.720  31.3234   86.5357  21.4  19.1  23  47.9  33.8   14   12  95  11.46  87.76     uk EIDC       3009747
2000/01/11 09:40:25                  32.0000   85.0000                                                                NAO        3544869
2000/01/11 09:40:11.69   1.38 1.175  31.3860   86.5900  10.0 7.770   0  49.1  15.5   27   27  91   4.55  87.80 m i    ISC        3630765
 (#PRIME)

Magnitude  Err Nsta Author      OrigID
ML     3.9          NDI        3468491
mb     4.0          NEIC       3468491
mb     4.0        3 NEIC       3050951
mb     3.8 0.1   10 EIDC       3009747
mbmle  3.8 0.1   14 EIDC       3009747
ML     4.1 0.1    2 EIDC       3009747
MS     2.8 0.1   14 EIDC       3009747
Mb     3.3          NAO        3544869
mb     4.0       12 ISC        3630765

Event  1727557 Xizang
   Date       Time        Err   RMS Latitude Longitude  Smaj  Smin  Az Depth   Err Ndef Nsta Gap  mdist  Mdist Qual   Author      OrigID
2000/01/16 16:13:48.28   1.15 0.310  31.9260   82.4344  57.2  23.8  46   0.0f         5    5 151  20.04  74.00     uk EIDC       3010795
2000/01/16 16:13:51.04   0.69 0.440  31.8830   82.4430  21.1  13.0  65  33.0f         6    6 151  14.83  73.97     se NEIC       3051485
2000/01/16 16:13:54.10        3.800  32.6500   82.7700                  38.0               5                          BJI        3017231
2000/01/16 16:13:51.56   0.66 1.284  32.4380   82.7610 7.401   6.9  90  33.0f        26   26 100   3.25  84.37 m i    ISC        3631157
 (#PRIME)

Magnitude  Err Nsta Author      OrigID
mb     3.8 0.2    5 EIDC       3010795
mbmle  3.6 0.1   16 EIDC       3010795
MS     3.0 0.1   16 EIDC       3010795
mb     3.5        1 NEIC       3051485
mb     3.8        5 ISC        3631157

Event  2162874 Northern India
   Date       Time        Err   RMS Latitude Longitude  Smaj  Smin  Az Depth   Err Ndef Nsta Gap  mdist  Mdist Qual   Author      OrigID
2000/01/17 17:01:04.90   2.73 0.800  28.8340   77.1750  11.9  10.2  -1  15.0  13.4        11 108                      NDI        3468540
2000/01/17 17:01:03.65   1.00 1.682  28.8720   77.0650 17.50   6.1  90  15.0f         8    8 165   0.23   3.53 m i    ISC        3631229
 (#PRIME)

Magnitude  Err Nsta Author      OrigID
MD     2.5          NDI        3468540

Event  1726582 Nepal
   Date       Time        Err   RMS Latitude Longitude  Smaj  Smin  Az Depth   Err Ndef Nsta Gap  mdist  Mdist Qual   Author      OrigID
2000/01/20 12:54:22.28   0.90 0.480  27.9130   85.8958  27.8  18.9  28   0.0f        12   12 131  12.28  88.42     uk EIDC       3010145
2000/01/20 12:54:24.00        2.300  27.9100   85.8600                  29.0              20                          BJI        3017292
2000/01/20 12:54:24.34   0.49 1.180  27.7850   85.8130  10.5   9.0   7  33.0f        23   23  81   7.64  88.56     se NEIC       3052060
2000/01/20 12:54:27.50   5.16 1.800  27.7830   86.0180  15.9  17.7  -1  33.0f             16 170                      NDI        3468561
2000/01/20 12:54:42                  30.0000   86.0000                                                                NAO        3544933
2000/01/20 12:54:24.83   0.31 1.309  27.8890   85.8080   5.1   3.6   0  29.0f        66   67  37   0.07  88.46 m i    ISC        3631465
 (#PRIME)

Magnitude  Err Nsta Author      OrigID
mb     4.2 0.1   10 EIDC       3010145
mbmle  4.1 0.1   16 EIDC       3010145
ML     4.4 0.4    2 EIDC       3010145
MS     3.8 0.1    6 EIDC       3010145
msmle  3.7 0.1   13 EIDC       3010145
mb     4.5          BJI        3017292
mB     5.1          BJI        3017292
Ms     4.1          BJI        3017292
Msz    4.1          BJI        3017292
mb     4.4        9 NEIC       3052060
mb     5.0          NDI        3468561
mb     4.4          NEIC       3468561
Mb     4.0          NAO        3544933
mb     4.4       15 ISC        3631465
MS     4.0        6 ISC        3631465

Event  2162901 Northern India
   Date       Time        Err   RMS Latitude Longitude  Smaj  Smin  Az Depth   Err Ndef Nsta Gap  mdist  Mdist Qual   Author      OrigID
2000/01/21 07:38:53.20   5.10 1.800  31.4720   77.0880  19.3  20.9  -1   5.0f              8 168                      NDI        3468572

Magnitude  Err Nsta Author      OrigID
MD     3.2          NDI        3468572
ML     3.3          NDI        3468572

Event  1726954 Xizang
   Date       Time        Err   RMS Latitude Longitude  Smaj  Smin  Az Depth   Err Ndef Nsta Gap  mdist  Mdist Qual   Author      OrigID
2000/01/25 04:09:33.21   0.83 0.770  31.1849   86.6674  29.0  21.7  37   0.0f        11   10 114  11.60  87.89     uk EIDC       3010378
2000/01/25 04:09:36.34   0.50 0.650  31.1670   86.6270  18.9  10.4  36  33.0f        10   10 114  11.57  87.86     se NEIC       3052747
2000/01/25 04:09:38.53   2.04 1.149  31.2880   86.7280 16.76 10.43   0  49.8  20.2   19   20 113   4.59  87.93 m i    ISC        3631844
 (#PRIME)

Magnitude  Err Nsta Author      OrigID
mb     3.9 0.1    8 EIDC       3010378
mbmle  3.8 0.1   18 EIDC       3010378
ML     3.8 0.3    2 EIDC       3010378
MS     3.3 0.0    1 EIDC       3010378
msmle  2.8 0.1   14 EIDC       3010378
mb     4.0        3 NEIC       3052747
mb     3.9        8 ISC        3631844

Event  1726978 Sikkim
   Date       Time        Err   RMS Latitude Longitude  Smaj  Smin  Az Depth   Err Ndef Nsta Gap  mdist  Mdist Qual   Author      OrigID
2000/01/25 12:07:33.30  11.62 3.200  29.9380   89.7220  54.6  49.0  -1   0.0  57.5        12 234                      NDI        3468600
2000/01/25 12:07:42.25   1.12 0.960  27.2616   87.8507  57.4  24.6  43   0.0f         5    5 160  13.46  69.37     uk EIDC       3010390
2000/01/25 12:07:44.77   2.37 1.264  27.6760   88.3550 12.54 8.552   0  32.2  19.2   27   30 155   0.66  69.85 m i    ISC        3631880
 (#PRIME)

Magnitude  Err Nsta Author      OrigID
mb     5.0          NDI        3468600
mb     3.7 0.2    4 EIDC       3010390
mbmle  3.4 0.1   18 EIDC       3010390
ML     3.8 0.0    1 EIDC       3010390
MS     3.7 0.2    2 EIDC       3010390
msmle  3.3 0.1   15 EIDC       3010390
mb     3.8        4 ISC        3631880
MS     3.9        1 ISC        3631880

Event  2162983 Kashmir-Xizang border region
   Date       Time        Err   RMS Latitude Longitude  Smaj  Smin  Az Depth   Err Ndef Nsta Gap  mdist  Mdist Qual   Author      OrigID
2000/01/29 14:26:59.40   7.84 2.300  33.3620   78.6630 115.7 104.2  -1  40.2  1000         9 270                      NDI        3468642

Magnitude  Err Nsta Author      OrigID
MD     3.1          NDI        3468642

Event  2335418 Kashmir-Xizang border region
   Date       Time        Err   RMS Latitude Longitude  Smaj  Smin  Az Depth   Err Ndef Nsta Gap  mdist  Mdist Qual   Author      OrigID
2000/02/03 07:16:16.00   5.90 1.900  32.6910   78.9590  29.9  46.6  -1  33.0f              7 291                      NDI        3616246

Magnitude  Err Nsta Author      OrigID
MD     3.1          NDI        3616246

Event  1727817 Qinghai
   Date       Time        Err   RMS Latitude Longitude  Smaj  Smin  Az Depth   Err Ndef Nsta Gap  mdist  Mdist Qual   Author      OrigID
2000/02/04 11:35:56.98   1.25 0.640  33.7672   90.5869  50.9  33.5  51   0.0f         4    4 127  16.98  81.95     uk EIDC       3010942
2000/02/04 11:36:00.64   1.33 0.724  33.7360   90.5790 36.18 27.86  90  33.0f         4    6 126  16.96  81.98 m i    ISC        3677044
 (#PRIME)
 (Poorly determined)

Magnitude  Err Nsta Author      OrigID
mb     3.7 0.1    3 EIDC       3010942
mbmle  3.3 0.1   19 EIDC       3010942
ML     3.7 0.0    1 EIDC       3010942
MS     3.5 0.2    2 EIDC       3010942
msmle  3.0 0.2   15 EIDC       3010942
mb     3.6        3 ISC        3677044

Event  2335471 Xizang
   Date       Time        Err   RMS Latitude Longitude  Smaj  Smin  Az Depth   Err Ndef Nsta Gap  mdist  Mdist Qual   Author      OrigID
2000/02/08 19:41:57.90   2.77 1.200  31.4680   80.5300  12.9  14.8  -1  10.0f              5 276                      NDI        3616284

Magnitude  Err Nsta Author      OrigID
MD     3.0          NDI        3616284

Event  2419146 Western Xizang-India border region
   Date       Time        Err   RMS Latitude Longitude  Smaj  Smin  Az Depth   Err Ndef Nsta Gap  mdist  Mdist Qual   Author      OrigID
2000/02/09 22:47:34.90   1.35 1.628  30.9910   80.5890 15.76 9.611   0  33.0f        13   13 198   1.51   7.24 m i    ISC        3677466

Event  2347519 Qinghai
   Date       Time        Err   RMS Latitude Longitude  Smaj  Smin  Az Depth   Err Ndef Nsta Gap  mdist  Mdist Qual   Author      OrigID
2000/02/21 11:53:34.73   1.96 0.460  34.0644   90.7239  67.4  37.8  53   0.0f         5    5 172  17.19  81.64     uk EIDC       3626841
2000/02/21 11:53:37.05   0.80 1.026  33.8160   90.5250 11.16   8.1  90  33.0f        18   18 129   6.89  81.91 m i    ISC        3678400
 (#PRIME)

Magnitude  Err Nsta Author      OrigID
mb     3.8 0.1    4 EIDC       3626841
mbmle  3.5 0.1   17 EIDC       3626841
ML     4.3 0.0    1 EIDC       3626841
MS     2.2 0.0   14 EIDC       3626841
mb     3.8        4 ISC        3678400

Event  1733040 Xizang
   Date       Time        Err   RMS Latitude Longitude  Smaj  Smin  Az Depth   Err Ndef Nsta Gap  mdist  Mdist Qual   Author      OrigID
2000/02/21 18:21:31.50        1.100  27.9000   86.4700                  28.0              13                          BJI        3017715
2000/02/21 18:21:36.16   0.62 1.160  28.4420   86.5780  13.0  10.7  13  33.0f        14   14  87   8.24  78.27     se NEIC       3595869
2000/02/21 18:21:39.59   4.25 0.260  28.2996   86.5965  67.2  21.6  13  55.9  45.8    9    9 170  12.63  78.39     uk EIDC       3626854
2000/02/21 18:21:42                  30.0000   88.0000                                                                NAO        3603312
2000/02/21 18:21:43.20   5.39 1.900  28.3560   86.5560  16.2  10.7  -1  33.0f             17 183                      NDI        3616391
2000/02/21 18:21:35.92   0.47 1.422  28.4940   86.7060   6.8 4.878   0  28.0f        37   39  76   2.34  78.18 m i    ISC        3678425
 (#PRIME)

Magnitude  Err Nsta Author      OrigID
mb     4.2          BJI        3017715
mb     4.1        3 NEIC       3595869
mb     3.6 0.1    7 EIDC       3626854
mbmle  3.5 0.1   17 EIDC       3626854
ML     3.9 0.8    2 EIDC       3626854
MS     2.5 0.0   14 EIDC       3626854
Mb     4.0          NAO        3603312
mb     4.8          NDI        3616391
MD     4.7          NDI        3616391
mb     4.1          NEIC       3616391
mb     3.9        9 ISC        3678425

Event  2308122 Northern India
   Date       Time        Err   RMS Latitude Longitude  Smaj  Smin  Az Depth   Err Ndef Nsta Gap  mdist  Mdist Qual   Author      OrigID
2000/02/22 20:53:38.38   2.21 1.010  31.3118   77.1828  67.3  20.7  29   0.0f         7    5 188   4.06  86.04     uk EIDC       3626904
2000/02/22 20:53:40.70   4.35 1.600  31.2340   76.9130   7.6  13.0  -1   5.0f             12 116                      NDI        3616406
2000/02/22 20:53:41.46   0.66 0.910  31.3200   77.0990  18.4  10.2  62  33.0f         8    8 129   2.63  86.04     se NEIC       3595932
2000/02/22 20:53:40.23   0.78 1.336  31.3500   77.1350   6.9   7.8  90  17.2   9.1   33   34  95   0.21  86.01 m i    ISC        3678533
 (#PRIME)

Magnitude  Err Nsta Author      OrigID
mb     3.7 0.3    4 EIDC       3626904
mbmle  3.3 0.1   19 EIDC       3626904
ML     3.6 0.0    1 EIDC       3626904
MS     2.5 0.0   14 EIDC       3626904
MD     3.2          NDI        3616406
mb     3.6          NEIC       3616406
mb     3.6        1 NEIC       3595932
mb     3.6        5 ISC        3678533

Event  1733148 Nepal
   Date       Time        Err   RMS Latitude Longitude  Smaj  Smin  Az Depth   Err Ndef Nsta Gap  mdist  Mdist Qual   Author      OrigID
2000/02/26 04:04:31.91   0.54 0.690  28.5535   82.2762  18.1  14.4  31   0.0f        26   24  96   9.25 150.13     uk IDC        3627274
2000/02/26 04:04:34.80        1.800  28.5000   82.1000                  33.0              25                          BJI        3017769
2000/02/26 04:04:34.87   0.29 1.130  28.4940   82.1450   7.8   6.4  16  33.0f        75   75  65   9.19 122.23     se NEIC       3596125
2000/02/26 04:04:35.00   5.50 1.900  28.5810   82.2450  11.4  11.3  -1  10.0f             25 158                      NDI        3616433
2000/02/26 04:04:37.10   0.81        28.8478   81.8355  40.9  12.6 158  33.0   0.0   18   18      20.32 143.56     ke LDG        3030124
2000/02/26 04:04:37.42        0.920  28.5210   82.1750   6.0   4.3  12  35.6   4.9  116  104                       ke EHB       11207149
2000/02/26 04:04:40.00   1.23        29.1780   82.3390  23.0  14.5   2  33.0         12                               MOS        3023935
2000/02/26 04:04:44                  31.0000   83.0000                                                                NAO        3603344
2000/02/26 04:04:34.11   1.29 1.250  28.5040   82.1750   4.2 3.414   0  26.9  10.2  105  112  41   1.91 150.06 m i    ISC        3678808
 (#PRIME)

Magnitude  Err Nsta Author      OrigID
mb     4.6 0.1   14 IDC        3627274
ML     4.6 0.1    2 IDC        3627274
MS     3.6 0.2    6 IDC        3627274
mb     4.4          BJI        3017769
ML     4.1          BJI        3017769
Ms     4.3          BJI        3017769
Msz    4.1          BJI        3017769
mb     4.6       42 NEIC       3596125
mb     5.2          NDI        3616433
MD     4.9          NDI        3616433
mb     4.6          NEIC       3616433
Mb     4.6 0.2   20 LDG        3030124
Ms     3.3        1 LDG        3030124
mb     4.7       11 MOS        3023935
Mb     4.4          NAO        3603344
mb     4.6       50 ISC        3678808
MS     3.8        5 ISC        3678808

Event  1733312 Xizang
   Date       Time        Err   RMS Latitude Longitude  Smaj  Smin  Az Depth   Err Ndef Nsta Gap  mdist  Mdist Qual   Author      OrigID
2000/03/03 02:58:01.50   5.80 2.300  33.9620   81.7330  36.0  20.5  -1  33.0f              9 238                      NDI        3686937
2000/03/03 02:58:21.70        1.500  35.0000   78.5500                  25.0               7                          BJI        3017851
2000/03/03 02:58:01.90   0.98 1.546  33.5730   81.4950 9.803   9.9  90  33.0f        12   12 105   4.34  83.39 m i    ISC        3854296
 (#PRIME)

Magnitude  Err Nsta Author      OrigID
mb     5.4          NDI        3686937
MD     5.3          NDI        3686937
ML     3.5          BJI        3017851
mb     3.6        1 ISC        3854296

Event  2430351 Northern India
   Date       Time        Err   RMS Latitude Longitude  Smaj  Smin  Az Depth   Err Ndef Nsta Gap  mdist  Mdist Qual   Author      OrigID
2000/03/13 13:30:40.50   8.10 3.700  28.9720   77.9610  31.0  27.0  -1  10.0f              4 144                      NDI        3687029

Event  1733580 Nepal
   Date       Time        Err   RMS Latitude Longitude  Smaj  Smin  Az Depth   Err Ndef Nsta Gap  mdist  Mdist Qual   Author      OrigID
2000/03/13 20:44:31.52   0.51 1.160  27.6560   87.8520  13.1   9.3  36  33.0f        19   19  94   9.44  88.38     se NEIC       3056197
2000/03/13 20:44:31.70        1.400  27.7600   87.9800                  29.0              23                          BJI        3017985
2000/03/13 20:44:33.76   6.12 0.790  27.6530   87.7321  26.4  17.9  39  34.9  50.4   13   12 128  13.78  88.40     uk IDC        3682765
2000/03/13 20:44:38.30   6.53 1.800  27.4320   87.8530  18.4  18.3  -1 108.3  40.5        28 175                      NDI        3687036
2000/03/13 20:44:37.00   0.51 1.574  27.6670   87.7250   6.2 4.620   0  91.6   6.6   56   68  42   0.32  88.39 m i    ISC        3855116
 (#PRIME)

Magnitude  Err Nsta Author      OrigID
mb     4.3        5 NEIC       3056197
mb     4.7          BJI        3017985
mB     4.5          BJI        3017985
Ms     3.9          BJI        3017985
Msz    3.8          BJI        3017985
mb     3.7 0.1   10 IDC        3682765
ML     4.3 0.6    2 IDC        3682765
MS     3.1 0.6    2 IDC        3682765
mb     5.1          NDI        3687036
MD     4.1          NDI        3687036
mb     4.0       12 ISC        3855116

Event  1790487 Nepal
   Date       Time        Err   RMS Latitude Longitude  Smaj  Smin  Az Depth   Err Ndef Nsta Gap  mdist  Mdist Qual   Author      OrigID
2000/03/13 23:09:14.94   0.62 1.110  29.5260   81.3730  14.7  11.1  36  33.0f        17   17 128   3.73  87.41     se NEIC       3056200
2000/03/13 23:09:17.24   5.21 0.560  29.4812   81.3198  29.5  21.3  39  37.8  44.2   14   13 130   8.04  87.46     uk IDC        3682769
2000/03/13 23:09:19.20   9.87 3.200  29.2380   81.4050  27.2  27.7  -1  15.0f             14 164                      NDI        3687038
2000/03/13 23:09:14.36   0.51 1.160  29.3820   81.2840 8.221   8.8  90  33.0f        26   28  90   2.96  87.56 m i    ISC        3855122
 (#PRIME)

Magnitude  Err Nsta Author      OrigID
mb     3.6 0.1   11 IDC        3682769
ML     3.7 0.2    2 IDC        3682769
MS     3.6 0.0    1 IDC        3682769
MD     4.8          NDI        3687038
mb     3.8       11 ISC        3855122
MS     3.6        1 ISC        3855122

Event  2430397 Northern India
   Date       Time        Err   RMS Latitude Longitude  Smaj  Smin  Az Depth   Err Ndef Nsta Gap  mdist  Mdist Qual   Author      OrigID
2000/03/16 02:42:56.00   4.15 1.600  30.7980   78.1490   7.7  13.1  -1  10.0f             14 171                      NDI        3687056
2000/03/16 02:42:54.82   3.34 1.471  30.9030   78.1740 34.29 15.21  90  10.0f        10   10 246   0.89   3.58 m i    ISC        3855312
 (#PRIME)

Magnitude  Err Nsta Author      OrigID
MD     3.0          NDI        3687056

Event  2430405 Nepal-India border region
   Date       Time        Err   RMS Latitude Longitude  Smaj  Smin  Az Depth   Err Ndef Nsta Gap  mdist  Mdist Qual   Author      OrigID
2000/03/16 15:28:27.30   3.65 1.600  27.8460   82.5510  23.4  41.3  -1  33.0f              5 245                      NDI        3687060

Event  2430425 Northern India
   Date       Time        Err   RMS Latitude Longitude  Smaj  Smin  Az Depth   Err Ndef Nsta Gap  mdist  Mdist Qual   Author      OrigID
2000/03/17 09:45:15.40   3.75 1.400  31.5610   76.9870   8.8  15.7  -1   5.0f             17 184                      NDI        3687071
2000/03/17 09:45:13.40   0.46 1.304  31.6210   77.1030   6.2 4.442   0   5.0f        27   28 146   0.17  51.29 m i    ISC        3855411
 (#PRIME)

Magnitude  Err Nsta Author      OrigID
MD     2.9          NDI        3687071

Event  2430441 Northern India
   Date       Time        Err   RMS Latitude Longitude  Smaj  Smin  Az Depth   Err Ndef Nsta Gap  mdist  Mdist Qual   Author      OrigID
2000/03/18 07:33:04.50   3.91 1.200  31.7050   77.4810  11.0  18.9  -1   2.7  12.6        13 242                      NDI        3687080
2000/03/18 07:33:02.27   1.05 1.643  31.6800   77.6670 10.32 6.707   0   2.7f        13   14 177   0.62   8.41 m i    ISC        3855496
 (#PRIME)

Magnitude  Err Nsta Author      OrigID
MD     2.8          NDI        3687080

