Event  1735850 Xizang
   Date       Time        Err   RMS Latitude Longitude  Smaj  Smin  Az Depth   Err Ndef Nsta Gap  mdist  Mdist Qual   Author      OrigID
2000/05/29 02:13:54                  31.0000   87.0000                                                                NAO        3607787
2000/05/29 02:13:59.19   1.04 0.980  30.8403   87.0864  31.9  22.7  51   0.0f         9    9 127  16.36  70.36     uk IDC        3946827
2000/05/29 02:14:01.50   4.33 1.700  31.6550   87.5180  40.7  24.1  -1  33.0f              7 235                      NDI        3945194
2000/05/29 02:14:01.86   0.79 1.450  30.9440   87.1110  23.4  14.2  48  33.0f        10   10 127  15.50  70.42     se NEIC       3065164
2000/05/29 02:14:03.20        2.200  31.2300   87.3800                  25.0              12                          BJI        3019120
2000/05/29 02:14:03.18   1.04 1.591  30.9260   87.1140   9.0 5.332   0  42.3  13.9   30   32  71   3.70  70.41 m i    ISC        3978601
 (#PRIME)

Magnitude  Err Nsta Author      OrigID
Mb     4.2          NAO        3607787
mb     3.9 0.1    8 IDC        3946827
ML     4.5 0.0    1 IDC        3946827
MS     3.3 0.2    6 IDC        3946827
MD     4.4          NDI        3945194
mb     4.1          NEIC       3945194
mb     4.1        5 NEIC       3065164
mb     4.5          BJI        3019120
Ms     4.2          BJI        3019120
mb     4.0       10 ISC        3978601
MS     3.4        2 ISC        3978601

Event  1735854 Xizang
   Date       Time        Err   RMS Latitude Longitude  Smaj  Smin  Az Depth   Err Ndef Nsta Gap  mdist  Mdist Qual   Author      OrigID
2000/05/29 03:06:08.25   0.76 1.100  30.9034   87.0415  22.4  15.2  11   0.0f        19   18 127  11.99 148.48     uk IDC        3946830
2000/05/29 03:06:09.30   0.67        31.3619   86.8806  32.5  10.2 143  10.0f        10   12      16.74  74.77     ke LDG        3030724
2000/05/29 03:06:10.55   0.57 1.300  30.7590   86.9840  16.3   9.0  19  33.0f        21   21 128  11.98  85.47     se NEIC       3065169
2000/05/29 03:06:10.60        1.700  31.0700   87.3000                  28.0              26                          BJI        3019122
2000/05/29 03:06:13.40   6.12 2.000  31.3540   87.3300  35.0  27.1  -1  33.0f             10 221                      NDI        3945196
2000/05/29 03:06:15                  31.0000   87.0000                                                                NAO        3607788
2000/05/29 03:06:10.21   1.70 1.406  31.0140   87.1320   6.7 3.900   0  25.1  14.1   61   64  70   3.71 148.56 m i    ISC        3978607
 (#PRIME)

Magnitude  Err Nsta Author      OrigID
mb     4.0 0.1   15 IDC        3946830
ML     4.7 0.0    2 IDC        3946830
MS     3.9 0.1   15 IDC        3946830
Mb     4.6 0.3   13 LDG        3030724
Ms     3.8 0.1    4 LDG        3030724
mb     4.4        7 NEIC       3065169
mb     4.6          BJI        3019122
mB     5.5          BJI        3019122
Ms     4.6          BJI        3019122
Msz    4.4          BJI        3019122
MD     4.5          NDI        3945196
mb     4.4          NEIC       3945196
Mb     4.2          NAO        3607788
mb     4.2       26 ISC        3978607
MS     3.9       11 ISC        3978607

Event  1807016 Nepal
   Date       Time        Err   RMS Latitude Longitude  Smaj  Smin  Az Depth   Err Ndef Nsta Gap  mdist  Mdist Qual   Author      OrigID
2000/06/02 18:09:13.90   5.63 2.000  28.4100   83.0350  16.6  13.3  -1  15.0f              8 166                      NDI        3969215
2000/06/02 18:09:16.35   0.60 1.230  28.1310   82.9640  15.4  11.9  61  33.0f        11   11  83   9.99  81.68     se NEIC       3067841
2000/06/02 18:09:18.27   7.43 0.800  28.0778   83.0461  26.5  20.7  50  33.6  58.9   10   10  96  10.08  81.59     uk IDC        3879332
2000/06/02 18:09:13.87   0.56 1.157  28.1340   82.9450   8.0 6.754   0  15.0f        18   19  68   4.75  81.70 m i    ISC        4019682
 (#PRIME)

Magnitude  Err Nsta Author      OrigID
MD     3.8          NDI        3969215
mb     3.6 0.1    8 IDC        3879332
ML     3.4 0.1    2 IDC        3879332
MS     2.8 0.0    1 IDC        3879332
mb     3.8        8 ISC        4019682

Event  1735964 Xizang
   Date       Time        Err   RMS Latitude Longitude  Smaj  Smin  Az Depth   Err Ndef Nsta Gap  mdist  Mdist Qual   Author      OrigID
2000/06/03 02:39:04.39   0.67 0.630  30.8596   87.1016  21.0  16.6  39   0.0f        17   16  96  12.05 148.53     uk IDC        3879381
2000/06/03 02:39:05.40        2.000  31.0600   87.2900                  23.0              18                          BJI        3019188
2000/06/03 02:39:07.30   1.23        30.8880   87.0680  21.0  14.4  16  33.0         13                               MOS        3024752
2000/06/03 02:39:08.89   0.32 0.980  31.1850   87.1880   7.7   4.6 106  33.0f        43   43  66   3.46 148.61     se NEIC       3067856
2000/06/03 02:39:09.00   6.39 1.800  31.3520   87.2680f 35.8  28.9  -1  33.0f              9 230                      NDI        3969219
2000/06/03 02:39:09.75        1.050  31.1410   87.2300   6.6   6.1 105  27.8         77   65                       ke EHB       11208262
2000/06/03 02:39:13.80   6.06        32.4944   86.4288 331.9  13.2 161  10.0f        10   11      15.75  73.80     ke LDG        3030740
2000/06/03 02:39:36                  34.0000   84.0000                                                                NAO        3607820
2000/06/03 02:39:05.86   2.89 1.298  31.2420   87.2580   5.4 4.271   0  12.0  19.0   66   72  30   3.53 148.67 m i    ISC        4019709
 (#PRIME)

Magnitude  Err Nsta Author      OrigID
mb     4.1 0.1   13 IDC        3879381
ML     4.5 0.1    2 IDC        3879381
MS     3.7 0.1    9 IDC        3879381
mb     4.6          BJI        3019188
Ms     4.6          BJI        3019188
Msz    4.3          BJI        3019188
mb     4.4        9 MOS        3024752
mb     4.5       12 NEIC       3067856
mb     4.5          NEIC       3969219
Mb     4.4 0.3   11 LDG        3030740
Ms     3.5 0.1    4 LDG        3030740
Mb     3.8          NAO        3607820
mb     4.3       24 ISC        4019709
MS     3.9        6 ISC        4019709

Event  2772378 Nepal-India border region
   Date       Time        Err   RMS Latitude Longitude  Smaj  Smin  Az Depth   Err Ndef Nsta Gap  mdist  Mdist Qual   Author      OrigID
2000/06/08 00:18:01.85   6.35 0.260  27.5485   84.2666 145.0  36.2 178   0.0f         5    5 256  29.13  57.28     uk IDC        3879993
2000/06/08 00:18:04.39   5.44 0.271  27.5090   84.2590 96.79 22.94   0  33.0f         5    5 255  29.15  57.30 m i    ISC        4020313
 (#PRIME)

Magnitude  Err Nsta Author      OrigID
mb     4.3 0.2    5 IDC        3879993
mb     4.2        5 ISC        4020313

Event  2913134 Kashmir-Xizang border region
   Date       Time        Err   RMS Latitude Longitude  Smaj  Smin  Az Depth   Err Ndef Nsta Gap  mdist  Mdist Qual   Author      OrigID
2000/06/08 21:48:53.30   7.70 3.200  33.3570   79.2680  59.5  51.4  -1  33.0f              5 274                      NDI        3969306

Magnitude  Err Nsta Author      OrigID
MD     3.3          NDI        3969306

Event  1808546 Kashmir-Xizang border region
   Date       Time        Err   RMS Latitude Longitude  Smaj  Smin  Az Depth   Err Ndef Nsta Gap  mdist  Mdist Qual   Author      OrigID
2000/06/17 02:47:06.26   1.28 0.360  32.8485   79.2171  29.0  27.5  63   0.0f         6    6 134  21.45  62.78     uk IDC        3880756
2000/06/17 02:47:09.39   0.85 0.640  32.8600   79.2140  25.0  14.1  58  33.0f         6    6 134  10.24  62.78     se NEIC       3068891
2000/06/17 02:47:12.90   2.87 1.200  32.8630   79.1070  18.9  18.0  -1   0.2  36.7         9 261                      NDI        3969387
2000/06/17 02:47:09.18   1.22 1.506  32.8080   79.4900 10.54 8.490   0  39.6  18.3   24   24  58   2.50  84.36 m i    ISC        4021275
 (#PRIME)

Magnitude  Err Nsta Author      OrigID
mb     3.8 0.2    6 IDC        3880756
mb     4.4        1 NEIC       3068891
MD     3.3          NDI        3969387
mb     4.4          NEIC       3969387
mb     3.8        7 ISC        4021275
MS     4.0        1 ISC        4021275

Event  1736608 Kashmir-Xizang border region
   Date       Time        Err   RMS Latitude Longitude  Smaj  Smin  Az Depth   Err Ndef Nsta Gap  mdist  Mdist Qual   Author      OrigID
2000/06/17 16:34:08                  32.0000   80.0000                                                                NAO        3608014
2000/06/17 16:34:09.50   0.57 0.990  31.9567   78.4002  19.2  11.1  17   0.0f        23   20  97   4.65 153.61     uk IDC        3880785
2000/06/17 16:34:12.40   4.63 1.400  31.7950   78.4520  10.2   9.6  -1  10.0f             21 188                      NDI        3969393
2000/06/17 16:34:12.60        1.300  32.2500   78.8400                   7.0              38                          BJI        3019510
2000/06/17 16:34:12.96   0.24 0.850  32.0240   78.4370   6.8   4.5  21  33.0f        71   71  55   4.66 119.36     se NEIC       3068918
2000/06/17 16:34:13.40   0.84        32.0590   78.3970  13.3   8.1   5  33.0         33                               MOS        3024927
2000/06/17 16:34:13.50   0.65 0.420  32.2244   78.2204  34.1  11.7 167  33.0                 139  18.53 139.75     ke LDG        3975569
2000/06/17 16:34:14.60               31.9000   78.2000                   0.0                                          STR        3962541
2000/06/17 16:34:15.16        0.990  31.9850   78.4170   5.7   3.4  18  37.0   5.3  174  160                       ke EHB       11208529
2000/06/17 16:34:13.25   0.45 1.098  32.0000   78.4080   4.4 2.730   0  38.8   5.2  165  169  22   1.32 153.64 m i    ISC        4021316
 (#PRIME)
 (#PARAM pP_DEPTH=18+6)

Magnitude  Err Nsta Author      OrigID
Mb     5.0          NAO        3608014
mb     4.6 0.1   17 IDC        3880785
ML     5.0 0.0    1 IDC        3880785
mb     5.0          NDI        3969393
MD     4.3          NDI        3969393
mb     4.7          BJI        3019510
ML     4.7          BJI        3019510
mb     4.8       29 NEIC       3068918
mb     4.9       17 MOS        3024927
Mb     4.9 0.2   29 LDG        3975569
ML     4.9          STR        3962541
mb     4.8       73 ISC        4021316
MS     5.6        2 ISC        4021316

Event  1808643 Western Xizang-India border region
   Date       Time        Err   RMS Latitude Longitude  Smaj  Smin  Az Depth   Err Ndef Nsta Gap  mdist  Mdist Qual   Author      OrigID
2000/06/18 08:05:18.60   3.18 1.400  32.0100   78.3870  10.9  11.1  -1  10.0f             12 226                      NDI        3969398
2000/06/18 08:05:20.83   3.43 0.500  31.9325   78.3950  34.8  17.3  38  52.2  33.7    8    7 129   4.66  77.34     uk IDC        3880824
2000/06/18 08:05:23.99   1.75 1.280  32.1670   78.4900  25.5  13.3  70  93.4  19.0    8    8 103   3.64  77.09     se NEIC       3068948
2000/06/18 08:05:19.65   0.84 1.004  31.9620   78.3750 10.88 8.005   0  57.0  12.3   21   21 102   1.28  77.32 m i    ISC        4021357
 (#PRIME)

Magnitude  Err Nsta Author      OrigID
MD     3.3          NDI        3969398
mb     3.6 0.2    6 IDC        3880824
ML     4.5 0.0    1 IDC        3880824
mb     3.7        1 NEIC       3068948
mb     3.8        6 ISC        4021357

Event  2913214 Western Xizang-India border region
   Date       Time        Err   RMS Latitude Longitude  Smaj  Smin  Az Depth   Err Ndef Nsta Gap  mdist  Mdist Qual   Author      OrigID
2000/06/18 08:31:43.50   3.49 1.300  32.1960   78.4420  16.2  16.3  -1  10.0f              8 234                      NDI        3969400
2000/06/18 08:31:45.75   1.39 1.429  31.9550   78.2730 16.98 8.288   0  10.0f        11   12 208   1.20   4.78 m i    ISC        4021358
 (#PRIME)

Magnitude  Err Nsta Author      OrigID
MD     3.1          NDI        3969400

Event  2322527 Xizang
   Date       Time        Err   RMS Latitude Longitude  Smaj  Smin  Az Depth   Err Ndef Nsta Gap  mdist  Mdist Qual   Author      OrigID
2000/06/20 01:30:16                  37.0000   84.0000                                                                NAO        3608042
2000/06/20 01:29:41.67   1.64 0.886  33.2850   87.1060 14.10 11.99  90  33.0f        16   16 210   5.46  54.79 m i    ISC        4021503
 (#PRIME)

Magnitude  Err Nsta Author      OrigID
Mb     4.0          NAO        3608042

Event  2773603 India-Bangladesh border region
   Date       Time        Err   RMS Latitude Longitude  Smaj  Smin  Az Depth   Err Ndef Nsta Gap  mdist  Mdist Qual   Author      OrigID
2000/06/20 07:16:22                  24.0000   92.0000                                                                NAO        3608044
2000/06/20 07:16:42.89   0.91 1.130  25.9845   88.9692  29.6  23.7  55   0.0f        10   10 131  37.38  89.83     uk IDC        3880927
2000/06/20 07:16:43.80   7.67 2.400  26.0370   90.3090  28.3  21.1  -1  33.0f             16 157                      NDI        3969418
2000/06/20 07:16:46.63   0.51 1.735  25.7850   89.6000   9.5 6.397   0  33.0f        40   42  91   2.07  89.92 m i    ISC        4021525
 (#PRIME)

Magnitude  Err Nsta Author      OrigID
Mb     4.3          NAO        3608044
mb     4.0 0.1   10 IDC        3880927
MS     2.9 0.0    1 IDC        3880927
MD     3.1          NDI        3969418
ML     4.3          NDI        3969418
mb     4.0       13 ISC        4021525

Event  1808954 Western Xizang-India border region
   Date       Time        Err   RMS Latitude Longitude  Smaj  Smin  Az Depth   Err Ndef Nsta Gap  mdist  Mdist Qual   Author      OrigID
2000/06/21 16:11:15.20   2.67 1.200  30.3920   79.0910   6.9   7.2  -1   5.0f             10 184                      NDI        3969454
2000/06/21 16:11:19.33   0.77 0.620  30.5810   79.1960  36.3  15.9  40  33.0f         5    5 141  21.60  75.24     se NEIC       3069163
2000/06/21 16:11:26.62  11.06 0.150  30.6252   79.3226  54.2  22.5  46  85.0   106    5    5 142  21.53  75.18     uk IDC        3880995
2000/06/21 16:11:20.00   1.16 1.039  30.5100   79.1710 11.86 13.21  90  39.7  13.8   12   15 141   0.98  75.21 m i    ISC        4021633
 (#PRIME)

Magnitude  Err Nsta Author      OrigID
MD     3.5          NDI        3969454
mb     3.5          NEIC       3969454
mb     3.5        1 NEIC       3069163
mb     3.2 0.2    5 IDC        3880995
MS     2.8 0.0    1 IDC        3880995
mb     3.5        5 ISC        4021633

Event  1737218 Xizang
   Date       Time        Err   RMS Latitude Longitude  Smaj  Smin  Az Depth   Err Ndef Nsta Gap  mdist  Mdist Qual   Author      OrigID
2000/07/03 07:09:47                  31.0000   86.0000                                                                NAO        3608336
2000/07/03 07:09:50.83   0.73 0.880  31.4374   84.9399  29.3  16.8  53   0.0f        14   14 112  10.11 146.68     uk IDC        3882077
2000/07/03 07:09:52.30   0.70        31.6144   84.1916  33.6   9.8 151  10.0f        12   13      17.11 144.80     ke LDG        3030861
2000/07/03 07:09:52.90        2.900  31.2300   84.5700                  30.0              14                          BJI        3019815
2000/07/03 07:09:53.72   0.30 0.920  31.4710   84.7140   6.8   5.7 143  33.0f        39   39  83   3.44  85.08     se NEIC       3664969
2000/07/03 07:09:55.00   1.51        31.5910   85.1200  27.7  12.7  15  33.0         15                               MOS        3025171
2000/07/03 07:09:56.37        1.100  31.3410   84.6500   9.7   7.7   7  40.3   9.9   63   61                       ke EHB       11208775
2000/07/03 07:09:56.90        1.300  31.2510   84.5670                  33.0f              9                          NDI        4001979
2000/07/03 07:09:53.78   0.84 1.222  31.4290   84.6690   6.5 4.736   0  35.0   9.8   64   65  69   3.38 146.45 m i    ISC        4126727
 (#PRIME)

Magnitude  Err Nsta Author      OrigID
Mb     4.3          NAO        3608336
mb     4.2 0.1   11 IDC        3882077
ML     4.4 0.2    2 IDC        3882077
MS     3.4 0.1    4 IDC        3882077
Mb     4.5 0.4   12 LDG        3030861
Ms     3.4 0.1    4 LDG        3030861
mb     4.4          BJI        3019815
mB     4.8          BJI        3019815
Ms     4.1          BJI        3019815
Msz    3.9          BJI        3019815
mb     4.5       16 NEIC       3664969
mb     4.7        8 MOS        3025171
MD     4.2          NDI        4001979
ML     3.7          NDI        4001979
mb     4.5          NEIC       4001979
mb     4.4       26 ISC        4126727
MS     3.8        4 ISC        4126727

Event  1737266 Kashmir-Xizang border region
   Date       Time        Err   RMS Latitude Longitude  Smaj  Smin  Az Depth   Err Ndef Nsta Gap  mdist  Mdist Qual   Author      OrigID
2000/07/04 08:10:02                  32.0000   80.0000                                                                NAO        3608357
2000/07/04 08:10:02.61   0.77 0.970  32.0201   78.5153  20.5  19.3  15   0.0f        13   12  97   4.72  78.73     uk IDC        3882159
2000/07/04 08:10:05.80        2.800  32.1100   78.4800                  25.0               7                          BJI        3019839
2000/07/04 08:10:05.88   0.79 1.440  32.1010   78.4420  19.7  17.1   6  33.0f        14   14  97   4.63  78.74     se NEIC       3665052
2000/07/04 08:10:06.40   4.11 1.300  32.0760   78.2670  11.3  14.6  -1   3.2  12.8        14 211                      NDI        4001989
2000/07/04 08:10:08.50   0.77 1.259  32.0770   78.3070 6.678   6.9  90  57.3   9.2   35   36  51   1.28  78.65 m i    ISC        4126865
 (#PRIME)

Magnitude  Err Nsta Author      OrigID
Mb     3.8          NAO        3608357
mb     4.0 0.1   11 IDC        3882159
ML     4.8 0.0    1 IDC        3882159
mb     4.0          BJI        3019839
mb     4.1        2 NEIC       3665052
MD     3.3          NDI        4001989
ML     3.7          NDI        4001989
mb     4.0       12 ISC        4126865

Event  3148122 Bangladesh
   Date       Time        Err   RMS Latitude Longitude  Smaj  Smin  Az Depth   Err Ndef Nsta Gap  mdist  Mdist Qual   Author      OrigID
2000/07/04 22:21:07.29   0.89 1.236  24.1120   90.6740 16.43 11.75   0 100.2  13.0   13   13 152   0.57  91.37 m i    ISC        4126913

Magnitude  Err Nsta Author      OrigID
mb     4.3        1 ISC        4126913

