DATA_TYPE EVENT_CATALOGUE
Reviewed ISC Bulletin
--EVENT--|--------------------ORIGIN (PRIME HYPOCENTRE)-------------------|------MAGNITUDES-----...
  EVENTID,AUTHOR   ,DATE      ,TIME       ,LAT     ,LON      ,DEPTH,DEPFIX,AUTHOR   ,TYPE  ,MAG 
Event  3254347
  3254347,ISC      ,2000-12-05,21:47:53.92, 28.7640,  77.2960, 14.2,TRUE  ,NDI      ,MD    , 2.3,NDI      ,ML    , 2.5,NDI      ,MW    , 2.5
Event  3264199
  3264199,ISC      ,2000-12-07,23:53:35.14, 33.8960,  90.0600, 33.0,TRUE  ,ISC      ,mb    , 3.7,IDC      ,mb    , 3.6,IDC      ,ML    , 3.5
Event  3254520
  3254520,NDI      ,2000-12-18,16:45:35.90, 29.8210,  80.1970,  5.0,TRUE  ,NDI      ,MD    , 3.1,
Event  3265672
  3265672,ISC      ,2000-12-28,19:44:25.89, 31.7240,  86.7930,100.4,      ,ISC      ,mb    , 3.2,IDC      ,mb    , 3.4,IDC      ,ML    , 3.2
Event  3254630
  3254630,NDI      ,2000-12-29,08:40:32.30, 24.2800,  83.1610, 10.0,TRUE  ,NDI      ,ML    , 3.3,
