Event  1742158 Qinghai
   Date       Time        Err   RMS Latitude Longitude  Smaj  Smin  Az Depth   Err Ndef Nsta Gap  mdist  Mdist Qual   Author      OrigID
2000/11/19 15:44:15.10   1.26        33.9030   90.7440  23.7  14.0  12  33.0         13                               MOS        3031485
2000/11/19 15:44:15.32   0.43 1.170  33.9160   90.8490  10.9   7.9  39  33.0f        28      112  10.88  81.76     se NEIC       4038382
2000/11/19 15:44:16.00        2.300  33.9900   90.9500                  34.0              27                          BJI        3022305
2000/11/19 15:44:17.25        1.130  33.9530   90.7870   8.4   7.9 119  30.0         48   49                       ke EHB       11210860
2000/11/19 15:44:17.90   6.23 0.840  33.8417   90.7301  25.3  17.6  40  38.1  54.3   14   14 112  16.99 151.45     uk IDC        3891608
2000/11/19 15:44:13.86   1.87 1.046  33.9310   90.8790 4.513   5.0  90  20.1  15.7   50   52  29   4.22 151.56 m i    ISC        4372546
 (#PRIME)

Magnitude  Err Nsta Author      OrigID
mb     4.3        8 MOS        3031485
mb     4.4       14 NEIC       4038382
mb     4.6          BJI        3022305
mB     5.0          BJI        3022305
Ms     4.7          BJI        3022305
Msz    4.4          BJI        3022305
mb     3.9 0.1   12 IDC        3891608
ML     3.9 0.0    1 IDC        3891608
MS     3.8 0.1    4 IDC        3891608
mb     4.3       21 ISC        4372546
MS     3.8        1 ISC        4372546

Event  1914089 Western Xizang-India border region
   Date       Time        Err   RMS Latitude Longitude  Smaj  Smin  Az Depth   Err Ndef Nsta Gap  mdist  Mdist Qual   Author      OrigID
2000/11/22 08:40:31.38   0.54 0.720  31.1810   77.9490  15.3   8.6  89  33.0f        16      108   2.57  86.11     se NEIC       4038635
2000/11/22 08:40:32.50   3.42 1.400  31.0720   77.9340   6.3  10.5  -1   5.0f             20 177                      NDI        4193557
2000/11/22 08:40:37.68  13.67 0.290  31.1969   78.0648  41.0  23.2  18  75.1   123   10   10 174  23.24  86.08     uk IDC        3891941
2000/11/22 08:40:31.63   0.47 1.265  31.1690   78.0570 6.458   4.7  90  33.0f        35   36  99   0.76  86.11 m i    ISC        4372896
 (#PRIME)

Magnitude  Err Nsta Author      OrigID
MD     3.7          NDI        4038635
MD     3.4          NDI        4193557
ML     4.0          NDI        4193557
mb     3.6 0.1    9 IDC        3891941
mb     4.0       12 ISC        4372896

Event  1914348 Western Xizang-India border region
   Date       Time        Err   RMS Latitude Longitude  Smaj  Smin  Az Depth   Err Ndef Nsta Gap  mdist  Mdist Qual   Author      OrigID
2000/11/27 03:20:35.89   0.71 1.450  30.1860   79.1870  23.6  14.1  78  33.0f        10       91  12.72  78.78     se NEIC       4039127
2000/11/27 03:20:36.30   4.42 1.500  30.3550   79.6610  10.7  16.1  -1   5.0f             17 199                      NDI        4193608
2000/11/27 03:20:47.60   8.07 0.510  30.3907   79.4648  28.7  18.2  56 119.0  76.8    8    8 130  21.31  78.51     uk IDC        3892489
2000/11/27 03:20:37.66   0.96 1.254  30.3640   79.6040 9.194   9.1  90  42.9  12.5   26   26  92   0.97  78.50 m i    ISC        4373498
 (#PRIME)

Magnitude  Err Nsta Author      OrigID
MD     3.4          NDI        4193608
ML     3.6          NDI        4193608
mb     3.4 0.1    7 IDC        3892489
mb     3.7        7 ISC        4373498

Event  3254347 Northern India
   Date       Time        Err   RMS Latitude Longitude  Smaj  Smin  Az Depth   Err Ndef Nsta Gap  mdist  Mdist Qual   Author      OrigID
2000/12/05 21:47:50.20   3.01 0.900  28.9540   77.4030   9.3   7.7  -1  14.2   8.7        10 188                      NDI        4214847
2000/12/05 21:47:53.92   1.44 1.703  28.7640   77.2960 14.65 11.19   0  14.2f         6    6 177   0.11   5.50 m i    ISC        4412029
 (#PRIME)

Magnitude  Err Nsta Author      OrigID
MD     2.3          NDI        4214847
ML     2.5          NDI        4214847
MW     2.5          NDI        4214847

Event  3264199 Qinghai
   Date       Time        Err   RMS Latitude Longitude  Smaj  Smin  Az Depth   Err Ndef Nsta Gap  mdist  Mdist Qual   Author      OrigID
2000/12/07 23:53:36.94   3.66 0.130  34.6313   92.7415 237.0  28.0  72   0.0f         4      187  17.03  80.74     uk IDC        4221686
2000/12/07 23:53:35.14   1.60 0.723  33.8960   90.0600 74.08 21.42  90  33.0f         5    5 182   8.45  81.91 m i    ISC        4412219
 (#PRIME)

Magnitude  Err Nsta Author      OrigID
mb     3.6 0.3    3 IDC        4221686
ML     3.5 0.0    1 IDC        4221686
mb     3.7        2 ISC        4412219

Event  3254520 Nepal-India border region
   Date       Time        Err   RMS Latitude Longitude  Smaj  Smin  Az Depth   Err Ndef Nsta Gap  mdist  Mdist Qual   Author      OrigID
2000/12/18 16:45:35.90   3.92 1.700  29.8210   80.1970  12.7  32.5  -1   5.0f              6 234                      NDI        4214956

Magnitude  Err Nsta Author      OrigID
MD     3.1          NDI        4214956

Event  3265672 Xizang
   Date       Time        Err   RMS Latitude Longitude  Smaj  Smin  Az Depth   Err Ndef Nsta Gap  mdist  Mdist Qual   Author      OrigID
2000/12/28 19:44:09.24   4.78 0.620  30.9443   84.4666 188.0  31.4  69   0.0f         3      228  18.07  72.06     uk IDC        4222892
2000/12/28 19:44:25.89   2.74 0.753  31.7240   86.7930 26.06 21.53  90 100.4  38.0   10   10 156   3.88  71.16 m i    ISC        4414178
 (#PRIME)

Magnitude  Err Nsta Author      OrigID
mb     3.4 0.2    2 IDC        4222892
ML     3.2 0.0    1 IDC        4222892
mb     3.2        2 ISC        4414178

Event  3254630 Northern India
   Date       Time        Err   RMS Latitude Longitude  Smaj  Smin  Az Depth   Err Ndef Nsta Gap  mdist  Mdist Qual   Author      OrigID
2000/12/29 08:40:32.30   5.75 1.900  24.2800   83.1610  11.5  10.4  -1  10.0f             11 125                      NDI        4215043

Magnitude  Err Nsta Author      OrigID
ML     3.3          NDI        4215043

Event  3409344 Northern India
   Date       Time        Err   RMS Latitude Longitude  Smaj  Smin  Az Depth   Err Ndef Nsta Gap  mdist  Mdist Qual   Author      OrigID
2001/01/03 18:14:59.10   1.75 0.500  29.2310   77.0830   7.3  17.4  -1  25.4  15.8         6 175                      NDI        4327062
2001/01/03 18:14:58.43   0.95 1.087  29.2730   77.3600 11.04   4.6  90  25.4f         7    4 162   0.60   1.86 m i    ISC        4491525
 (#PRIME)

Magnitude  Err Nsta Author      OrigID
ML     3.0          NDI        4327062

Event  3409406 Northern India
   Date       Time        Err   RMS Latitude Longitude  Smaj  Smin  Az Depth   Err Ndef Nsta Gap  mdist  Mdist Qual   Author      OrigID
2001/01/08 15:44:17.40   0.59 0.300  26.7090   80.2210   6.8   7.6  -1  33.0f              3 332                      NDI        4327105

Magnitude  Err Nsta Author      OrigID
MD     4.0          NDI        4327105

Event  3266274 Xizang
   Date       Time        Err   RMS Latitude Longitude  Smaj  Smin  Az Depth   Err Ndef Nsta Gap  mdist  Mdist Qual   Author      OrigID
2001/01/09 07:28:48.83   1.29 0.450  31.8298   82.2640  44.6  33.1  80   0.0f         4      129  22.17  85.03     uk IDC        4223311
2001/01/09 07:28:52.22   1.34 1.839  31.8390   82.1930 34.51 25.20  90  33.0f         4    4 128  22.17  85.03 m i    ISC        4492030
 (#PRIME)
 (Poorly determined)

Magnitude  Err Nsta Author      OrigID
mb     3.4 0.1    4 IDC        4223311
mb     3.3        4 ISC        4492030

Event  3266723 India-Bangladesh border region
   Date       Time        Err   RMS Latitude Longitude  Smaj  Smin  Az Depth   Err Ndef Nsta Gap  mdist  Mdist Qual   Author      OrigID
2001/01/16 08:06:54.96   0.96 1.310  25.8125   89.8320  39.0  22.8  33   0.0f         6      130  11.17  75.70     uk IDC        4223624
2001/01/16 08:06:59.12   0.55 1.476  25.7270   90.0240   9.4 5.500   0  33.0f        29   21  94   1.69  75.52 m i    ISC        4492959
 (#PRIME)

Magnitude  Err Nsta Author      OrigID
mb     4.0 0.1    5 IDC        4223624
ML     3.6 0.0    1 IDC        4223624
mb     3.9        5 ISC        4492959

Event  3006884 Kashmir-Xizang border region
   Date       Time        Err   RMS Latitude Longitude  Smaj  Smin  Az Depth   Err Ndef Nsta Gap  mdist  Mdist Qual   Author      OrigID
2001/01/17 09:21:59.89   1.16 1.380  34.1817   79.8393  28.9  18.2 175   0.0f        10      130   5.50  82.96     uk IDC        4223701
2001/01/17 09:22:03.18   0.92 1.450  34.2130   79.7150  22.3  17.7 173  33.0f         7      130   5.40  82.94     se NEIC       4043925
2001/01/17 09:22:04.40        2.400  34.5200   82.1800                  15.0               5                          BJI        4011952
2001/01/17 09:22:04.31   1.22 1.204  33.9990   79.7460 10.32 6.258   0  50.4  17.1   20   18 108   3.42  83.15 m i    ISC        4493109
 (#PRIME)

Magnitude  Err Nsta Author      OrigID
mb     3.7 0.1    6 IDC        4223701
ML     3.2 0.0    1 IDC        4223701
mb     3.6        1 NEIC       4043925
ML     3.4          BJI        4011952
mb     3.7        5 ISC        4493109

Event  3409512 Southern India
   Date       Time        Err   RMS Latitude Longitude  Smaj  Smin  Az Depth   Err Ndef Nsta Gap  mdist  Mdist Qual   Author      OrigID
2001/01/23 17:52:51.40   3.78 1.200  23.1610   79.7720   7.3   8.8  -1  13.1   8.9        12 110                      NDI        4327190
2001/01/23 17:52:45.80   1.18 1.333  23.3060   79.8980 7.442   4.6  90  13.1f        20   10 210   2.28   8.57 m i    ISC        4493928
 (#PRIME)

Magnitude  Err Nsta Author      OrigID
ML     3.4          NDI        4327190
MW     3.4          NDI        4327190

Event  3409514 Northern India
   Date       Time        Err   RMS Latitude Longitude  Smaj  Smin  Az Depth   Err Ndef Nsta Gap  mdist  Mdist Qual   Author      OrigID
2001/01/24 01:24:57.90   4.39 1.700  31.3210   76.9710   8.6  14.9  -1   5.0f              9 137                      NDI        4327191
2001/01/24 01:24:58.12   0.57 1.372  31.3830   77.0050 9.097   7.0  90  13.6   5.4   17    9 137   0.12   3.40 m i    ISC        4493968
 (#PRIME)

Magnitude  Err Nsta Author      OrigID
MD     3.1          NDI        4327191
ML     3.3          NDI        4327191

Event  3267556 Xizang
   Date       Time        Err   RMS Latitude Longitude  Smaj  Smin  Az Depth   Err Ndef Nsta Gap  mdist  Mdist Qual   Author      OrigID
2001/01/29 09:49:43.78   6.13 0.250  32.7222   90.5391 291.0  30.6  76   0.0f         4      222  16.09  82.98     uk IDC        4224227

Magnitude  Err Nsta Author      OrigID
mb     3.6 0.3    3 IDC        4224227
ML     4.1 0.0    1 IDC        4224227
MS     3.1 0.0    1 IDC        4224227

Event  3268860 Bhutan
   Date       Time        Err   RMS Latitude Longitude  Smaj  Smin  Az Depth   Err Ndef Nsta Gap  mdist  Mdist Qual   Author      OrigID
2001/02/09 10:20:52.29   2.12 0.830  27.4475   90.0054 115.0  23.6  63   0.0f         6      201  26.74  88.23     uk IDC        4227815
2001/02/09 10:20:58.46   0.66 1.153  27.0490   89.5270   9.0 5.141   0  81.5   9.0   30   23 103   1.05  88.70 m i    ISC        4521217
 (#PRIME)

Magnitude  Err Nsta Author      OrigID
mb     3.7 0.2    6 IDC        4227815
mb     3.6        6 ISC        4521217

Event  3510298 Northern India
   Date       Time        Err   RMS Latitude Longitude  Smaj  Smin  Az Depth   Err Ndef Nsta Gap  mdist  Mdist Qual   Author      OrigID
2001/02/12 08:16:23.20   0.30 0.000  25.4070   80.4040   4.7   2.1  -1  15.0   0.0         4 214                      NDI        4414974

Magnitude  Err Nsta Author      OrigID
MD     4.0          NDI        4414974

Event  3510364 Northern India
   Date       Time        Err   RMS Latitude Longitude  Smaj  Smin  Az Depth   Err Ndef Nsta Gap  mdist  Mdist Qual   Author      OrigID
2001/02/17 08:11:32.80   3.84 1.300  24.1090   82.1680 154.7 131.1  -1   9.9   141         4 270                      NDI        4415022

Event  3014328 Northern India
   Date       Time        Err   RMS Latitude Longitude  Smaj  Smin  Az Depth   Err Ndef Nsta Gap  mdist  Mdist Qual   Author      OrigID
2001/02/20 08:42:06.50   0.66 0.730  30.9762   78.2831  28.4  14.5  42   0.0f        14      101   5.03  86.62     uk IDC        4228649
2001/02/20 08:42:09.80   0.39 0.610  30.9830   78.2350  17.4   8.0  43  33.0f        15      101   4.99  86.65     se NEIC       4051063
2001/02/20 08:42:11.40   4.81 1.500  30.9760   78.1540   9.8  16.8  -1  33.0f             24 174                      NDI        4415053
2001/02/20 08:42:06.90   0.29 1.241  30.9790   78.2600   3.0 2.379   0  10.0f        65   49  92   0.68  86.63 m i    ISC        4522588
 (#PRIME)

Magnitude  Err Nsta Author      OrigID
mb     4.0 0.1   11 IDC        4228649
ML     4.2 0.0    1 IDC        4228649
mb     3.8        4 NEIC       4051063
MD     3.3          NDI        4415053
ML     3.4          NDI        4415053
mb     4.1       13 ISC        4522588

Event  1832481 Xizang
   Date       Time        Err   RMS Latitude Longitude  Smaj  Smin  Az Depth   Err Ndef Nsta Gap  mdist  Mdist Qual   Author      OrigID
2001/02/21 10:48:06.08   0.37 1.040  32.5510   85.1080  10.1   6.6  38  33.0f        28       68  10.01  83.97     se NEIC       4051153
2001/02/21 10:48:06.20   1.38        32.5510   85.1060  10.0   7.5   0  33.0         36                               MOS        3085100
2001/02/21 10:48:06.30   2.62 0.600  32.5200   85.1000  14.0  14.3  -1  33.0f             12 229                      NDI        4415060
2001/02/21 10:48:06.51        1.300  32.6690   85.0800   7.4   7.1 141  15.3         83   75                       ke EHB       11212003
2001/02/21 10:48:07.80        2.200  32.7400   85.3300                  32.0              31                          BJI        4010232
2001/02/21 10:48:10.45   3.14 1.070  32.4647   85.1125  19.8  13.9  32  47.5  31.9   17      128  10.03  84.05     uk IDC        4228711
2001/02/21 10:48:05.80   0.25 1.396  32.4840   85.0640   3.9 2.903   0  33.0f        92   85  28   4.27  84.04 m i    ISC        4522735
 (#PRIME)

Magnitude  Err Nsta Author      OrigID
mb     4.6        9 NEIC       4051153
mb     4.7       10 MOS        3085100
mb     4.7          NDI        4415060
ML     4.6          NDI        4415060
mb     4.6          NEIC       4415060
mb     4.6          BJI        4010232
mB     4.8          BJI        4010232
Ms     4.6          BJI        4010232
Msz    4.2          BJI        4010232
mb     4.1 0.1   13 IDC        4228711
ML     4.1 0.1    2 IDC        4228711
MS     3.9 0.1    5 IDC        4228711
mb     4.4       21 ISC        4522735
MS     4.1       10 ISC        4522735

Event  3510429 Northern India
   Date       Time        Err   RMS Latitude Longitude  Smaj  Smin  Az Depth   Err Ndef Nsta Gap  mdist  Mdist Qual   Author      OrigID
2001/02/23 15:17:14.60   2.80 1.100  29.4620   77.5220   5.4   6.7  -1  15.0f             14  97                      NDI        4415076
2001/02/23 15:17:14.52   0.44 1.243  29.5230   77.5150 4.250   2.8  90  15.0f        22   14  89   0.80   3.29 m i    ISC        4522990
 (#PRIME)

Magnitude  Err Nsta Author      OrigID
MD     2.6          NDI        4415076
ML     3.1          NDI        4415076

Event  2737620 Western Xizang-India border region
   Date       Time        Err   RMS Latitude Longitude  Smaj  Smin  Az Depth   Err Ndef Nsta Gap  mdist  Mdist Qual   Author      OrigID
2001/02/23 22:54:32.56   0.50 1.070  30.9980   78.0660  15.6   8.9  29  21.2         28       97   4.86  86.28     se NEIC       4051372
 (#PARAM pP_DEPTH=21.20000)
2001/02/23 22:54:34.00        1.200  31.3800   78.4100                   5.0              15                          BJI        4010276
2001/02/23 22:54:34.55   0.72 0.670  31.0553   78.1215  27.0  13.7  47  19.2   4.7   17      101   4.87  86.22     uk IDC        4228894
2001/02/23 22:54:34.98        1.160  31.1240   78.1400   7.2   4.5  38  20.0f        89   65                       ke EHB       11212035
2001/02/23 22:54:35.90   3.90 1.300  30.9290   78.0050   8.0  10.3  -1  17.6  16.3        22 155                      NDI        4415082
2001/02/23 22:54:32.98   0.23 1.356  31.1080   78.2070   3.0 2.376   0  19.2f        91   67  45   0.79  86.16 m i    ISC        4523032
 (#PRIME)
 (#PARAM pP_DEPTH=21+2)

Magnitude  Err Nsta Author      OrigID
mb     4.5        9 NEIC       4051372
mb     4.5          BJI        4010276
ML     4.3          BJI        4010276
Msz    3.6          BJI        4010276
mb     3.7 0.1   12 IDC        4228894
ML     4.2 0.0    1 IDC        4228894
ML     4.0          NDI        4415082
mb     4.5          NEIC       4415082
mb     4.1       19 ISC        4523032

Event  3270639 Xizang
   Date       Time        Err   RMS Latitude Longitude  Smaj  Smin  Az Depth   Err Ndef Nsta Gap  mdist  Mdist Qual   Author      OrigID
2001/02/26 14:31:45.98   3.32 0.470  30.8196   91.5380 943.0  27.9  52   0.0f         3      188  51.77  67.71     uk IDC        4229107
2001/02/26 14:31:56.84   2.04 1.242  31.9210   90.1600 24.59 13.43  90  10.0f        10   10 239   5.03  57.38 m i    ISC        4523404
 (#PRIME)

Magnitude  Err Nsta Author      OrigID
mb     3.7 0.3    3 IDC        4229107
mb     3.8        2 ISC        4523404

Event  1832604 Northeastern India
   Date       Time        Err   RMS Latitude Longitude  Smaj  Smin  Az Depth   Err Ndef Nsta Gap  mdist  Mdist Qual   Author      OrigID
2001/02/27 01:46:04.90        2.200  26.4000   90.5000                  23.0              41                          BJI        4010341
2001/02/27 01:46:05.31   0.20 0.750  26.4860   90.6160   6.1   4.0  18  20.2        103       95  11.01 140.07     fe NEIC       4051653
 (Felt in Assam and Meghalaya. Also felt in parts of Bhutan.)
 (#PARAM pP_DEPTH=20.20000)
2001/02/27 01:46:07.10   1.07        26.4610   90.6670   9.6   7.2   0  33.0         46                               MOS        3085169
2001/02/27 01:46:07.27   0.40 0.520  26.5067   90.6626  13.4   8.8  41  19.2   2.1   48       95  11.08 140.11     uk IDC        4229153
2001/02/27 01:46:07.45        0.740  26.4950   90.5820   4.5   2.8   6  19.5   1.5  189  148                       ke EHB       11212093
2001/02/27 01:46:06.11   1.06 1.238  26.4610   90.5750   3.6 2.285   0  24.0   8.2  177  155  77   1.48 140.04 m i    ISC        4523457
 (#PRIME)
 (#PARAM pP_DEPTH=21+1)

Magnitude  Err Nsta Author      OrigID
mb     4.6          BJI        4010341
ML     3.9          BJI        4010341
Ms     4.2          BJI        4010341
Msz    3.9          BJI        4010341
mb     4.9       38 NEIC       4051653
mb     4.9       26 MOS        3085169
mb     4.4 0.1   23 IDC        4229153
ML     3.6 0.0    1 IDC        4229153
MS     3.3 0.2    4 IDC        4229153
mb     4.7       62 ISC        4523457
MS     3.8        7 ISC        4523457

Event  2738019 Xizang
   Date       Time        Err   RMS Latitude Longitude  Smaj  Smin  Az Depth   Err Ndef Nsta Gap  mdist  Mdist Qual   Author      OrigID
2001/02/27 16:21:18.70        1.200  28.3500   87.2900                  10.0              11                          BJI        4010352
2001/02/27 16:21:19.97   0.62 1.200  28.3820   86.9750  16.1  11.7  52  33.0f        10       88  12.88  68.72     se NEIC       4051711
2001/02/27 16:21:23.69   4.21 1.040  28.3027   86.9410  36.0  17.3  50  54.2  41.6   10      164  12.90  68.68     uk IDC        4229191
2001/02/27 16:21:25.60   4.44 1.500  28.3820   86.9750f 17.0  26.0  -1  33.0f             15 183                      NDI        4415120
2001/02/27 16:21:17.17   0.45 1.318  28.5040   87.0980   5.4 4.487   0  10.0f        47   35  46   1.27  68.72 m i    ISC        4523542
 (#PRIME)

Magnitude  Err Nsta Author      OrigID
ML     3.4          BJI        4010352
mb     3.7 0.1    7 IDC        4229191
ML     4.4 0.6    2 IDC        4229191
mb     4.9          NDI        4415120
mb     4.0        7 ISC        4523542

